{"type":"FeatureCollection","features":[{"type":"Feature","properties":{"cvegeo":"01005","cve_ent":"01","state_code":"AGS","nom_mun":"Jesús María"},"geometry":{"type":"Polygon","coordinates":[[[-102.32684277426446,22.049949868990872],[-102.31067701802368,22.037219153034393],[-102.26534950542698,22.009211577930138],[-102.27866248115468,21.95828871410422],[-102.30845818873573,21.934464088528525],[-102.34332550611781,21.939010772798696],[-102.34617828663089,21.91227626929009],[-102.39689438464119,21.90591091131185],[-102.42193545803377,21.884814296298256],[-102.45680277541585,21.817523369099725],[-102.54111828835796,21.806429459480505],[-102.58929858146774,21.806975061592926],[-102.59880784984468,21.864808885509504],[-102.58010628870338,21.898818083850383],[-102.59341926443108,21.94228438547322],[-102.5763025813526,21.967745817386177],[-102.49230404402306,21.969564491094246],[-102.50181331239999,22.003209954693514],[-102.46821389746816,21.981204002825883],[-102.43239565324839,21.995753392490432],[-102.41654687262017,22.040492765708915],[-102.3816795552381,22.058861370160407],[-102.32684277426446,22.049949868990872]]]}},{"type":"Feature","properties":{"cvegeo":"01011","cve_ent":"01","state_code":"AGS","nom_mun":"San Francisco de los Romo"},"geometry":{"type":"Polygon","coordinates":[[[-102.14109506530176,22.07541130090383],[-102.15345711419177,22.02248789599904],[-102.2082938951654,22.03794662251762],[-102.2295312612072,21.999027005164955],[-102.20353926097692,21.97156503217312],[-102.26661740787723,21.94282998758564],[-102.27866248115468,21.95828871410422],[-102.26534950542698,22.009211577930138],[-102.31067701802368,22.037219153034393],[-102.28626989585622,22.06213498283493],[-102.29641311545828,22.084322802073366],[-102.22667848069413,22.086141475781435],[-102.19149418769949,22.065954197621874],[-102.16328335818126,22.10032713070437],[-102.14109506530176,22.07541130090383]]]}},{"type":"Feature","properties":{"cvegeo":"01001","cve_ent":"01","state_code":"AGS","nom_mun":"Aguascalientes"},"geometry":{"type":"Polygon","coordinates":[[[-102.097986381993,22.023215365482265],[-102.09703545515531,21.995753392490432],[-102.06977555247478,21.969018888981825],[-102.13190277253739,21.976657318555713],[-102.13792530917611,21.943011854956445],[-102.16423428501895,21.937192099090627],[-102.15726082154254,21.86899183503806],[-102.1762793582964,21.843894137866716],[-102.15377408980433,21.788606457141434],[-102.10527682108199,21.802973979435176],[-102.06438696706118,21.79624488671532],[-102.10495984546942,21.751687380867644],[-102.14204599213944,21.7053112013119],[-102.17818121197178,21.688215668456056],[-102.21463340741668,21.694762893805102],[-102.22731243191926,21.656752613306473],[-102.29546218862059,21.653115265890335],[-102.32589184742677,21.622015945482364],[-102.38453233575117,21.651842194294687],[-102.41971662874582,21.669301461892143],[-102.55506521531079,21.74350334918134],[-102.58327604482902,21.74386708392295],[-102.52970716630564,21.784605374983684],[-102.54111828835796,21.806429459480505],[-102.45680277541585,21.817523369099725],[-102.42193545803377,21.884814296298256],[-102.39689438464119,21.90591091131185],[-102.34617828663089,21.91227626929009],[-102.34332550611781,21.939010772798696],[-102.30845818873573,21.934464088528525],[-102.27866248115468,21.95828871410422],[-102.26661740787723,21.94282998758564],[-102.20353926097692,21.97156503217312],[-102.2295312612072,21.999027005164955],[-102.2082938951654,22.03794662251762],[-102.15345711419177,22.02248789599904],[-102.14109506530176,22.07541130090383],[-102.10369194301916,22.057406431193954],[-102.097986381993,22.023215365482265]]]}},{"type":"Feature","properties":{"cvegeo":"01008","cve_ent":"01","state_code":"AGS","nom_mun":"San José de Gracia"},"geometry":{"type":"Polygon","coordinates":[[[-102.35410267694499,22.120696276234735],[-102.3807286284004,22.127061634212975],[-102.38643418942655,22.090142557939185],[-102.41876570190813,22.080503587286422],[-102.41654687262017,22.040492765708915],[-102.43239565324839,21.995753392490432],[-102.46821389746816,21.981204002825883],[-102.50181331239999,22.003209954693514],[-102.49230404402306,21.969564491094246],[-102.5763025813526,21.967745817386177],[-102.59278531320595,22.047403725799576],[-102.64381838682881,22.093416170613708],[-102.69390053361398,22.104691947603733],[-102.6412825819283,22.22836175975239],[-102.67012736267165,22.24563915997904],[-102.66917643583396,22.29165160479317],[-102.61212082557238,22.291469737422364],[-102.52590345895487,22.290924135309943],[-102.46219136082944,22.322932792571947],[-102.45173116561482,22.262370958093268],[-102.4279579946725,22.229816698718842],[-102.36139311603398,22.23108977031449],[-102.37660794543706,22.194534428782315],[-102.38009467717528,22.138701145944612],[-102.35410267694499,22.120696276234735]]]}},{"type":"Feature","properties":{"cvegeo":"01007","cve_ent":"01","state_code":"AGS","nom_mun":"Rincón de Romos"},"geometry":{"type":"Polygon","coordinates":[[[-102.18895838279897,22.362398012037033],[-102.19086023647435,22.319113577785004],[-102.25013467602389,22.289105461601874],[-102.25393838337466,22.227816157639968],[-102.27739457870442,22.225451881819478],[-102.25964394440082,22.183076784421484],[-102.29577916423315,22.169618598981778],[-102.3033865789347,22.14051981965268],[-102.35061594520678,22.14652144288931],[-102.35410267694499,22.120696276234735],[-102.38009467717528,22.138701145944612],[-102.37660794543706,22.194534428782315],[-102.36139311603398,22.23108977031449],[-102.4279579946725,22.229816698718842],[-102.45173116561482,22.262370958093268],[-102.46219136082944,22.322932792571947],[-102.47106667798124,22.336209110640848],[-102.46853087308072,22.35166783715943],[-102.37850979911245,22.36094307307058],[-102.33952179876704,22.36130680781219],[-102.36234404287167,22.328752548437766],[-102.3043375057724,22.331844293741483],[-102.3166995546624,22.312748219806764],[-102.27961340799237,22.281467032027987],[-102.24664794428568,22.298380697513025],[-102.23872355397157,22.35221343927185],[-102.25330443214953,22.37458312588109],[-102.18895838279897,22.362398012037033]]]}},{"type":"Feature","properties":{"cvegeo":"01009","cve_ent":"01","state_code":"AGS","nom_mun":"Tepezalá"},"geometry":{"type":"Polygon","coordinates":[[[-102.162015455731,22.348394224484906],[-102.15345711419177,22.290378533197522],[-102.12429535783585,22.286923053152194],[-102.12809906518662,22.153432402979966],[-102.17596238268384,22.12960777740427],[-102.20449018781463,22.160888965183048],[-102.25964394440082,22.183076784421484],[-102.27739457870442,22.225451881819478],[-102.25393838337466,22.227816157639968],[-102.25013467602389,22.289105461601874],[-102.19086023647435,22.319113577785004],[-102.18895838279897,22.362398012037033],[-102.162015455731,22.348394224484906]]]}},{"type":"Feature","properties":{"cvegeo":"01004","cve_ent":"01","state_code":"AGS","nom_mun":"Cosío"},"geometry":{"type":"Polygon","coordinates":[[[-102.25330443214953,22.37458312588109],[-102.23872355397157,22.35221343927185],[-102.24664794428568,22.298380697513025],[-102.27961340799237,22.281467032027987],[-102.3166995546624,22.312748219806764],[-102.3043375057724,22.331844293741483],[-102.36234404287167,22.328752548437766],[-102.33952179876704,22.36130680781219],[-102.37850979911245,22.36094307307058],[-102.35917428674603,22.384767698646275],[-102.32145418885086,22.38858691343322],[-102.31194492047393,22.456969044856592],[-102.29831496913367,22.459515188047888],[-102.29007360320699,22.419868101211996],[-102.25330443214953,22.37458312588109]]]}},{"type":"Feature","properties":{"cvegeo":"01002","cve_ent":"01","state_code":"AGS","nom_mun":"Asientos"},"geometry":{"type":"Polygon","coordinates":[[[-101.99972394209806,22.219450258582853],[-102.00099184454831,22.167981792644515],[-102.0260329179409,22.129789644775077],[-101.96802638084162,22.11123917295278],[-101.86437535553307,22.041583969933757],[-101.86183955063257,22.028853253977278],[-101.86247350185769,21.991388575591067],[-101.89765779485234,21.95828871410422],[-101.94837389286263,22.008847843188526],[-101.99179955178394,22.00793850633449],[-101.98736189320805,22.039219694113267],[-102.04219867418168,22.058315768047986],[-102.0482212108204,22.047039991057964],[-102.06502091828631,22.017395609616447],[-102.097986381993,22.023215365482265],[-102.10369194301916,22.057406431193954],[-102.14109506530176,22.07541130090383],[-102.16328335818126,22.10032713070437],[-102.19149418769949,22.065954197621874],[-102.19244511453718,22.10141833492921],[-102.2171692123172,22.106146886570187],[-102.20449018781463,22.160888965183048],[-102.17596238268384,22.12960777740427],[-102.12809906518662,22.153432402979966],[-102.12429535783585,22.286923053152194],[-102.07548111350093,22.306019127086913],[-102.0374440399932,22.298744432254637],[-102.02254618620269,22.24145621045048],[-101.99972394209806,22.219450258582853]]]}},{"type":"Feature","properties":{"cvegeo":"01003","cve_ent":"01","state_code":"AGS","nom_mun":"Calvillo"},"geometry":{"type":"Polygon","coordinates":[[[-102.5763025813526,21.967745817386177],[-102.59341926443108,21.94228438547322],[-102.58010628870338,21.898818083850383],[-102.59880784984468,21.864808885509504],[-102.58929858146774,21.806975061592926],[-102.54111828835796,21.806429459480505],[-102.52970716630564,21.784605374983684],[-102.58327604482902,21.74386708392295],[-102.63367516722676,21.767327974757034],[-102.6910477531009,21.752414850350874],[-102.69611936290192,21.728590224775175],[-102.74556755846197,21.720042458347255],[-102.8536562423464,21.798791029906617],[-102.8476337057077,21.83316396298911],[-102.86855409613693,21.860625935980945],[-102.84351302274435,21.926280056842216],[-102.8057929248492,21.996298994602853],[-102.74556755846197,22.080503587286422],[-102.69390053361398,22.104691947603733],[-102.64381838682881,22.093416170613708],[-102.59278531320595,22.047403725799576],[-102.5763025813526,21.967745817386177]]]}},{"type":"Feature","properties":{"cvegeo":"01010","cve_ent":"01","state_code":"AGS","nom_mun":"El Llano"},"geometry":{"type":"Polygon","coordinates":[[[-101.89765779485234,21.95828871410422],[-101.88592969718745,21.932645414820456],[-101.83553057478971,21.94155691598999],[-101.83806637969023,21.907183982907497],[-101.88054111177385,21.91009386084041],[-101.94171740499878,21.889360980568426],[-102.03871194244347,21.853169373777867],[-102.05297584500886,21.813340419571166],[-102.06438696706118,21.79624488671532],[-102.10527682108199,21.802973979435176],[-102.15377408980433,21.788606457141434],[-102.1762793582964,21.843894137866716],[-102.15726082154254,21.86899183503806],[-102.16423428501895,21.937192099090627],[-102.13792530917611,21.943011854956445],[-102.13190277253739,21.976657318555713],[-102.06977555247478,21.969018888981825],[-102.09703545515531,21.995753392490432],[-102.097986381993,22.023215365482265],[-102.06502091828631,22.017395609616447],[-102.0482212108204,22.047039991057964],[-102.04219867418168,22.058315768047986],[-101.98736189320805,22.039219694113267],[-101.99179955178394,22.00793850633449],[-101.94837389286263,22.008847843188526],[-101.89765779485234,21.95828871410422]]]}},{"type":"Feature","properties":{"cvegeo":"01006","cve_ent":"01","state_code":"AGS","nom_mun":"Pabellón de Arteaga"},"geometry":{"type":"Polygon","coordinates":[[[-102.20449018781463,22.160888965183048],[-102.2171692123172,22.106146886570187],[-102.19244511453718,22.10141833492921],[-102.19149418769949,22.065954197621874],[-102.22667848069413,22.086141475781435],[-102.29641311545828,22.084322802073366],[-102.28626989585622,22.06213498283493],[-102.31067701802368,22.037219153034393],[-102.32684277426446,22.049949868990872],[-102.3816795552381,22.058861370160407],[-102.41654687262017,22.040492765708915],[-102.41876570190813,22.080503587286422],[-102.38643418942655,22.090142557939185],[-102.3807286284004,22.127061634212975],[-102.35410267694499,22.120696276234735],[-102.35061594520678,22.14652144288931],[-102.3033865789347,22.14051981965268],[-102.29577916423315,22.169618598981778],[-102.25964394440082,22.183076784421484],[-102.20449018781463,22.160888965183048]]]}}]}