{"type":"FeatureCollection","features":[{"type":"Feature","properties":{"cvegeo":"02004","cve_ent":"02","state_code":"BCN","nom_mun":"Tijuana"},"geometry":{"type":"Polygon","coordinates":[[[-116.69122660884307,32.57097727016691],[-116.70105285283256,32.5124159767671],[-116.66903831596356,32.4112977185985],[-116.61483548621506,32.366194610638395],[-116.58916046159734,32.297812479215025],[-116.52513138785935,32.28217188532563],[-116.53432368062371,32.24998136069282],[-116.67601177943997,32.18505470931478],[-116.82277148805727,32.29817621395664],[-116.94924475747044,32.29817621395664],[-116.94924475747044,32.31709042052055],[-116.90708700099938,32.334004086005585],[-116.94924475747044,32.343097454545926],[-116.98601392852791,32.40165874794573],[-117.02056427029743,32.413480127048174],[-117.09568749047517,32.41329825967737],[-117.12421529560596,32.48622707537091],[-117.12358134438084,32.53424006126392],[-116.69122660884307,32.57097727016691]]]}},{"type":"Feature","properties":{"cvegeo":"02003","cve_ent":"02","state_code":"BCN","nom_mun":"Tecate"},"geometry":{"type":"Polygon","coordinates":[[[-115.87945206506576,32.63608578891576],[-115.88198786996628,32.582980516640156],[-115.87438045526474,32.38620002142715],[-116.1476134332952,32.23579570576989],[-116.53432368062371,32.24998136069282],[-116.52513138785935,32.28217188532563],[-116.58916046159734,32.297812479215025],[-116.61483548621506,32.366194610638395],[-116.66903831596356,32.4112977185985],[-116.70105285283256,32.5124159767671],[-116.69122660884307,32.57097727016691],[-115.87945206506576,32.63608578891576]]]}},{"type":"Feature","properties":{"cvegeo":"02005","cve_ent":"02","state_code":"BCN","nom_mun":"Playas de Rosarito"},"geometry":{"type":"Polygon","coordinates":[[[-116.67601177943997,32.18505470931478],[-116.88426475689475,32.089392472270376],[-116.88680056179527,32.12340167061126],[-116.92325275724016,32.22779354145439],[-116.94290524521915,32.24598027853507],[-117.02468495326076,32.26871369988593],[-117.09568749047517,32.41329825967737],[-117.02056427029743,32.413480127048174],[-116.98601392852791,32.40165874794573],[-116.94924475747044,32.343097454545926],[-116.90708700099938,32.334004086005585],[-116.94924475747044,32.31709042052055],[-116.94924475747044,32.29817621395664],[-116.82277148805727,32.29817621395664],[-116.67601177943997,32.18505470931478]]]}},{"type":"Feature","properties":{"cvegeo":"02002","cve_ent":"02","state_code":"BCN","nom_mun":"Mexicali"},"geometry":{"type":"MultiPolygon","coordinates":[[[[-112.89227389225934,28.678288065417178],[-112.85582169681444,28.670831503214096],[-112.7566083300818,28.593174135879572],[-112.77372501316027,28.578442878844218],[-112.80954325738004,28.618817435163336],[-112.8659649164165,28.649007418717275],[-112.89227389225934,28.678288065417178]]],[[[-113.51386306849803,29.551251445290035],[-113.42289106769206,29.49287201926104],[-113.38580492102203,29.460135892515808],[-113.34459809138866,29.382842259922896],[-113.36963916478125,29.353561613222993],[-113.36203175007971,29.306821698925635],[-113.34333018893841,29.29609152404803],[-113.25013935884449,29.282633338608324],[-113.17343126060392,29.288453094474143],[-113.16931057764059,29.22698192314143],[-113.17469916305417,29.12768233868089],[-113.14839018721133,29.06621116734818],[-113.10020989410155,29.055480992470574],[-113.11542472350465,28.987826330530428],[-113.18896306561957,29.028200886849547],[-113.2491884320068,29.07294026006803],[-113.30085545685479,29.14514160627835],[-113.40450648216333,29.209340788173165],[-113.44888306792234,29.28008719541703],[-113.49579545858187,29.28336080809155],[-113.57060170314705,29.401574599116003],[-113.58866931306322,29.408849293948276],[-113.5915220935763,29.45377053453757],[-113.56426219089576,29.511058756341725],[-113.572820532435,29.537611392479523],[-113.51386306849803,29.551251445290035]]],[[[-114.74658122576078,31.801860159024756],[-114.71393273766665,31.748573019378348],[-114.66860522506995,31.718746770566028],[-114.64990366392865,31.682009561663044],[-114.71741946940486,31.680918357438202],[-114.79222571397005,31.730750017039277],[-114.7998331286716,31.81240846653155],[-114.74658122576078,31.801860159024756]]],[[[-114.81346308001186,32.493683637573994],[-114.84896434861906,32.47331449204363],[-114.88700142212679,32.49168309649512],[-114.93961937381248,32.474223828897664],[-114.93232893472349,32.438395956848716],[-114.9687811301684,32.39092857306813],[-114.96244161791711,32.351827088344656],[-115.02520278920484,32.28981031489952],[-115.0530966431105,32.245070941681035],[-114.97575459364481,32.17778001448251],[-114.98970152059763,32.14631695933292],[-114.95705303250351,32.03846960844446],[-114.96751322771813,31.9970038479005],[-114.96592834965531,31.918255276341135],[-114.91109156868168,31.867514279886024],[-114.8407229826924,31.859875850312136],[-114.806806592148,31.8164095486893],[-114.81694981175006,31.728567608589593],[-114.78937293345697,31.672006856268666],[-114.79032386029466,31.616719175543388],[-114.83279859237828,31.57852702767395],[-114.8575226901583,31.502870201418297],[-114.85974151944626,31.42921391624153],[-114.88002795865037,31.39265857470935],[-114.88256376355089,31.253166301300503],[-114.89080512947756,31.152775512615122],[-114.8673489341478,31.090213137057567],[-114.8121951775616,31.04401882487263],[-114.83501742166624,31.004553605407544],[-114.81251215317417,30.97927404086539],[-114.72185712798077,30.936898943467398],[-114.70410649367716,30.865606934111113],[-115.39479635345488,30.971635611291504],[-115.46453098821904,31.47922744321341],[-115.56152552566373,31.55833974951439],[-115.84775450380933,31.98991102043903],[-115.87438045526474,32.38620002142715],[-115.88198786996628,32.582980516640156],[-115.87945206506576,32.63608578891576],[-114.71963829869281,32.71865357526207],[-114.80205195795955,32.5867997314271],[-114.81346308001186,32.493683637573994]]]]}},{"type":"Feature","properties":{"cvegeo":"02001","cve_ent":"02","state_code":"BCN","nom_mun":"Ensenada"},"geometry":{"type":"MultiPolygon","coordinates":[[[[-115.21380327868063,28.375115158282163],[-115.16752483924624,28.26926834847258],[-115.17544922956034,28.210707055072774],[-115.15928347331956,28.192702185362897],[-115.15643069280648,28.140869984682947],[-115.18622640038754,28.10558771474642],[-115.18495849793727,28.03211329694045],[-115.25469313270143,28.03847865491869],[-115.26134962056528,28.06812303636021],[-115.3047752794866,28.095948744093654],[-115.35390649943407,28.07739827227136],[-115.35041976769587,28.116136022253215],[-115.31428454786354,28.139233178345684],[-115.2416971325863,28.222164699433606],[-115.26261752301555,28.292183637194242],[-115.24550083993707,28.351290532706468],[-115.21380327868063,28.375115158282163]]],[[[-113.52495721493779,29.09549181404808],[-113.50245194644572,29.089308323440648],[-113.50720658063418,29.041659072289256],[-113.52495721493779,29.09549181404808]]],[[[-118.32650379406255,29.173694783495023],[-118.33633003805204,29.151143229514975],[-118.31921335497356,29.10640385629649],[-118.26088984226172,29.068211708427054],[-118.24789384214658,29.01419709929742],[-118.24757686653402,28.922354077039962],[-118.26596145206275,28.887799276586662],[-118.31540964762279,28.872704284809693],[-118.30558340363329,28.896892645127004],[-118.31826242813587,28.955090203785197],[-118.35408067235564,29.042204674401674],[-118.39940818495234,29.06857544316867],[-118.40004213617748,29.15368937270627],[-118.32650379406255,29.173694783495023]]],[[[-114.70410649367716,30.865606934111113],[-114.69618210336306,30.817230213476492],[-114.70505742051485,30.7164756900495],[-114.6993518594887,30.635908444782068],[-114.65243946882917,30.5571598732227],[-114.63405488330044,30.501144723014193],[-114.63120210278736,30.419668140892725],[-114.65624317617994,30.27872092851742],[-114.64071137116429,30.25780618087463],[-114.66892220068252,30.198335550620794],[-114.58270483406501,30.0683003804939],[-114.56495419976142,30.009920954464903],[-114.53452454095523,29.968091459179327],[-114.49109888203392,29.951177793694292],[-114.47366522334288,29.916259258499377],[-114.41375683256821,29.891161561328033],[-114.41534171063104,29.85715236298715],[-114.3880818079505,29.7787675261694],[-114.33736570994022,29.743848990974485],[-114.29710980714454,29.741666582524804],[-114.27175175813939,29.772220300820354],[-114.2102584893019,29.744940195199327],[-114.15954239129161,29.6911074534405],[-114.07269107344898,29.6352741706028],[-114.04733302444383,29.59708202273336],[-113.99534902398328,29.57798594879864],[-113.94082921862221,29.522698268073363],[-113.83210658351264,29.435583797456882],[-113.77568492447618,29.41139543713957],[-113.69517311888484,29.3244628338939],[-113.63748355739813,29.283178940720745],[-113.62512150850812,29.252625222425195],[-113.65681906976455,29.216433615634635],[-113.64287214281173,29.18424309100182],[-113.56711497140884,29.10822253000456],[-113.53763623944036,29.036384918535855],[-113.56077545915755,29.023654202579376],[-113.5452436541419,28.963274235471502],[-113.55697175180678,28.94508749839082],[-113.51291214166034,28.88907234818231],[-113.48311643407929,28.892891562969254],[-113.48026365356621,28.947269906840503],[-113.42510989698002,28.9498160500318],[-113.41686853105334,28.923990883377225],[-113.36805428671843,28.903258003105243],[-113.37122404284408,28.838513219098008],[-113.34713389628918,28.799593601745343],[-113.32462862779711,28.799957336486955],[-113.25964862722142,28.84015002543527],[-113.23365662699115,28.83487587168187],[-113.19625350470855,28.791955172171456],[-113.19466862664574,28.744851523132482],[-113.15536365068775,28.655372776695515],[-113.12810374800722,28.628820140557714],[-113.12873769923235,28.593174135879572],[-113.10433057706489,28.506059665263095],[-113.01652833238457,28.457682944628473],[-112.98387984429044,28.454773066695562],[-112.90431896553679,28.474596610113508],[-112.87103652621754,28.43203964534471],[-112.84662940405008,28.440951146514244],[-112.84948218456316,28.382026118372824],[-112.86913467254215,28.33674114304192],[-112.87357233111804,28.28199906442906],[-112.78640403766285,28.19615766540823],[-112.81207906228056,28.135777698300355],[-112.78893984256337,28.067213699506176],[-112.80510559880415,28.02702101055786],[-112.76484969600847,27.99992277230764],[-113.20005721205932,27.99992277230764],[-113.85841555935548,27.99992277230764],[-114.20486990388831,27.99992277230764],[-114.14020687892518,28.081035619687494],[-114.08251731743847,28.16724075344994],[-114.0609629757841,28.214162535118106],[-114.08156639060078,28.247626131346564],[-114.12372414707184,28.257810704111748],[-114.06032902455897,28.395666171183336],[-114.04479721954331,28.458774148853315],[-114.06952131732334,28.515153033803436],[-114.11675068359543,28.558801202797078],[-114.16207819619213,28.57025884715791],[-114.1639800498675,28.64045965228935],[-114.18394951345907,28.657009583032774],[-114.27048385568914,28.66010132833649],[-114.269849904464,28.689563842407203],[-114.31517741706071,28.726301051310184],[-114.346241027092,28.730484000838743],[-114.34243731974124,28.75521796326847],[-114.37730463712332,28.814688593522312],[-114.39949293000282,28.82159955361297],[-114.40868522276719,28.868703202651943],[-114.4885630771334,28.93290238454676],[-114.5338905897301,28.924900220231258],[-114.54593566300755,28.951270988998253],[-114.60108941959375,28.986189524193165],[-114.60806288307016,29.059118339886712],[-114.63627371258839,29.098037957239377],[-114.71615156695461,29.11040493845424],[-114.74531332331053,29.18315188677698],[-114.81187820194904,29.212978135589303],[-114.86386220240959,29.275722378517663],[-114.95071352025222,29.361563777538496],[-115.08099049701617,29.418306397230232],[-115.19129801018856,29.43049151107429],[-115.2363085471727,29.500874183576542],[-115.29970366968557,29.54124873989566],[-115.37894757282666,29.558344272751505],[-115.4461464026903,29.618724239859375],[-115.50605479346497,29.617087433522116],[-115.59005333079452,29.69510853559825],[-115.61889811153787,29.695290402969057],[-115.69972689274178,29.75512476796451],[-115.68451206333869,29.826416777320794],[-115.70194572202973,29.899709327755954],[-115.74410347850079,29.94826791576138],[-115.81193625958956,29.953542069514782],[-115.78214055200851,30.093216210294436],[-115.80274396682519,30.151959371065047],[-115.79513655212365,30.19469820320466],[-115.80274396682519,30.279994000113067],[-115.83412455246906,30.3392827629961],[-115.90956474825938,30.397844056395904],[-115.95140552911788,30.403845679632532],[-116.00687626131663,30.36619913387551],[-116.01638552969357,30.42912524417468],[-116.04744913972488,30.470409137347836],[-116.02652874929562,30.647547956513705],[-116.04713216411231,30.718658098499183],[-116.05156982268821,30.780674871944314],[-116.07090533505463,30.81450220291439],[-116.10830845733723,30.824323040937955],[-116.14222484788161,30.855240493975124],[-116.17709216526369,30.863242658290623],[-116.26743021484452,30.965088385942458],[-116.31941421530509,30.955995017402117],[-116.33938367889664,30.97818283664055],[-116.31085587376585,31.10803613939664],[-116.30895402009045,31.150593104165438],[-116.3939034842577,31.284447489079277],[-116.45381187503237,31.329004994926954],[-116.48741128996419,31.3701070207293],[-116.50040729007932,31.410481577048422],[-116.57077587606861,31.465041788290478],[-116.60310738855017,31.463950584065635],[-116.60849597396377,31.497050445552482],[-116.64621607185893,31.51505531526236],[-116.6899587063928,31.571252332841674],[-116.65033675482226,31.58598358987703],[-116.66808738912587,31.617628512397417],[-116.65033675482226,31.66436842669478],[-116.73306738970156,31.749846090973996],[-116.66301577932484,31.718746770566028],[-116.64272934012072,31.734932966567833],[-116.60944690080146,31.815863946576883],[-116.62719753510507,31.860603319795366],[-116.66903831596356,31.861512656649403],[-116.69756612109435,31.893703181282213],[-116.74669734104182,31.902432815080942],[-116.76444797534543,31.966268262234145],[-116.85161626880063,31.988092346730966],[-116.88141197638167,32.02064660610539],[-116.88426475689475,32.089392472270376],[-116.67601177943997,32.18505470931478],[-116.53432368062371,32.24998136069282],[-116.1476134332952,32.23579570576989],[-115.87438045526474,32.38620002142715],[-115.84775450380933,31.98991102043903],[-115.56152552566373,31.55833974951439],[-115.46453098821904,31.47922744321341],[-115.39479635345488,30.971635611291504],[-114.70410649367716,30.865606934111113]]]]}}]}