{"type":"FeatureCollection","features":[{"type":"Feature","properties":{"cvegeo":"03009","cve_ent":"03","state_code":"BCS","nom_mun":"Loreto"},"geometry":{"type":"MultiPolygon","coordinates":[[[[-111.56161027071421,26.55571398073048],[-111.45066880631668,26.516612496007006],[-111.47254012358363,26.456414396269942],[-111.46937036745798,26.413311829388718],[-111.39583202534305,26.339473676841138],[-111.38346997645304,26.28054864869972],[-111.39583202534305,26.250904267258207],[-111.34511592733276,26.112321330703388],[-111.31912392710248,26.07685719339605],[-111.34574987855788,26.026116196940944],[-111.33560665895583,26.002837173477666],[-111.35684402499764,25.96810050565356],[-111.33687456140608,25.908266140658107],[-111.33243690283018,25.83479172285214],[-111.3162711465894,25.836792263931017],[-111.30390909769939,25.770592540957324],[-111.22593309700856,25.726035035109646],[-111.19423553575213,25.614914071546664],[-111.11562558383616,25.525071590368082],[-111.01672919271608,25.5148870176029],[-111.02718938793072,25.451051570449696],[-111.00405016821351,25.416496769996396],[-110.97996002165863,25.341385545853168],[-110.93399855783679,25.29100828413967],[-110.94509270427655,25.252088666787007],[-110.92068558210909,25.202984476669158],[-111.03891748559559,25.21844320318774],[-111.05096255887304,25.338111933178645],[-111.01799709516635,25.34702343434818],[-111.04494002223431,25.42940935332368],[-111.08044129084152,25.442503804021776],[-111.0985089007577,25.474148726542168],[-111.15746636469466,25.479786615037177],[-111.25255904846397,25.415951167883975],[-111.30771280505016,25.440139528201286],[-111.34955358590865,25.488152514094295],[-111.40882802545819,25.491426126768815],[-111.42848051343718,25.53725670421214],[-111.47887963583491,25.576358188935615],[-111.58760227094449,25.601819620848573],[-111.62500539322707,25.64928700462916],[-111.65353319835786,25.70803016539977],[-111.64941251539453,25.7540426102139],[-111.67096685704891,25.909539212253755],[-111.6798421742007,26.02920794224466],[-111.66462734479762,26.08449562296994],[-111.71090578423201,26.121232831872923],[-111.72548666240998,26.177611716823044],[-111.71344158913253,26.18215840109322],[-111.7635237359177,26.274365158092287],[-111.72295085750946,26.31510344915302],[-111.78919876053541,26.409128879860162],[-111.77271602868205,26.553895307022408],[-111.74006754058793,26.538072845762215],[-111.69315514992842,26.566262288237276],[-111.65575202764582,26.56189747133791],[-111.61422822239989,26.523705323468473],[-111.56161027071421,26.55571398073048]]],[[[-111.0601548516374,26.071037437530237],[-111.08075826645408,26.0328452896608],[-111.06744529072638,25.96573622983307],[-111.10611631545923,25.998836091319916],[-111.17997163318672,25.905538130096005],[-111.1828244136998,25.86643664537253],[-111.20406177974162,25.848977377775075],[-111.20184295045367,25.80823908671434],[-111.22878587752164,25.822606609008083],[-111.20913338954264,25.92990835778412],[-111.16824353552185,25.98883338592554],[-111.17553397461083,26.041756790830334],[-111.12767065711361,26.066672620630868],[-111.10579933984667,26.053032567820356],[-111.0601548516374,26.071037437530237]]],[[[-110.77360889787923,25.7114856454451],[-110.7596619709264,25.592908119679038],[-110.80403855668541,25.640375503459623],[-110.79991787372208,25.683478070340847],[-110.77360889787923,25.7114856454451]]],[[[-111.03511377824482,25.714213656007203],[-111.01419338781558,25.669110548047104],[-111.04715885152227,25.664200129035322],[-111.05952090041228,25.70857576751219],[-111.03511377824482,25.714213656007203]]]]}},{"type":"Feature","properties":{"cvegeo":"03003","cve_ent":"03","state_code":"BCS","nom_mun":"La Paz"},"geometry":{"type":"MultiPolygon","coordinates":[[[[-109.80049376730668,24.151972940776396],[-109.8020786453695,24.137605418482657],[-109.87371513380904,24.153791614484465],[-109.92284635375653,24.262184567485345],[-109.91840869518062,24.291101479443633],[-109.93964606122243,24.324383208301285],[-109.93077074407063,24.375851674239623],[-109.80049376730668,24.151972940776396]]],[[[-110.3542501624566,24.531348276279477],[-110.2892701618809,24.473332584992093],[-110.3079717230222,24.42495586435747],[-110.34886157704301,24.401313106152582],[-110.34695972336762,24.43132122233571],[-110.37865728462405,24.447871153079134],[-110.39767582137792,24.51043352863669],[-110.3542501624566,24.531348276279477]]],[[[-110.39133630912663,24.590273304420897],[-110.36217455277071,24.554991034484367],[-110.41130577271818,24.572632169452632],[-110.39133630912663,24.590273304420897]]],[[[-110.70704401924073,25.10477609643346],[-110.66868997012044,25.05185269152867],[-110.60244206709449,25.03857637345977],[-110.57486518880138,25.015661084738106],[-110.57106148145061,24.956917923967495],[-110.5266848956916,24.881079230341044],[-110.58310655472806,24.8667117080473],[-110.5739142619637,24.888172057802507],[-110.65379211632991,24.946005881719085],[-110.68136899462301,25.02020776900828],[-110.71243260465431,25.03002860703185],[-110.70704401924073,25.10477609643346]]],[[[-109.69779366883583,23.6712974797339],[-109.69747669322327,23.652928875282413],[-109.81919532844798,23.600732939860848],[-109.85659845073057,23.614191125300554],[-109.86357191420699,23.58436487648823],[-109.89590342668855,23.57799951850999],[-109.93140469529575,23.610008175771995],[-109.93394050019627,23.48924824155625],[-109.84613825551595,23.456693982181825],[-109.85342869460493,23.42122984487449],[-109.93615932948423,23.479063668791067],[-109.98814332994478,23.45687584955263],[-109.99479981780863,23.40049696460251],[-110.02586342783994,23.39067612657894],[-109.96944176880348,23.383947033859087],[-109.96310225655219,23.342663140685932],[-109.9256991342696,23.273735407150138],[-109.94978928082449,23.261368425935274],[-109.9586645979763,23.221721339099382],[-109.97768313473016,23.236270728763927],[-109.939963036835,23.16406938255361],[-109.94598557347372,23.135152470595322],[-110.00335815934787,23.169707271048622],[-110.048368696332,23.13860795064065],[-110.1203221603841,23.114237722952534],[-110.15392157531593,23.22972350341488],[-110.15931016072952,23.286647990477423],[-110.26327816165063,23.476153790858156],[-110.30765474740964,23.538170564303293],[-110.37326869921046,23.592912642916154],[-110.55172596908419,23.67038814287987],[-110.5995892865814,23.698941320096544],[-110.68295387268583,23.76823278837395],[-110.82337406905184,23.91718216506476],[-111.01894802200404,24.090865504185295],[-111.12196509608745,24.157247094529794],[-111.24748743866293,24.228539103886078],[-111.40280548881947,24.308560747041092],[-111.53086363629546,24.358574274012973],[-111.58411553920628,24.368395112036545],[-111.69442305237867,24.35075397706828],[-111.7492598333523,24.440778325617668],[-111.82121329740441,24.470240839688376],[-111.71470949158278,24.569540424148915],[-111.68206100348866,24.583544211701042],[-111.66811407653583,24.650471404157962],[-111.57904392940524,24.685026204611262],[-111.57872695379268,24.72139967877263],[-111.53561827048392,24.733402925245883],[-111.48204939196056,24.767412123586762],[-111.41802031822256,24.76413851091224],[-111.34448197610763,24.771958807856933],[-111.31848997587736,24.87525947447522],[-111.27696617063143,24.85179858364114],[-111.22941982874677,24.863256228001973],[-111.19074880401392,24.849070573079036],[-111.18948090156366,24.876168811329258],[-111.15936821837005,24.867257310159722],[-111.1340101693649,24.909268672816104],[-111.12450090098797,24.959827801900406],[-111.08899963238076,24.958736597675564],[-111.02528753425533,24.921999388772583],[-110.98946929003556,24.942732269044562],[-110.99295602177376,25.01948029952505],[-110.87852782563803,25.07094876546339],[-110.86996948409879,25.102775555354587],[-110.81227992261208,25.032029148110723],[-110.76092987337665,25.014751747884073],[-110.74983572693691,24.96582942513703],[-110.68548967758635,24.88398910827395],[-110.65727884806812,24.807241077793464],[-110.69404801912559,24.70175800272549],[-110.7276474340574,24.672841090767204],[-110.74032645855998,24.620099553233217],[-110.72986626334536,24.51516208027767],[-110.6867575800366,24.46187494063126],[-110.69309709228789,24.40549605568114],[-110.67724831165967,24.35075397706828],[-110.64111309182734,24.31547170713175],[-110.60783065250808,24.252181862090968],[-110.55267689592188,24.207988090984905],[-110.3986267482156,24.173797025273217],[-110.30290011322117,24.1812535874763],[-110.30702079618452,24.234540727122706],[-110.336499528153,24.257637883215175],[-110.3399862598912,24.314562370277716],[-110.29782850342015,24.352208916034733],[-110.23443338090728,24.344206751719234],[-110.2369691858078,24.319109054547887],[-110.19354352688647,24.293283887893317],[-110.17484196574517,24.25272746420339],[-110.07848137952561,24.209261162580553],[-110.00811279353633,24.159429502979478],[-109.98814332994478,24.048672274158108],[-109.9301367928455,24.028484995998546],[-109.8287045968249,24.061584857485393],[-109.80461445027002,24.020664699053853],[-109.83916479203953,23.97192424367762],[-109.82141415773593,23.908270663895223],[-109.77386781585128,23.876080139262413],[-109.69969552251122,23.798240904557083],[-109.71300849823892,23.733132385808233],[-109.69779366883583,23.6712974797339]]]]}},{"type":"Feature","properties":{"cvegeo":"03002","cve_ent":"03","state_code":"BCS","nom_mun":"Mulegé"},"geometry":{"type":"MultiPolygon","coordinates":[[[[-112.08049934848205,27.25099293932505],[-112.04341320181202,27.208072239814634],[-112.05926198244023,27.179700929968767],[-112.08525398267051,27.18643002268862],[-112.10871017800027,27.239353427593414],[-112.08049934848205,27.25099293932505]]],[[[-111.9448337863045,27.434497116469156],[-111.92866803006372,27.41067249089346],[-111.96385232305836,27.41467357305121],[-111.9448337863045,27.434497116469156]]],[[[-115.19319986386395,27.885346328699328],[-115.15864952209444,27.864249713685734],[-115.17386435149753,27.849336589279574],[-115.19319986386395,27.885346328699328]]],[[[-111.56161027071421,26.55571398073048],[-111.61422822239989,26.523705323468473],[-111.65575202764582,26.56189747133791],[-111.69315514992842,26.566262288237276],[-111.74006754058793,26.538072845762215],[-111.77271602868205,26.553895307022408],[-111.84942412692263,26.56317054293356],[-111.91567202994858,26.534617365716883],[-111.96385232305836,26.498243891555514],[-112.07859749480666,26.538436580503827],[-112.11726851953951,26.530252548817522],[-112.22599115464908,26.53188935515478],[-112.29509183818811,26.57517378940681],[-112.38067525358048,26.59026878118378],[-112.41047096116154,26.581721014755857],[-112.55786462100396,26.577719932598107],[-112.59938842624989,26.582448484239084],[-112.61206745075246,26.5031543105673],[-112.64915359742248,26.52734267088461],[-112.66119867069993,26.509701535916346],[-112.71825428096152,26.502063106342458],[-112.7753098912231,26.54934862275224],[-112.77911359857387,26.500062565263583],[-112.76199691549539,26.434954046514733],[-112.78703798888797,26.405855267185636],[-112.86945164815471,26.470600051192875],[-112.97817428326428,26.53370802886285],[-113.0659765279446,26.606091242443973],[-113.12525096749414,26.63682682811033],[-113.13824696760928,26.659560249461187],[-113.19974023644676,26.68993210038593],[-113.26376931018476,26.700116673151115],[-113.28310482255118,26.753221945426713],[-113.37217496968177,26.798688788128423],[-113.46092814119979,26.809237095635222],[-113.51069331237238,26.790141021700503],[-113.54746248342985,26.720667686052288],[-113.57694121539834,26.704663357421285],[-113.63843448423582,26.729579187221823],[-113.68027526509431,26.776682836260797],[-113.73384414361769,26.799416257611654],[-113.77917165621439,26.90799107798334],[-113.82988775422469,26.956185931247152],[-113.87458131559626,26.980738026306078],[-113.9471687308735,26.99947036549918],[-114.00295643868482,26.97255399461977],[-114.05303858546999,27.021658184737618],[-114.06223087823436,27.052393770403974],[-114.13038063493569,27.11495614596153],[-114.18775322080984,27.140417577874487],[-114.27492151426503,27.14951094641483],[-114.29425702663146,27.127504994547202],[-114.38744785672537,27.181337736306027],[-114.43499419861003,27.177518521519083],[-114.43214141809695,27.20661730084818],[-114.48824610152084,27.228441385345],[-114.48697819907058,27.336288736233463],[-114.5072646382747,27.4090356845562],[-114.57382951691321,27.45050144510016],[-114.59570083418015,27.475599142271506],[-114.66606942016944,27.505607258454635],[-114.73833985983411,27.52488519976016],[-114.77732786017953,27.59872335230774],[-114.81156122633648,27.626549060041185],[-114.86100942189651,27.6269127947828],[-114.87146961711113,27.649828083504463],[-114.93074405666067,27.67601698490065],[-114.94120425187529,27.706388835825393],[-114.98621478885943,27.728576655063826],[-115.00016171581227,27.71693714333219],[-115.03407810635665,27.761130914438255],[-115.05690035046128,27.822783953141773],[-115.08225839946643,27.84788165031312],[-115.05594942362359,27.861521703123632],[-115.01505956960278,27.831331719569697],[-114.92440454440938,27.8340597301318],[-114.85340200719497,27.826603167928717],[-114.838821129017,27.810053237185294],[-114.73770590860899,27.80859829821884],[-114.69332932284998,27.78677421372202],[-114.60521010255708,27.77349789565312],[-114.53357361411754,27.785864876867983],[-114.5018760528611,27.771861089315856],[-114.4432355645367,27.796049449633166],[-114.33039224646379,27.871160673776394],[-114.29489097785658,27.864067846314928],[-114.26572922150066,27.888438074003044],[-114.2654122458881,27.94245268313268],[-114.20486990388831,27.99992277230764],[-113.85841555935548,27.99992277230764],[-113.20005721205932,27.99992277230764],[-112.76484969600847,27.99992277230764],[-112.75692530569437,27.9642767676295],[-112.7718231594849,27.862067305236053],[-112.71983915902433,27.82533009633307],[-112.70367340278355,27.755129291201627],[-112.6605647194748,27.70893497901669],[-112.64249710955863,27.709480581129107],[-112.59526774328654,27.65055555298769],[-112.53060471832342,27.638006704402017],[-112.4241009125018,27.591994259587885],[-112.3600718387638,27.552892774864414],[-112.32393661893147,27.493604011981382],[-112.30365017972734,27.38702973268857],[-112.24120598405217,27.325194826614243],[-112.1999991544188,27.252447878291505],[-112.21616491065959,27.210254648264318],[-112.15847534917287,27.162059795000502],[-112.08905769002128,27.130778607221725],[-112.00917983565506,27.116229217557176],[-111.9537091034563,27.09640567413923],[-112.00632705514198,27.032570226986028],[-112.01044773810533,26.961278217629744],[-111.97589739633581,26.9361805204584],[-111.9502223717181,26.89125927986911],[-111.90235905422088,26.85324899937048],[-111.82248119985466,26.896169698880893],[-111.74830890651461,26.845792437167397],[-111.72326783312202,26.809418963006028],[-111.6674801253107,26.772863621473853],[-111.64909553978197,26.746492852706858],[-111.56224422193934,26.697206795218204],[-111.56985163664088,26.57171830936148],[-111.56161027071421,26.55571398073048]]]]}},{"type":"Feature","properties":{"cvegeo":"03001","cve_ent":"03","state_code":"BCS","nom_mun":"Comondú"},"geometry":{"type":"MultiPolygon","coordinates":[[[[-111.77271602868205,26.553895307022408],[-111.78919876053541,26.409128879860162],[-111.72295085750946,26.31510344915302],[-111.7635237359177,26.274365158092287],[-111.71344158913253,26.18215840109322],[-111.72548666240998,26.177611716823044],[-111.71090578423201,26.121232831872923],[-111.66462734479762,26.08449562296994],[-111.6798421742007,26.02920794224466],[-111.67096685704891,25.909539212253755],[-111.64941251539453,25.7540426102139],[-111.65353319835786,25.70803016539977],[-111.62500539322707,25.64928700462916],[-111.58760227094449,25.601819620848573],[-111.47887963583491,25.576358188935615],[-111.42848051343718,25.53725670421214],[-111.40882802545819,25.491426126768815],[-111.34955358590865,25.488152514094295],[-111.30771280505016,25.440139528201286],[-111.25255904846397,25.415951167883975],[-111.15746636469466,25.479786615037177],[-111.0985089007577,25.474148726542168],[-111.08044129084152,25.442503804021776],[-111.04494002223431,25.42940935332368],[-111.01799709516635,25.34702343434818],[-111.05096255887304,25.338111933178645],[-111.03891748559559,25.21844320318774],[-110.92068558210909,25.202984476669158],[-110.90768958199395,25.145514387494195],[-110.86996948409879,25.102775555354587],[-110.87852782563803,25.07094876546339],[-110.99295602177376,25.01948029952505],[-110.98946929003556,24.942732269044562],[-111.02528753425533,24.921999388772583],[-111.08899963238076,24.958736597675564],[-111.12450090098797,24.959827801900406],[-111.1340101693649,24.909268672816104],[-111.15936821837005,24.867257310159722],[-111.18948090156366,24.876168811329258],[-111.19074880401392,24.849070573079036],[-111.22941982874677,24.863256228001973],[-111.27696617063143,24.85179858364114],[-111.31848997587736,24.87525947447522],[-111.34448197610763,24.771958807856933],[-111.41802031822256,24.76413851091224],[-111.48204939196056,24.767412123586762],[-111.53561827048392,24.733402925245883],[-111.57872695379268,24.72139967877263],[-111.57904392940524,24.685026204611262],[-111.66811407653583,24.650471404157962],[-111.68206100348866,24.583544211701042],[-111.71470949158278,24.569540424148915],[-111.82121329740441,24.470240839688376],[-111.7492598333523,24.440778325617668],[-111.69442305237867,24.35075397706828],[-111.71312461351997,24.310379420749157],[-111.75116168702769,24.351845181293122],[-111.94071310334117,24.484426494611313],[-112.10205369013642,24.55881024927131],[-112.10427251942437,24.58299860958862],[-112.17495808102622,24.653199414720063],[-112.13628705629337,24.68466246986965],[-112.14009076364414,24.727037567267644],[-112.1812975932775,24.770322001519673],[-112.23550042302601,24.789781810196004],[-112.27322052092117,24.771776940486127],[-112.30269925288965,24.791782351274883],[-112.2792430575599,24.83106570336916],[-112.19904822758112,25.034393423931213],[-112.15403769059698,25.187162015408965],[-112.13723798313106,25.297555509488717],[-112.11568364147669,25.362300293495956],[-112.09761603156052,25.488516248835907],[-112.10078578768616,25.74949592594373],[-112.12963056842952,25.815331914175808],[-112.19207476410469,25.987378446959084],[-112.2320136912878,26.034482095998058],[-112.30872178952838,26.072128641755075],[-112.31094061881633,26.099408747376103],[-112.34485700936071,26.178702921047886],[-112.40761818064846,26.244357041909158],[-112.4729151568367,26.259088298944512],[-112.49795623022929,26.231444458581873],[-112.65390823161096,26.325288021918205],[-112.67990023184123,26.316012786007057],[-112.71191476871023,26.35729667918021],[-112.78703798888797,26.405855267185636],[-112.76199691549539,26.434954046514733],[-112.77911359857387,26.500062565263583],[-112.7753098912231,26.54934862275224],[-112.71825428096152,26.502063106342458],[-112.66119867069993,26.509701535916346],[-112.64915359742248,26.52734267088461],[-112.61206745075246,26.5031543105673],[-112.59938842624989,26.582448484239084],[-112.55786462100396,26.577719932598107],[-112.41047096116154,26.581721014755857],[-112.38067525358048,26.59026878118378],[-112.29509183818811,26.57517378940681],[-112.22599115464908,26.53188935515478],[-112.11726851953951,26.530252548817522],[-112.07859749480666,26.538436580503827],[-111.96385232305836,26.498243891555514],[-111.91567202994858,26.534617365716883],[-111.84942412692263,26.56317054293356],[-111.77271602868205,26.553895307022408]]],[[[-110.6877085068743,25.30555767380422],[-110.70609309240302,25.267911128047203],[-110.73145114140817,25.282278650340942],[-110.6877085068743,25.30555767380422]]]]}},{"type":"Feature","properties":{"cvegeo":"03008","cve_ent":"03","state_code":"BCS","nom_mun":"Los Cabos"},"geometry":{"type":"Polygon","coordinates":[[[-110.1203221603841,23.114237722952534],[-110.048368696332,23.13860795064065],[-110.00335815934787,23.169707271048622],[-109.94598557347372,23.135152470595322],[-109.939963036835,23.16406938255361],[-109.97768313473016,23.236270728763927],[-109.9586645979763,23.221721339099382],[-109.94978928082449,23.261368425935274],[-109.9256991342696,23.273735407150138],[-109.96310225655219,23.342663140685932],[-109.96944176880348,23.383947033859087],[-110.02586342783994,23.39067612657894],[-109.99479981780863,23.40049696460251],[-109.98814332994478,23.45687584955263],[-109.93615932948423,23.479063668791067],[-109.85342869460493,23.42122984487449],[-109.84613825551595,23.456693982181825],[-109.93394050019627,23.48924824155625],[-109.93140469529575,23.610008175771995],[-109.89590342668855,23.57799951850999],[-109.86357191420699,23.58436487648823],[-109.85659845073057,23.614191125300554],[-109.81919532844798,23.600732939860848],[-109.69747669322327,23.652928875282413],[-109.69779366883583,23.6712974797339],[-109.68765044923377,23.652201405799183],[-109.51838547212441,23.58272807015097],[-109.46862030095181,23.5543567603051],[-109.48034839861668,23.528531593650527],[-109.46101288625026,23.48742956784818],[-109.42519464203049,23.450328624203586],[-109.4321681055069,23.42122984487449],[-109.41378351997818,23.38903932024168],[-109.4321681055069,23.377036073768426],[-109.42519464203049,23.306107799153757],[-109.45562430083667,23.20153406093982],[-109.53296635030237,23.11223718187366],[-109.57670898483626,23.0840477393986],[-109.66894888809247,23.0602231138229],[-109.71395942507661,23.03039686501058],[-109.73171005938022,22.990931645545494],[-109.79003357209206,22.967652622082216],[-109.80905210884592,22.933643423741337],[-109.85406264583006,22.899270490658843],[-109.9025599145524,22.889267785264465],[-109.8946355242383,22.87580959982476],[-109.96373620777732,22.871990385037815],[-110.01857298875096,22.905635848637083],[-110.05185542807021,22.942554924910873],[-110.0990847943423,23.01930295539136],[-110.1203221603841,23.114237722952534]]]}}]}