{"type":"FeatureCollection","features":[{"type":"Feature","properties":{"cvegeo":"04007","cve_ent":"04","state_code":"CAM","nom_mun":"Palizada"},"geometry":{"type":"Polygon","coordinates":[[[-92.03464463430005,18.531361845990826],[-91.96332512147308,18.513538843651755],[-91.94398960910665,18.531543713361632],[-91.8856660963948,18.53790907133987],[-91.87932658414351,18.535362928148576],[-91.87647380363045,18.533726121811313],[-91.87457194995505,18.533180519698895],[-91.85174970585042,18.521177273225643],[-91.85143273023786,18.51790366055112],[-91.85143273023786,18.517539925809505],[-91.85143273023786,18.51790366055112],[-91.85143273023786,18.517539925809505],[-91.85967409616453,18.5040817403698],[-91.86030804738967,18.503899872998993],[-91.86094199861479,18.503536138257378],[-91.85967409616453,18.505354811965447],[-91.87171916944197,18.517539925809505],[-91.86094199861479,18.503536138257378],[-91.86030804738967,18.503899872998993],[-91.85967409616453,18.5040817403698],[-91.81656541285578,18.497898249762365],[-91.81593146163065,18.498443851874786],[-91.81117682744218,18.499171321358013],[-91.81085985182962,18.499171321358013],[-91.8038863883532,18.49771638239156],[-91.79374316875115,18.494442769717036],[-91.79374316875115,18.49407903497542],[-91.79374316875115,18.494442769717036],[-91.79374316875115,18.49407903497542],[-91.77916229057318,18.488077411738796],[-91.77662648567267,18.487531809626375],[-91.82448980316988,18.447339120678063],[-91.85808921810171,18.39441571577327],[-91.86125897422735,18.349858209925593],[-91.928457804091,18.31839515477601],[-91.90626951121149,18.289296375446913],[-91.84636112043682,18.328215992799578],[-91.83019536419604,18.263107474050727],[-91.80166755906525,18.214730753416106],[-91.80420336396577,18.193452271031706],[-91.77123790025908,18.169991380197622],[-91.75221936350522,18.18508637197459],[-91.73383477797648,18.154714521049847],[-91.7541212171806,18.150167836779676],[-91.7328838511388,18.10160924877425],[-91.7328838511388,18.06341710090481],[-91.76109468065702,18.05596053870173],[-91.72686131450007,18.018313992944712],[-91.75348726595547,18.009948093887598],[-91.7176690217357,17.96084390376975],[-91.73890638777752,17.93592807396921],[-91.77123790025908,17.944293973026326],[-91.80452033957833,17.97230154813058],[-91.86728151086608,17.98321359037899],[-91.9097562429497,18.01376730867454],[-91.96681185321128,18.015767849753416],[-91.9791739021013,18.04286608800364],[-92.01309029264567,18.05141385443156],[-92.04161809777646,18.09797190135811],[-92.10818297641498,18.093607084458746],[-92.16080092810066,18.155260123162268],[-92.14907283043578,18.210184069145935],[-92.17918551362939,18.26874536254574],[-92.17157809892785,18.338946167677182],[-92.17601575750375,18.458251162926473],[-92.22039234326276,18.511902037314492],[-92.20771331876018,18.54772990936344],[-92.1595330256504,18.548093644105055],[-92.1417823913468,18.572463871793172],[-92.13322404980757,18.579374831883833],[-92.1275184887814,18.579374831883833],[-92.07616843954598,18.589013802536595],[-92.08250795179727,18.540818949272783],[-92.03464463430005,18.531361845990826]]]}},{"type":"Feature","properties":{"cvegeo":"04003","cve_ent":"04","state_code":"CAM","nom_mun":"Carmen"},"geometry":{"type":"Polygon","coordinates":[[[-90.85232559943503,18.83435288575503],[-90.82379779430424,18.830715538338893],[-90.84408423350835,18.761242202690678],[-90.79526998917345,18.741964261385153],[-90.82760150165501,18.685949111176644],[-90.89099662416788,18.67631014052388],[-90.90399262428302,18.621749929281826],[-90.91603769756047,18.65394045391464],[-90.9787988688482,18.657032199218357],[-90.97531213711,18.58701326145772],[-91.01303223500516,18.558460084241045],[-91.00130413734027,18.533544254440507],[-91.00669272275387,18.483894462210237],[-91.02983194247106,18.414784861303637],[-90.9940136982513,18.390778368357132],[-91.007326673979,18.360042782690776],[-91.01905477164388,18.33512695289024],[-91.06881994281648,18.340401106643636],[-91.0659671623034,18.370045488085154],[-91.09639682110958,18.36386199747772],[-91.10527213826138,18.32748852331635],[-91.13411691900474,18.287295834368038],[-91.18578394385273,18.27692939423205],[-91.1876857975281,18.227461469372585],[-91.26439389576868,18.209274732291902],[-91.24632628585252,18.20309124168447],[-91.25393370055406,18.156533194757916],[-91.23966979798867,18.098699370841338],[-91.29957818876332,18.102882320369897],[-91.32842296950668,18.06287149879239],[-91.3851616041557,18.064144570388038],[-91.43746258022881,18.083786246435178],[-91.51638950775734,18.130526160732536],[-91.51575555653221,18.169991380197622],[-91.53445711767351,18.146166754621927],[-91.57249419118124,18.141983805093368],[-91.61116521591408,18.09524389079601],[-91.62194238674127,17.942657166689067],[-91.6127500939769,17.912830917876743],[-91.63874209420717,17.873911300524078],[-91.67202453352644,17.89446231342525],[-91.73890638777752,17.93592807396921],[-91.7176690217357,17.96084390376975],[-91.75348726595547,18.009948093887598],[-91.72686131450007,18.018313992944712],[-91.76109468065702,18.05596053870173],[-91.7328838511388,18.06341710090481],[-91.7328838511388,18.10160924877425],[-91.7541212171806,18.150167836779676],[-91.73383477797648,18.154714521049847],[-91.75221936350522,18.18508637197459],[-91.77123790025908,18.169991380197622],[-91.80420336396577,18.193452271031706],[-91.80166755906525,18.214730753416106],[-91.83019536419604,18.263107474050727],[-91.84636112043682,18.328215992799578],[-91.90626951121149,18.289296375446913],[-91.928457804091,18.31839515477601],[-91.86125897422735,18.349858209925593],[-91.85808921810171,18.39441571577327],[-91.82448980316988,18.447339120678063],[-91.77662648567267,18.487531809626375],[-91.77916229057318,18.488077411738796],[-91.79374316875115,18.49407903497542],[-91.79374316875115,18.494442769717036],[-91.79374316875115,18.49407903497542],[-91.79374316875115,18.494442769717036],[-91.8038863883532,18.49771638239156],[-91.81085985182962,18.499171321358013],[-91.81117682744218,18.499171321358013],[-91.81593146163065,18.498443851874786],[-91.81656541285578,18.497898249762365],[-91.85967409616453,18.5040817403698],[-91.86030804738967,18.503899872998993],[-91.86094199861479,18.503536138257378],[-91.87171916944197,18.517539925809505],[-91.85967409616453,18.505354811965447],[-91.86094199861479,18.503536138257378],[-91.86030804738967,18.503899872998993],[-91.85967409616453,18.5040817403698],[-91.85143273023786,18.517539925809505],[-91.85143273023786,18.51790366055112],[-91.85143273023786,18.517539925809505],[-91.85143273023786,18.51790366055112],[-91.85174970585042,18.521177273225643],[-91.87457194995505,18.533180519698895],[-91.87647380363045,18.533726121811313],[-91.87932658414351,18.535362928148576],[-91.8856660963948,18.53790907133987],[-91.94398960910665,18.531543713361632],[-91.96332512147308,18.513538843651755],[-92.03464463430005,18.531361845990826],[-92.08250795179727,18.540818949272783],[-92.07616843954598,18.589013802536595],[-92.1275184887814,18.579374831883833],[-92.13322404980757,18.579374831883833],[-92.1417823913468,18.572463871793172],[-92.1595330256504,18.548093644105055],[-92.20771331876018,18.54772990936344],[-92.22039234326276,18.511902037314492],[-92.17601575750375,18.458251162926473],[-92.33165078327285,18.460251704005348],[-92.36208044207902,18.461524775600996],[-92.41438141815215,18.48734994225557],[-92.42610951581702,18.55700514527459],[-92.46604844300013,18.61647577552843],[-92.46921819912578,18.650848708610923],[-92.38585361302135,18.66667116987112],[-92.20422658702198,18.6794018858276],[-91.99121897537873,18.69904356187474],[-91.95698560922179,18.697406755537475],[-91.90912229172457,18.63611745157557],[-91.85555341320119,18.611383489145837],[-91.84224043747349,18.66248822034256],[-91.7408082414529,18.680129355310825],[-91.63874209420717,18.733052760215617],[-91.49863887345374,18.79052284939058],[-91.40576501897239,18.881820269535616],[-91.29577448141255,18.944200777722365],[-91.18483301701504,18.994396172065056],[-91.13633574829268,19.011673572291706],[-91.11509838225088,19.027314166181093],[-91.04789955238724,18.985666538266326],[-91.02888101563337,19.016947726045103],[-91.00320599101566,18.984757201412293],[-91.0260282351203,18.967843535927255],[-90.96675379557075,18.91673880473053],[-90.94424852707868,18.941836501901875],[-90.90113984376994,18.910009712010677],[-90.91603769756047,18.872181298882854],[-90.87166111180146,18.832897946788577],[-90.85232559943503,18.83435288575503]]]}},{"type":"Feature","properties":{"cvegeo":"04001","cve_ent":"04","state_code":"CAM","nom_mun":"Calkiní"},"geometry":{"type":"Polygon","coordinates":[[[-90.38193379038954,20.749598167721924],[-90.38193379038954,20.74705202453063],[-90.38700540019056,20.55554568307102],[-90.33533837534257,20.541178160777278],[-90.23454013054712,20.545361110305837],[-90.22376295971992,20.51917220890965],[-90.23454013054712,20.47024988616261],[-90.1857258862122,20.461156517622268],[-90.1866768130499,20.436968157304957],[-90.12930422717575,20.44024176997948],[-90.06749398272571,20.424964910831704],[-90.04847544597185,20.45988344602662],[-90.00409886021284,20.486799816906032],[-89.90234968857968,20.36476681109464],[-89.83800363922911,20.287109443760116],[-89.87255398099863,20.287473178501727],[-89.87604071273684,20.252918378048427],[-89.8408564197422,20.250917836969553],[-89.84370920025528,20.209270209054786],[-89.85575427353271,20.112516767785543],[-89.90203271296711,20.115790380460066],[-89.8896706640771,20.13870566918173],[-89.96542783547999,20.157256141004027],[-89.93531515228636,20.226002007169015],[-89.99649144551128,20.21308942384173],[-89.99775934796155,20.168531917994052],[-90.03009086044311,20.17653408230955],[-90.02977388483055,20.205632861638648],[-90.06210539731211,20.210907015392046],[-90.06876188517596,20.25273651067762],[-90.12613447105011,20.267467767712976],[-90.15783203230654,20.25346398016085],[-90.15783203230654,20.22163719026965],[-90.21108393521735,20.227275078764663],[-90.20569534980376,20.2707413803875],[-90.24278149647378,20.245643683216155],[-90.35372296087131,20.25273651067762],[-90.48209808395987,20.210543280650434],[-90.48907154743628,20.215635567033026],[-90.48970549866141,20.33130321486618],[-90.48399993763526,20.37149590381449],[-90.50238452316398,20.497711859154442],[-90.44818169341548,20.633566785147156],[-90.4551551568919,20.699220906008428],[-90.41141252235802,20.75850966889146],[-90.41585018093392,20.81216054327948],[-90.40443905888161,20.846533476361973],[-90.37939798548902,20.848352150070042],[-90.38193379038954,20.749598167721924]]]}},{"type":"Feature","properties":{"cvegeo":"04005","cve_ent":"04","state_code":"CAM","nom_mun":"Hecelchakán"},"geometry":{"type":"Polygon","coordinates":[[[-89.85575427353271,20.112516767785543],[-89.86843329803528,20.02085561289889],[-89.90520246909276,20.02394735820261],[-89.92231915217123,19.945380654014052],[-89.9048854934802,19.919919222101093],[-89.99997817724949,19.916827476797376],[-89.99997817724949,19.995394180985933],[-90.07129769007648,19.991393098828183],[-90.11282149532241,20.036496206788282],[-90.17716754467297,20.01121664224613],[-90.1768505690604,20.074324619916105],[-90.26338491129047,20.081235580006766],[-90.30649359459922,20.110698094077474],[-90.36513408292363,20.1114255635607],[-90.39461281489211,20.13925127129415],[-90.40792579061981,20.122883207921532],[-90.43898940065112,20.140524342889798],[-90.48875457182372,20.142343016597867],[-90.48209808395987,20.210543280650434],[-90.35372296087131,20.25273651067762],[-90.24278149647378,20.245643683216155],[-90.20569534980376,20.2707413803875],[-90.21108393521735,20.227275078764663],[-90.15783203230654,20.22163719026965],[-90.15783203230654,20.25346398016085],[-90.12613447105011,20.267467767712976],[-90.06876188517596,20.25273651067762],[-90.06210539731211,20.210907015392046],[-90.02977388483055,20.205632861638648],[-90.03009086044311,20.17653408230955],[-89.99775934796155,20.168531917994052],[-89.99649144551128,20.21308942384173],[-89.93531515228636,20.226002007169015],[-89.96542783547999,20.157256141004027],[-89.8896706640771,20.13870566918173],[-89.90203271296711,20.115790380460066],[-89.85575427353271,20.112516767785543]]]}},{"type":"Feature","properties":{"cvegeo":"04002","cve_ent":"04","state_code":"CAM","nom_mun":"Campeche"},"geometry":{"type":"Polygon","coordinates":[[[-90.06590910466288,19.79097525619904],[-90.03167573850592,19.774425325455617],[-90.08556159264187,19.677671884186374],[-90.03516247024413,19.66585050508393],[-90.0088534944013,19.693858080188186],[-89.98381242100871,19.66930598512926],[-90.01043837246412,19.632205041484664],[-89.99268773816051,19.547454846688673],[-89.94989603046433,19.53599720232784],[-89.9571864695533,19.50726215774036],[-89.98539729907154,19.503442942953416],[-89.97937476243281,19.44670032326168],[-89.92422100584662,19.404870827976104],[-89.86431261507195,19.41105431858354],[-89.8655805175222,19.293749864413122],[-89.9128098837943,19.295932272862807],[-89.90868920083096,19.370134160152],[-90.02597017747978,19.369952292781193],[-90.1216968124742,19.375953916017817],[-90.14705486147935,19.24137206162075],[-90.20569534980376,19.257921992364174],[-90.29127876519613,19.254830247060458],[-90.29127876519613,19.307571784594444],[-90.31029730194999,19.30775365196525],[-90.31029730194999,19.454338752835568],[-90.33787418024309,19.479982052119333],[-90.34040998514361,19.425058106135666],[-90.40317115643134,19.43797068946295],[-90.40760881500725,19.49580451337953],[-90.38827330264083,19.546181775093025],[-90.44944959586574,19.53035931383283],[-90.42979710788676,19.57928163657987],[-90.47702647415883,19.57291627860163],[-90.51062588909066,19.583646453479236],[-90.51094286470322,19.617291917078504],[-90.47163788874525,19.631477572001437],[-90.53376510880786,19.637297327867255],[-90.56134198710096,19.65948514710569],[-90.62188432910075,19.68021802737767],[-90.69320384192773,19.6889476611764],[-90.66150628067129,19.75860286419542],[-90.623152231551,19.793703266761142],[-90.50935798664041,19.86608648034227],[-90.44754774219035,19.9599300436786],[-90.44723076657779,19.95938444156618],[-90.38922422947851,19.95247348147552],[-90.37971496110158,19.965022330061192],[-90.30966335072486,19.93846969392339],[-90.29761827744741,19.894457790188135],[-90.23834383789789,19.909916516706716],[-90.25387564291354,19.854083233869016],[-90.21044998399222,19.84735414114916],[-90.18223915447399,19.822983913461044],[-90.20569534980376,19.797158746806474],[-90.1093347635842,19.80607024797601],[-90.06590910466288,19.79097525619904]]]}},{"type":"Feature","properties":{"cvegeo":"04011","cve_ent":"04","state_code":"CAM","nom_mun":"Candelaria"},"geometry":{"type":"Polygon","coordinates":[[[-90.2488040331125,18.166899634893905],[-90.23707593544763,18.166899634893905],[-90.2354910573848,18.104882861448772],[-90.24563427698686,17.81553187449508],[-90.36069642434772,17.812803863932977],[-90.58670003610611,17.8160774766075],[-90.987674186,17.815350007124273],[-90.98799116161257,17.962298842736203],[-91.1201699920519,17.963390046961045],[-91.14457711421936,17.975029558692682],[-91.21779848072173,17.974847691321877],[-91.32842296950668,18.06287149879239],[-91.29957818876332,18.102882320369897],[-91.23966979798867,18.098699370841338],[-91.25393370055406,18.156533194757916],[-91.24632628585252,18.20309124168447],[-91.26439389576868,18.209274732291902],[-91.1876857975281,18.227461469372585],[-91.18578394385273,18.27692939423205],[-91.13411691900474,18.287295834368038],[-91.10527213826138,18.32748852331635],[-91.09639682110958,18.36386199747772],[-91.0659671623034,18.370045488085154],[-91.06881994281648,18.340401106643636],[-91.01905477164388,18.33512695289024],[-91.007326673979,18.360042782690776],[-90.98196862497385,18.32239623693376],[-90.91889047807354,18.32694292120393],[-90.94551642952895,18.27783873108608],[-90.89701916080661,18.277656863715276],[-90.89289847784326,18.30275456088662],[-90.8196771113409,18.302027091403392],[-90.82316384307912,18.2623800045675],[-90.78734559885933,18.258560789780557],[-90.7787872573201,18.338764300306376],[-90.70207915907953,18.338218698193955],[-90.70207915907953,18.473709889445054],[-90.591137694682,18.475346695782317],[-90.56768149935225,18.49771638239156],[-90.57148520670302,18.46407091879229],[-90.48907154743628,18.465707725129555],[-90.4862187669232,18.50735535304432],[-90.43391779085009,18.507719087785937],[-90.43772149820086,18.469163205174883],[-90.42726130298624,18.19727148581865],[-90.28367135049459,18.198726424785104],[-90.28303739926946,18.166354032781484],[-90.2488040331125,18.166899634893905]]]}},{"type":"Feature","properties":{"cvegeo":"04010","cve_ent":"04","state_code":"CAM","nom_mun":"Calakmul"},"geometry":{"type":"Polygon","coordinates":[[[-89.14889865751422,18.877273585265446],[-89.14446099893831,18.75596804893728],[-89.15238538925243,18.735598903406913],[-89.15016655996448,18.45079460072339],[-89.12544246218445,18.450612733352585],[-89.12132177922112,18.38568608197454],[-89.13812148668703,18.385504214603735],[-89.13241592566087,18.293479324975472],[-89.15206841363987,18.293479324975472],[-89.15840792589115,18.221096111394345],[-89.1428761208755,18.224187856698062],[-89.14319309648806,18.14580301988031],[-89.20056568236221,18.144529948284664],[-89.20278451165015,18.083240644322757],[-89.14446099893831,18.08251317483953],[-89.16347953569218,18.057779212409798],[-89.16284558446705,18.018313992944712],[-89.2069051946135,18.020860136136008],[-89.20627124338837,17.95393294367909],[-89.15238538925243,17.953569208937477],[-89.15238538925243,17.940292890868577],[-89.15206841363987,17.815350007124273],[-89.49281719714654,17.814622537641046],[-90.24563427698686,17.81553187449508],[-90.2354910573848,18.104882861448772],[-90.23707593544763,18.166899634893905],[-90.2488040331125,18.166899634893905],[-90.24848705749994,18.193452271031706],[-90.08207486090366,18.198726424785104],[-90.07446744620212,18.39168770521117],[-90.09570481224392,18.392415174694396],[-90.08809739754238,18.469163205174883],[-90.14832276392961,18.465707725129555],[-90.16702432507091,18.476619767377965],[-90.1724129104845,18.55882381898266],[-90.20125769122785,18.559551288465887],[-90.19840491071477,18.64066413584574],[-90.17463173977245,18.669762915174836],[-90.14166627606576,18.66667116987112],[-90.16417154455783,18.692314469154883],[-90.16100178843219,18.7299610149119],[-90.06812793395083,18.71050120623557],[-90.03769827514465,18.96075070846579],[-90.0630563241498,18.96402432114031],[-90.0630563241498,18.99585111103151],[-90.16322061772013,18.997851652110384],[-90.15688110546884,19.049320118048723],[-89.99649144551128,19.023313084023343],[-90.00726861633848,19.053321200206472],[-89.9296095912602,19.028405370405935],[-89.77746129722932,19.031860850451267],[-89.77270666304085,19.064778844567304],[-89.58822685652841,19.060050292926327],[-89.5758648076384,19.162077887948968],[-89.48045514825652,19.15262078466701],[-89.47696841651832,18.95202107466706],[-89.36887973263387,18.956931493678844],[-89.2335311460689,18.956385891566423],[-89.229093487493,18.872726900995275],[-89.14889865751422,18.877273585265446]]]}},{"type":"Feature","properties":{"cvegeo":"04009","cve_ent":"04","state_code":"CAM","nom_mun":"Escárcega"},"geometry":{"type":"Polygon","coordinates":[[[-90.2488040331125,18.166899634893905],[-90.28303739926946,18.166354032781484],[-90.28367135049459,18.198726424785104],[-90.42726130298624,18.19727148581865],[-90.43772149820086,18.469163205174883],[-90.43391779085009,18.507719087785937],[-90.4862187669232,18.50735535304432],[-90.48907154743628,18.465707725129555],[-90.57148520670302,18.46407091879229],[-90.56768149935225,18.49771638239156],[-90.591137694682,18.475346695782317],[-90.70207915907953,18.473709889445054],[-90.70207915907953,18.338218698193955],[-90.7787872573201,18.338764300306376],[-90.78734559885933,18.258560789780557],[-90.82316384307912,18.2623800045675],[-90.8196771113409,18.302027091403392],[-90.89289847784326,18.30275456088662],[-90.89701916080661,18.277656863715276],[-90.94551642952895,18.27783873108608],[-90.91889047807354,18.32694292120393],[-90.98196862497385,18.32239623693376],[-91.007326673979,18.360042782690776],[-90.9940136982513,18.390778368357132],[-91.02983194247106,18.414784861303637],[-91.00669272275387,18.483894462210237],[-91.00130413734027,18.533544254440507],[-91.01303223500516,18.558460084241045],[-90.97531213711,18.58701326145772],[-90.9787988688482,18.657032199218357],[-90.91603769756047,18.65394045391464],[-90.90399262428302,18.621749929281826],[-90.89099662416788,18.67631014052388],[-90.82760150165501,18.685949111176644],[-90.79526998917345,18.741964261385153],[-90.84408423350835,18.761242202690678],[-90.82379779430424,18.830715538338893],[-90.85232559943503,18.83435288575503],[-90.82443174552937,18.873999972590923],[-90.76927798894317,18.82798752777679],[-90.72141467144596,18.854176429172977],[-90.73726345207417,18.742509863497574],[-90.65294793913205,18.703772113515715],[-90.50935798664041,18.67758321211953],[-90.5324972063576,18.574464412872047],[-90.47195486435781,18.572463871793172],[-90.45864188863011,18.805799708538355],[-90.30522569214897,18.793796462065103],[-90.29476549693435,18.893641648638063],[-90.21647252063094,18.89255044441322],[-90.20601232541632,18.949293064104957],[-90.16322061772013,18.997851652110384],[-90.0630563241498,18.99585111103151],[-90.0630563241498,18.96402432114031],[-90.03769827514465,18.96075070846579],[-90.06812793395083,18.71050120623557],[-90.16100178843219,18.7299610149119],[-90.16417154455783,18.692314469154883],[-90.14166627606576,18.66667116987112],[-90.17463173977245,18.669762915174836],[-90.19840491071477,18.64066413584574],[-90.20125769122785,18.559551288465887],[-90.1724129104845,18.55882381898266],[-90.16702432507091,18.476619767377965],[-90.14832276392961,18.465707725129555],[-90.08809739754238,18.469163205174883],[-90.09570481224392,18.392415174694396],[-90.07446744620212,18.39168770521117],[-90.08207486090366,18.198726424785104],[-90.24848705749994,18.193452271031706],[-90.2488040331125,18.166899634893905]]]}},{"type":"Feature","properties":{"cvegeo":"04008","cve_ent":"04","state_code":"CAM","nom_mun":"Tenabo"},"geometry":{"type":"Polygon","coordinates":[[[-89.99997817724949,19.916827476797376],[-89.9936386649982,19.889911105917964],[-90.03611339708183,19.902641821874443],[-90.03611339708183,19.84462613058706],[-89.99712539673642,19.84917281485723],[-89.99997817724949,19.784973632962412],[-90.05544890944826,19.822256443977817],[-90.06590910466288,19.79097525619904],[-90.1093347635842,19.80607024797601],[-90.20569534980376,19.797158746806474],[-90.18223915447399,19.822983913461044],[-90.21044998399222,19.84735414114916],[-90.25387564291354,19.854083233869016],[-90.23834383789789,19.909916516706716],[-90.29761827744741,19.894457790188135],[-90.30966335072486,19.93846969392339],[-90.37971496110158,19.965022330061192],[-90.38922422947851,19.95247348147552],[-90.44723076657779,19.95938444156618],[-90.44754774219035,19.9599300436786],[-90.47258881558294,19.993211772536252],[-90.46307954720601,20.014490254920652],[-90.49129037672424,20.0608664344764],[-90.48051320589705,20.09651243915454],[-90.48875457182372,20.142343016597867],[-90.43898940065112,20.140524342889798],[-90.40792579061981,20.122883207921532],[-90.39461281489211,20.13925127129415],[-90.36513408292363,20.1114255635607],[-90.30649359459922,20.110698094077474],[-90.26338491129047,20.081235580006766],[-90.1768505690604,20.074324619916105],[-90.17716754467297,20.01121664224613],[-90.11282149532241,20.036496206788282],[-90.07129769007648,19.991393098828183],[-89.99997817724949,19.995394180985933],[-89.99997817724949,19.916827476797376]]]}},{"type":"Feature","properties":{"cvegeo":"04006","cve_ent":"04","state_code":"CAM","nom_mun":"Hopelchén"},"geometry":{"type":"Polygon","coordinates":[[[-89.74861651648597,20.179080225500847],[-89.59868705174303,19.99794032417723],[-89.60470958838175,19.938287826552585],[-89.58695895407814,19.920464824213514],[-89.58790988091584,19.874452379399383],[-89.52578266085322,19.77551652968046],[-89.47601748968063,19.771151712781094],[-89.49186627030885,19.742052933451998],[-89.46872705059165,19.700223438166425],[-89.44812363577496,19.698222897087547],[-89.41262236716776,19.649300574340508],[-89.29660929296921,19.55109219410481],[-89.14667982822627,19.423785034540018],[-89.14699680383883,19.281564750569064],[-89.14699680383883,19.13297910861987],[-89.13621963301165,19.132251639136644],[-89.14699680383883,18.995123641548282],[-89.14889865751422,18.877273585265446],[-89.229093487493,18.872726900995275],[-89.2335311460689,18.956385891566423],[-89.36887973263387,18.956931493678844],[-89.47696841651832,18.95202107466706],[-89.48045514825652,19.15262078466701],[-89.5758648076384,19.162077887948968],[-89.58822685652841,19.060050292926327],[-89.77270666304085,19.064778844567304],[-89.77746129722932,19.031860850451267],[-89.9296095912602,19.028405370405935],[-89.92200217655866,19.2160924970786],[-89.9128098837943,19.295932272862807],[-89.8655805175222,19.293749864413122],[-89.86431261507195,19.41105431858354],[-89.92422100584662,19.404870827976104],[-89.97937476243281,19.44670032326168],[-89.98539729907154,19.503442942953416],[-89.9571864695533,19.50726215774036],[-89.94989603046433,19.53599720232784],[-89.99268773816051,19.547454846688673],[-90.01043837246412,19.632205041484664],[-89.98381242100871,19.66930598512926],[-90.0088534944013,19.693858080188186],[-90.03516247024413,19.66585050508393],[-90.08556159264187,19.677671884186374],[-90.03167573850592,19.774425325455617],[-90.06590910466288,19.79097525619904],[-90.05544890944826,19.822256443977817],[-89.99997817724949,19.784973632962412],[-89.99712539673642,19.84917281485723],[-90.03611339708183,19.84462613058706],[-90.03611339708183,19.902641821874443],[-89.9936386649982,19.889911105917964],[-89.99997817724949,19.916827476797376],[-89.9048854934802,19.919919222101093],[-89.92231915217123,19.945380654014052],[-89.90520246909276,20.02394735820261],[-89.86843329803528,20.02085561289889],[-89.85575427353271,20.112516767785543],[-89.84370920025528,20.209270209054786],[-89.80250237062191,20.2016317794809],[-89.79394402908267,20.136159525990433],[-89.74861651648597,20.179080225500847]]]}},{"type":"Feature","properties":{"cvegeo":"04004","cve_ent":"04","state_code":"CAM","nom_mun":"Champotón"},"geometry":{"type":"Polygon","coordinates":[[[-91.18483301701504,18.994396172065056],[-91.11319652857549,19.035316330496595],[-91.08118199170649,19.0673249877586],[-90.9930627714136,19.11988465792178],[-90.89987194131969,19.183356370333367],[-90.76293847669189,19.302661365582658],[-90.72268257389621,19.359222117903588],[-90.72521837879673,19.40105161318916],[-90.70303008591722,19.483801266906276],[-90.71190540306903,19.562186103724027],[-90.68591340283875,19.630386367776595],[-90.70619984204286,19.64966430908212],[-90.69320384192773,19.6889476611764],[-90.62188432910075,19.68021802737767],[-90.56134198710096,19.65948514710569],[-90.53376510880786,19.637297327867255],[-90.47163788874525,19.631477572001437],[-90.51094286470322,19.617291917078504],[-90.51062588909066,19.583646453479236],[-90.47702647415883,19.57291627860163],[-90.42979710788676,19.57928163657987],[-90.44944959586574,19.53035931383283],[-90.38827330264083,19.546181775093025],[-90.40760881500725,19.49580451337953],[-90.40317115643134,19.43797068946295],[-90.34040998514361,19.425058106135666],[-90.33787418024309,19.479982052119333],[-90.31029730194999,19.454338752835568],[-90.31029730194999,19.30775365196525],[-90.29127876519613,19.307571784594444],[-90.29127876519613,19.254830247060458],[-90.20569534980376,19.257921992364174],[-90.14705486147935,19.24137206162075],[-90.1216968124742,19.375953916017817],[-90.02597017747978,19.369952292781193],[-89.90868920083096,19.370134160152],[-89.9128098837943,19.295932272862807],[-89.92200217655866,19.2160924970786],[-89.9296095912602,19.028405370405935],[-90.00726861633848,19.053321200206472],[-89.99649144551128,19.023313084023343],[-90.15688110546884,19.049320118048723],[-90.16322061772013,18.997851652110384],[-90.20601232541632,18.949293064104957],[-90.21647252063094,18.89255044441322],[-90.29476549693435,18.893641648638063],[-90.30522569214897,18.793796462065103],[-90.45864188863011,18.805799708538355],[-90.47195486435781,18.572463871793172],[-90.5324972063576,18.574464412872047],[-90.50935798664041,18.67758321211953],[-90.65294793913205,18.703772113515715],[-90.73726345207417,18.742509863497574],[-90.72141467144596,18.854176429172977],[-90.76927798894317,18.82798752777679],[-90.82443174552937,18.873999972590923],[-90.85232559943503,18.83435288575503],[-90.87166111180146,18.832897946788577],[-90.91603769756047,18.872181298882854],[-90.90113984376994,18.910009712010677],[-90.94424852707868,18.941836501901875],[-90.96675379557075,18.91673880473053],[-91.0260282351203,18.967843535927255],[-91.00320599101566,18.984757201412293],[-91.02888101563337,19.016947726045103],[-91.04789955238724,18.985666538266326],[-91.11509838225088,19.027314166181093],[-91.13633574829268,19.011673572291706],[-91.18483301701504,18.994396172065056]]]}}]}