{"type":"FeatureCollection","features":[{"type":"Feature","properties":{"cvegeo":"09012","cve_ent":"09","state_code":"CMX","nom_mun":"Tlalpan"},"geometry":{"type":"Polygon","coordinates":[[[-99.10098196519708,19.299933355020556],[-99.14123786799276,19.282110352681485],[-99.15264899004507,19.220275446607157],[-99.12919279471531,19.202998046380507],[-99.130143721553,19.15262078466701],[-99.14979620953198,19.159713612128478],[-99.16374313648483,19.11752038210129],[-99.13648323380428,19.08933093962623],[-99.2271382589977,19.09606003234608],[-99.27912225945825,19.131706037024223],[-99.30701611336391,19.2108183433252],[-99.31367260122776,19.21900237501151],[-99.3158914305157,19.227368274068624],[-99.27722040578286,19.214637558112145],[-99.24805864942694,19.24664621537415],[-99.24330401523848,19.291749323334248],[-99.22016479552127,19.312118468864615],[-99.20590089295588,19.305753110886375],[-99.20558391734332,19.305753110886375],[-99.10098196519708,19.299933355020556]]]}},{"type":"Feature","properties":{"cvegeo":"09013","cve_ent":"09","state_code":"CMX","nom_mun":"Xochimilco"},"geometry":{"type":"Polygon","coordinates":[[[-99.10098196519708,19.299933355020556],[-99.09939708713426,19.32048436792173],[-99.06896742832808,19.284838363243587],[-99.00715718387804,19.251556634385935],[-99.03029640359523,19.22354905928168],[-99.09495942855835,19.211363945437622],[-99.10478567254785,19.198451362110337],[-99.130143721553,19.15262078466701],[-99.12919279471531,19.202998046380507],[-99.15264899004507,19.220275446607157],[-99.14123786799276,19.282110352681485],[-99.10098196519708,19.299933355020556]]]}},{"type":"Feature","properties":{"cvegeo":"09008","cve_ent":"09","state_code":"CMX","nom_mun":"La Magdalena Contreras"},"geometry":{"type":"Polygon","coordinates":[[[-99.24805864942694,19.24664621537415],[-99.27722040578286,19.214637558112145],[-99.3158914305157,19.227368274068624],[-99.32223094276699,19.232460560451216],[-99.28609572293466,19.270652708320654],[-99.25471513729079,19.32684972589997],[-99.2084366978564,19.33594309444031],[-99.22016479552127,19.312118468864615],[-99.24330401523848,19.291749323334248],[-99.24805864942694,19.24664621537415]]]}},{"type":"Feature","properties":{"cvegeo":"09002","cve_ent":"09","state_code":"CMX","nom_mun":"Azcapotzalco"},"geometry":{"type":"Polygon","coordinates":[[[-99.15740362423354,19.502897340840995],[-99.14345669728071,19.465068927713173],[-99.16374313648483,19.456339293914443],[-99.20685181979357,19.471070550949797],[-99.21382528326998,19.497077584975177],[-99.20463299050563,19.514900587314248],[-99.15740362423354,19.502897340840995]]]}},{"type":"Feature","properties":{"cvegeo":"09014","cve_ent":"09","state_code":"CMX","nom_mun":"Benito Juárez"},"geometry":{"type":"Polygon","coordinates":[[[-99.17166752679893,19.359403985274394],[-99.18941816110254,19.395595592064957],[-99.17039962434868,19.399596674222707],[-99.13648323380428,19.402688419526424],[-99.1355323069666,19.377226987613465],[-99.13996996554249,19.356857842083098],[-99.17166752679893,19.359403985274394]]]}},{"type":"Feature","properties":{"cvegeo":"09015","cve_ent":"09","state_code":"CMX","nom_mun":"Cuauhtémoc"},"geometry":{"type":"Polygon","coordinates":[[[-99.16374313648483,19.456339293914443],[-99.14345669728071,19.465068927713173],[-99.1222193312389,19.459612906588966],[-99.1257060629771,19.404325225863687],[-99.13648323380428,19.402688419526424],[-99.17039962434868,19.399596674222707],[-99.1843465513015,19.407780705909015],[-99.16374313648483,19.456339293914443]]]}},{"type":"Feature","properties":{"cvegeo":"09010","cve_ent":"09","state_code":"CMX","nom_mun":"Álvaro Obregón"},"geometry":{"type":"Polygon","coordinates":[[[-99.18941816110254,19.395595592064957],[-99.17166752679893,19.359403985274394],[-99.20558391734332,19.305753110886375],[-99.20590089295588,19.305753110886375],[-99.22016479552127,19.312118468864615],[-99.2084366978564,19.33594309444031],[-99.25471513729079,19.32684972589997],[-99.28609572293466,19.270652708320654],[-99.32223094276699,19.232460560451216],[-99.32444977205495,19.232460560451216],[-99.31113679632725,19.306662447740408],[-99.30321240601313,19.310845397268967],[-99.25978674709182,19.347946340913563],[-99.25946977147926,19.347946340913563],[-99.25978674709182,19.347946340913563],[-99.26042069831695,19.347946340913563],[-99.24774167381437,19.385956621412195],[-99.18941816110254,19.395595592064957]]]}},{"type":"Feature","properties":{"cvegeo":"09005","cve_ent":"09","state_code":"CMX","nom_mun":"Gustavo A. Madero"},"geometry":{"type":"Polygon","coordinates":[[[-99.11809864827556,19.590557413569897],[-99.11271006286196,19.573098145972438],[-99.13077767277814,19.53599720232784],[-99.09052176998246,19.509262698819235],[-99.06421279413962,19.49871439131244],[-99.05121679402448,19.449973935936203],[-99.1222193312389,19.459612906588966],[-99.14345669728071,19.465068927713173],[-99.15740362423354,19.502897340840995],[-99.1764221609874,19.531996120170092],[-99.14377367289327,19.57237067648921],[-99.12380420930171,19.592739822019578],[-99.11809864827556,19.590557413569897]]]}},{"type":"Feature","properties":{"cvegeo":"09004","cve_ent":"09","state_code":"CMX","nom_mun":"Cuajimalpa de Morelos"},"geometry":{"type":"Polygon","coordinates":[[[-99.25598303974105,19.40341588900965],[-99.24774167381437,19.385956621412195],[-99.26042069831695,19.347946340913563],[-99.25978674709182,19.347946340913563],[-99.25946977147926,19.347946340913563],[-99.25978674709182,19.347946340913563],[-99.30321240601313,19.310845397268967],[-99.31113679632725,19.306662447740408],[-99.32444977205495,19.232460560451216],[-99.33934762584548,19.267560963016937],[-99.36533962607575,19.27774553578212],[-99.35646430892395,19.30320696769508],[-99.32920440624342,19.35212929044212],[-99.25598303974105,19.40341588900965]]]}},{"type":"Feature","properties":{"cvegeo":"09016","cve_ent":"09","state_code":"CMX","nom_mun":"Miguel Hidalgo"},"geometry":{"type":"Polygon","coordinates":[[[-99.16374313648483,19.456339293914443],[-99.1843465513015,19.407780705909015],[-99.17039962434868,19.399596674222707],[-99.18941816110254,19.395595592064957],[-99.24774167381437,19.385956621412195],[-99.25598303974105,19.40341588900965],[-99.23981728350027,19.41214552280838],[-99.20875367346896,19.46979747935415],[-99.20685181979357,19.471070550949797],[-99.16374313648483,19.456339293914443]]]}},{"type":"Feature","properties":{"cvegeo":"09006","cve_ent":"09","state_code":"CMX","nom_mun":"Iztacalco"},"geometry":{"type":"Polygon","coordinates":[[[-99.05565445260038,19.422148228202758],[-99.0581902575009,19.40068787844755],[-99.06104303801398,19.382319273996057],[-99.1355323069666,19.377226987613465],[-99.13648323380428,19.402688419526424],[-99.1257060629771,19.404325225863687],[-99.05565445260038,19.422148228202758]]]}},{"type":"Feature","properties":{"cvegeo":"09003","cve_ent":"09","state_code":"CMX","nom_mun":"Coyoacán"},"geometry":{"type":"Polygon","coordinates":[[[-99.17166752679893,19.359403985274394],[-99.13996996554249,19.356857842083098],[-99.09939708713426,19.32048436792173],[-99.10098196519708,19.299933355020556],[-99.20558391734332,19.305753110886375],[-99.20590089295588,19.305753110886375],[-99.20558391734332,19.305753110886375],[-99.17166752679893,19.359403985274394]]]}},{"type":"Feature","properties":{"cvegeo":"09017","cve_ent":"09","state_code":"CMX","nom_mun":"Venustiano Carranza"},"geometry":{"type":"Polygon","coordinates":[[[-99.05121679402448,19.449973935936203],[-99.05565445260038,19.422148228202758],[-99.1257060629771,19.404325225863687],[-99.1222193312389,19.459612906588966],[-99.05121679402448,19.449973935936203]]]}},{"type":"Feature","properties":{"cvegeo":"09011","cve_ent":"09","state_code":"CMX","nom_mun":"Tláhuac"},"geometry":{"type":"Polygon","coordinates":[[[-98.96056176883107,19.325394786933515],[-98.97672752507185,19.25301157335239],[-98.94598089065312,19.224822130877328],[-98.96848615914519,19.210636475954395],[-99.03029640359523,19.22354905928168],[-99.00715718387804,19.251556634385935],[-99.06896742832808,19.284838363243587],[-99.05438655015013,19.311572866752194],[-99.00145162285187,19.327031593270775],[-98.96056176883107,19.325394786933515]]]}},{"type":"Feature","properties":{"cvegeo":"09007","cve_ent":"09","state_code":"CMX","nom_mun":"Iztapalapa"},"geometry":{"type":"Polygon","coordinates":[[[-99.0581902575009,19.40068787844755],[-98.99194235447494,19.367588016960703],[-98.97450869578391,19.337034298665152],[-98.96056176883107,19.325394786933515],[-99.00145162285187,19.327031593270775],[-99.05438655015013,19.311572866752194],[-99.06896742832808,19.284838363243587],[-99.09939708713426,19.32048436792173],[-99.13996996554249,19.356857842083098],[-99.1355323069666,19.377226987613465],[-99.06104303801398,19.382319273996057],[-99.0581902575009,19.40068787844755]]]}},{"type":"Feature","properties":{"cvegeo":"09009","cve_ent":"09","state_code":"CMX","nom_mun":"Milpa Alta"},"geometry":{"type":"Polygon","coordinates":[[[-98.96848615914519,19.210636475954395],[-98.95517318341749,19.17389926705141],[-98.95770898831799,19.122430801113076],[-98.9789463543598,19.07423594784926],[-99.02934547675754,19.08514799009767],[-99.06199396485167,19.0487745159363],[-99.12538908736454,19.062050834005202],[-99.1355323069666,19.08933093962623],[-99.13648323380428,19.08933093962623],[-99.16374313648483,19.11752038210129],[-99.14979620953198,19.159713612128478],[-99.130143721553,19.15262078466701],[-99.10478567254785,19.198451362110337],[-99.09495942855835,19.211363945437622],[-99.03029640359523,19.22354905928168],[-98.96848615914519,19.210636475954395]]]}}]}