{"type":"FeatureCollection","features":[{"type":"Feature","properties":{"cvegeo":"05035","cve_ent":"05","state_code":"COA","nom_mun":"Torreón"},"geometry":{"type":"MultiPolygon","coordinates":[[[[-102.98900482891139,24.796147168174244],[-103.09709351279584,24.82651901909899],[-103.25906805081621,24.964374486170577],[-103.24638902631364,24.99529193920774],[-103.2742828802193,25.020753371120698],[-103.26223780694185,25.058581784248524],[-103.35828141754885,25.10877717859121],[-103.3988542959571,25.17624997316055],[-103.43403858895174,25.199892731365445],[-103.50567507739127,25.276640761845933],[-103.49394697972639,25.311559297040844],[-103.47017380878407,25.30101098953405],[-103.44132902804071,25.32119826769361],[-103.42801605231301,25.30101098953405],[-103.34560239304628,25.258999626877667],[-103.3462363442714,25.222989887457913],[-103.19630687952848,25.19425484287043],[-103.19060131850232,25.16042751190036],[-103.10406697627225,25.111687056524122],[-103.09804443963353,25.024026983795224],[-103.019117512105,24.971649181002853],[-103.05366785387452,24.92490926670549],[-102.95730726765495,24.864711166968426],[-102.95699029204239,24.831793172852386],[-102.99312551187472,24.81415203788412],[-102.98900482891139,24.796147168174244]]],[[[-103.34148171008295,25.410131412018156],[-103.36937556398861,25.416496769996396],[-103.47556239419767,25.517978762906615],[-103.49331302850126,25.538347908436982],[-103.45464200376841,25.557989584484123],[-103.42484629618737,25.623643705345394],[-103.383639466554,25.639829901347202],[-103.35542863703577,25.69129836728554],[-103.3471872711091,25.64164857505527],[-103.36398697857501,25.625826113795075],[-103.27459985583187,25.61291353046779],[-103.25970200204134,25.579268066868522],[-103.30312766096266,25.579268066868522],[-103.34148171008295,25.410131412018156]]]]}},{"type":"Feature","properties":{"cvegeo":"05024","cve_ent":"05","state_code":"COA","nom_mun":"Parras"},"geometry":{"type":"Polygon","coordinates":[[[-101.81017252578457,26.324742419805784],[-101.79400676954378,26.22344229426637],[-101.86912998972154,26.223260426895564],[-101.89480501433925,26.127598189851163],[-101.80858764772175,26.109047718028865],[-101.79939535495738,26.051213894112287],[-101.77276940350198,25.986650977475858],[-101.81651203803585,25.967191168799523],[-101.8108064770097,25.934818776795908],[-101.77213545227686,25.89935463948857],[-101.75596969603608,25.81405884258016],[-101.76135828144966,25.750768997539378],[-101.78418052555429,25.699118664230234],[-101.8472586724546,25.706029624320895],[-101.86659418482103,25.65892597528192],[-101.87325067268488,25.586179026959183],[-101.80256511108303,25.564900544574783],[-101.77245242788942,25.503793107983682],[-101.69574432964885,25.495609076297374],[-101.70905730537655,25.395218287611996],[-101.73378140315657,25.409222075164124],[-101.74392462275863,25.372666733631945],[-101.7192005249786,25.343204219561237],[-101.67355603676934,25.337384463695418],[-101.64566218286367,25.298282978971947],[-101.61871925579571,25.29628243789307],[-101.625058768047,25.24772384988764],[-101.5743426700367,25.23753927712246],[-101.61554949967007,25.197892190286566],[-101.60191954832979,25.159518175046323],[-101.55817691379592,25.145514387494195],[-101.5689540846231,25.07022129598016],[-101.54137720633001,25.067311418047254],[-101.53598862091641,25.09841073845522],[-101.45769564461301,25.089681104656492],[-101.45769564461301,25.06149166218143],[-101.42821691264453,25.08822616569004],[-101.37940266830962,25.08931736991488],[-101.39525144893784,25.031483545998302],[-101.43867710785915,25.03057420914427],[-101.45008822991147,24.978923875835125],[-101.53281886479077,24.903267049579476],[-101.52394354763896,24.866347973305686],[-101.57117291391106,24.821608600087202],[-101.60033467026697,24.754135805517862],[-101.62252296314648,24.759046224529648],[-101.64122452428778,24.800693852444418],[-101.60920998741878,24.7895999428252],[-101.60128559710466,24.83561238763933],[-101.65675632930343,24.860710084810677],[-101.68560111004679,24.839977204538695],[-101.77340335472711,24.875623209216837],[-101.83204384305151,24.972012915744465],[-101.84916052612999,25.017661625816984],[-102.08182062575221,25.070766898092582],[-102.23777262713388,25.118416149243977],[-102.29546218862059,25.12514524196383],[-102.46377623889227,25.11587000605268],[-102.53636365416949,25.2013476703319],[-102.55665009337362,25.239539818201337],[-102.60514736209596,25.256635351057177],[-102.69928911902757,25.37284860100275],[-102.70721350934168,25.47287565494652],[-102.79184599789636,25.483787697194927],[-102.77948394900635,25.525617192480503],[-102.90500629158184,25.557262115000896],[-102.88630473044054,25.62327997060378],[-102.795015754022,25.600546549252925],[-102.80325711994868,25.64001176871801],[-102.78328765635713,25.639829901347202],[-102.7649030708284,25.68256873348681],[-102.6723461919596,25.696390653668132],[-102.7408129242735,25.738220148953708],[-102.69770424096475,25.746949782752434],[-102.69802121657732,25.789688614892043],[-102.58486092289185,25.786778736959135],[-102.5452389713213,25.886442056161286],[-102.47455340971945,25.886442056161286],[-102.44761048265148,25.788415543296395],[-102.40038111637939,25.788961145408816],[-102.398479262704,25.847704306179427],[-102.32018628640061,25.839338407122312],[-102.32367301813882,25.78987048226285],[-102.30053379842163,25.790234217004464],[-102.2935603349452,25.85170538833718],[-102.25488931021235,25.938819858953657],[-102.27359087135365,25.95482418758466],[-102.22826335875695,26.05339630256197],[-102.20227135852667,26.04593974035889],[-102.07357925982555,26.04466666876324],[-102.03459125948014,26.09431646099351],[-101.91350657548055,26.04230239294275],[-101.86912998972154,26.072128641755075],[-101.9024124290408,26.09722633892642],[-101.93062325855902,26.09595326733077],[-101.91699330721876,26.153423356505733],[-101.93759672203544,26.19397978019566],[-101.98197330779445,26.243447705055125],[-102.02222921059013,26.274547025463093],[-102.05392677184656,26.323469348210136],[-102.15060433367869,26.421859595816642],[-102.03554218631783,26.36475324138329],[-101.9486908684752,26.391669612262703],[-101.9388646244857,26.344020361111312],[-101.87705438003564,26.34693023904422],[-101.86912998972154,26.384576784801236],[-101.85328120909332,26.2905513540941],[-101.81017252578457,26.324742419805784]]]}},{"type":"Feature","properties":{"cvegeo":"05017","cve_ent":"05","state_code":"COA","nom_mun":"Matamoros"},"geometry":{"type":"Polygon","coordinates":[[[-103.03211351222014,25.63491948233542],[-103.07490521991633,25.597091069207593],[-103.09519165912045,25.59963721239889],[-103.08219565900531,25.547441276977324],[-103.1097725372984,25.390489735971016],[-103.16460931827204,25.411404483613804],[-103.26604151429262,25.414678096288327],[-103.33704405150704,25.371393662036297],[-103.34148171008295,25.410131412018156],[-103.30312766096266,25.579268066868522],[-103.25970200204134,25.579268066868522],[-103.27459985583187,25.61291353046779],[-103.36398697857501,25.625826113795075],[-103.3471872711091,25.64164857505527],[-103.35542863703577,25.69129836728554],[-103.33926288079499,25.72548943299723],[-103.29615419748625,25.75640688603439],[-103.31010112443907,25.722033952951897],[-103.27301497776904,25.7114856454451],[-103.22071400169592,25.776230429452337],[-103.20518219668027,25.757861825000845],[-103.19884268442898,25.680022590295515],[-103.13639848875381,25.670383619642752],[-103.07458824430377,25.619460755816835],[-103.06349409786401,25.64928700462916],[-103.03211351222014,25.63491948233542]]]}},{"type":"Feature","properties":{"cvegeo":"05038","cve_ent":"05","state_code":"COA","nom_mun":"Zaragoza"},"geometry":{"type":"Polygon","coordinates":[[[-101.99718813719754,28.984007115743484],[-101.91033681935491,29.131501553467835],[-101.88688062402514,29.161691537021774],[-101.83014198937613,29.270084490022654],[-101.51887193783793,29.37193021767449],[-101.46245027880148,29.23516595482774],[-101.33217330203753,29.277541052225736],[-101.33946374112651,29.182970019406174],[-101.34770510705319,29.072394657955613],[-101.11346012936814,29.04947936923395],[-101.12296939774507,28.856518088807885],[-101.15815369073971,28.770494822416246],[-101.11662988549378,28.774495904573996],[-101.0586233483945,28.762492658100747],[-101.00854120160933,28.737758695671015],[-100.92771242040543,28.7293927966139],[-100.90235437140028,28.736121889333752],[-100.84181202940049,28.78267993626031],[-100.84846851726434,28.80213974493664],[-100.81803885845817,28.827055574737177],[-100.74703632124374,28.846151648671896],[-100.67666773525445,28.752308085335564],[-100.65257758869957,28.748670737919426],[-100.6379967105216,28.655736511437127],[-100.60439729558979,28.65100795979615],[-100.71058412579885,28.60081256545346],[-100.79489963874096,28.514607431691015],[-100.83927622449997,28.43422205379439],[-100.86875495646845,28.453499995099914],[-100.93817261562005,28.432221512715515],[-100.96289671340007,28.400394722824316],[-101.00061681129523,28.392938160621235],[-101.21584325222642,28.37638822987781],[-101.71729867130321,28.50915141056681],[-101.75248296429785,28.57735167461938],[-101.99718813719754,28.984007115743484]]]}},{"type":"Feature","properties":{"cvegeo":"05037","cve_ent":"05","state_code":"COA","nom_mun":"Villa Unión"},"geometry":{"type":"Polygon","coordinates":[[[-100.65891710095086,27.821510881546125],[-100.75179095543221,27.850791528246027],[-100.9502176888975,27.926630221872482],[-100.95940998166186,27.981917902597765],[-101.01583164069831,28.00392385446539],[-101.02914461642602,28.085036701845247],[-101.03326529938936,28.200340614936785],[-100.87794724923282,28.190337909542407],[-100.85892871247896,28.243261314447203],[-100.89981856649976,28.267813409506125],[-100.81645398039534,28.34365210313258],[-100.73213846745323,28.373842086686516],[-100.61200471029133,28.377479434102653],[-100.59710685650082,28.33310379562578],[-100.6300723202075,28.231985537457177],[-100.66969427177804,28.226893251074586],[-100.63641183245879,28.134868361446323],[-100.54575680726539,28.119409634927738],[-100.59203524669978,28.066486230022946],[-100.53814939256384,28.028657816895123],[-100.54670773410308,27.998467833341188],[-100.57238275872079,28.00519692606104],[-100.60186149068927,27.978280555181627],[-100.65891710095086,27.821510881546125]]]}},{"type":"Feature","properties":{"cvegeo":"05036","cve_ent":"05","state_code":"COA","nom_mun":"Viesca"},"geometry":{"type":"Polygon","coordinates":[[[-102.88630473044054,25.62327997060378],[-102.90500629158184,25.557262115000896],[-102.77948394900635,25.525617192480503],[-102.79184599789636,25.483787697194927],[-102.70721350934168,25.47287565494652],[-102.69928911902757,25.37284860100275],[-102.60514736209596,25.256635351057177],[-102.55665009337362,25.239539818201337],[-102.53636365416949,25.2013476703319],[-102.46377623889227,25.11587000605268],[-102.45394999490277,25.048215344112535],[-102.44665955581378,24.999474888736298],[-102.66981038705909,25.066402081193218],[-102.85302229112128,24.771776940486127],[-102.85619204724692,24.740859487448965],[-102.88376892554002,24.75104406021415],[-102.923073901498,24.78032470691405],[-102.98900482891139,24.796147168174244],[-102.99312551187472,24.81415203788412],[-102.95699029204239,24.831793172852386],[-102.95730726765495,24.864711166968426],[-103.05366785387452,24.92490926670549],[-103.019117512105,24.971649181002853],[-103.09804443963353,25.024026983795224],[-103.10406697627225,25.111687056524122],[-103.19060131850232,25.16042751190036],[-103.19630687952848,25.19425484287043],[-103.3462363442714,25.222989887457913],[-103.34560239304628,25.258999626877667],[-103.42801605231301,25.30101098953405],[-103.44132902804071,25.32119826769361],[-103.47017380878407,25.30101098953405],[-103.49394697972639,25.311559297040844],[-103.46288336969509,25.37521287682324],[-103.40709566188376,25.398673767657325],[-103.33704405150704,25.371393662036297],[-103.26604151429262,25.414678096288327],[-103.16460931827204,25.411404483613804],[-103.1097725372984,25.390489735971016],[-103.08219565900531,25.547441276977324],[-103.09519165912045,25.59963721239889],[-103.07490521991633,25.597091069207593],[-103.03211351222014,25.63491948233542],[-102.88630473044054,25.62327997060378]]]}},{"type":"Feature","properties":{"cvegeo":"05034","cve_ent":"05","state_code":"COA","nom_mun":"Sierra Mojada"},"geometry":{"type":"Polygon","coordinates":[[[-103.21342356260695,26.976373209406713],[-103.04479253672271,26.813056310422166],[-103.1649262938846,26.75394941490994],[-103.36588883225039,26.654104228336983],[-103.41597097903556,26.616821417321578],[-103.63690298099291,26.692478243577227],[-103.6584573226473,26.71939461445664],[-103.6993471766681,26.72521437032246],[-103.75418395764173,26.82942437379478],[-103.77985898225944,26.836153466514634],[-103.85181244631154,26.896169698880893],[-103.8521294219241,26.934725581491946],[-103.7846136164479,26.980738026306078],[-103.780175957872,27.00892746878114],[-103.74499166487736,27.02274938896246],[-103.75545186009198,27.081674417103876],[-103.78334571399765,27.091131520385833],[-103.79951147023843,27.1247769839851],[-103.7988775190133,27.21352826093884],[-103.81979790944254,27.24299077500955],[-103.83215995833255,27.29827845573483],[-103.87685351970413,27.311372906432922],[-103.85466522682462,27.54961916218989],[-103.86037078785078,27.571261379315906],[-103.88351000756798,27.600723893386615],[-103.89713995890824,27.656557176224318],[-103.8816081538926,27.739124962570624],[-103.9358109836411,27.797322521228814],[-103.90126064187159,27.826603167928717],[-103.95990113019599,27.835332801727446],[-103.94215049589238,27.927539558726515],[-103.89301927594491,27.914081373286812],[-103.87812142215438,27.957547674909648],[-103.9269356664893,27.971369595090966],[-103.8673442513272,28.112134940095466],[-103.76813088459456,28.30036766888055],[-103.7294598598617,28.35456414538099],[-103.64292551763164,28.512425023241335],[-103.64260854201908,28.54479741524495],[-103.63753693221804,28.554436385897716],[-103.41375214974761,28.4478621066049],[-103.63405020047983,27.86461344842735],[-103.60425449289879,27.902805596296787],[-103.53737263864771,27.879890307575124],[-103.49046024798818,27.902987463667593],[-103.5072599554541,27.867159591618645],[-103.44988736957995,27.863522244202507],[-103.43625741823968,27.838242679660354],[-103.49394697972639,27.78040885574378],[-103.47270961368459,27.76476826185439],[-103.50599205300384,27.435042718581578],[-103.35669653948604,27.411036225635073],[-103.46256639408253,27.281546657620602],[-103.52152385801949,27.281728524991408],[-103.53071615078386,27.182610807901675],[-103.45369107693072,27.0531212398872],[-103.33514219783166,26.974008933586223],[-103.21342356260695,26.976373209406713]]]}},{"type":"Feature","properties":{"cvegeo":"05033","cve_ent":"05","state_code":"COA","nom_mun":"San Pedro"},"geometry":{"type":"Polygon","coordinates":[[[-101.98197330779445,26.243447705055125],[-101.93759672203544,26.19397978019566],[-101.91699330721876,26.153423356505733],[-101.93062325855902,26.09595326733077],[-101.9024124290408,26.09722633892642],[-101.86912998972154,26.072128641755075],[-101.91350657548055,26.04230239294275],[-102.03459125948014,26.09431646099351],[-102.07357925982555,26.04466666876324],[-102.20227135852667,26.04593974035889],[-102.22826335875695,26.05339630256197],[-102.27359087135365,25.95482418758466],[-102.25488931021235,25.938819858953657],[-102.2935603349452,25.85170538833718],[-102.30053379842163,25.790234217004464],[-102.32367301813882,25.78987048226285],[-102.32018628640061,25.839338407122312],[-102.398479262704,25.847704306179427],[-102.40038111637939,25.788961145408816],[-102.44761048265148,25.788415543296395],[-102.47455340971945,25.886442056161286],[-102.5452389713213,25.886442056161286],[-102.58486092289185,25.786778736959135],[-102.69802121657732,25.789688614892043],[-102.69770424096475,25.746949782752434],[-102.7408129242735,25.738220148953708],[-102.6723461919596,25.696390653668132],[-102.7649030708284,25.68256873348681],[-102.78328765635713,25.639829901347202],[-102.80325711994868,25.64001176871801],[-102.795015754022,25.600546549252925],[-102.88630473044054,25.62327997060378],[-103.03211351222014,25.63491948233542],[-103.06349409786401,25.64928700462916],[-103.07458824430377,25.619460755816835],[-103.13639848875381,25.670383619642752],[-103.19884268442898,25.680022590295515],[-103.20518219668027,25.757861825000845],[-103.22071400169592,25.776230429452337],[-103.20454824545514,25.81751432262549],[-103.23529487987389,25.82751702801987],[-103.17665439154948,25.935546246279134],[-103.19282014779026,25.967918638282754],[-103.14495683029304,25.975738935227447],[-103.13703243997894,26.03157221806515],[-103.21659331873259,26.047212811954537],[-103.21342356260695,26.119414158164854],[-103.16524326949717,26.091770317802215],[-103.16556024510973,26.14742173326911],[-103.12213458618841,26.14160197740329],[-103.11769692761251,26.173610634665295],[-103.16270746459665,26.179248523160307],[-103.1560509767328,26.209438506714243],[-102.92402482833569,26.18306773794725],[-102.89422912075464,26.160879918708815],[-102.91166277944569,26.228898315390577],[-102.87996521818926,26.296007375218302],[-102.94906590172828,26.300917794230088],[-102.95286960907904,26.344747830594535],[-102.97791068247163,26.38548612165527],[-102.97125419460778,26.4234964021539],[-102.9604770237806,26.52952507933429],[-102.80167224188585,26.64828447247116],[-102.7515900951007,26.631552674356932],[-102.67868570421089,26.525705864547348],[-102.62131311833674,26.491151064094048],[-102.50815282465128,26.497698289443093],[-102.38421536013861,26.586995168509254],[-102.33761994509165,26.600453353948964],[-102.50276423923768,26.319650133423192],[-102.50815282465128,26.2800030465873],[-102.37248726247373,26.27654756654197],[-102.34015574999216,26.2694547390805],[-102.34300853050524,26.31473971441141],[-102.3166995546624,26.251449869370624],[-102.39657740902862,26.107956513804023],[-102.28722082269391,26.133963547829403],[-102.26661740787723,26.051395761483093],[-102.117638869972,26.091224715689794],[-102.13855926040124,26.171973828328035],[-102.03173847896706,26.217986273142166],[-102.00669740557447,26.195434719162115],[-102.00606345434934,26.16106178607962],[-101.96263779542802,26.157788173405102],[-101.98197330779445,26.243447705055125]]]}},{"type":"Feature","properties":{"cvegeo":"05032","cve_ent":"05","state_code":"COA","nom_mun":"San Juan de Sabinas"},"geometry":{"type":"Polygon","coordinates":[[[-101.31790939947214,28.221255362579573],[-101.36196900961858,28.217799882534244],[-101.36672364380705,28.13086727928857],[-101.30713222864495,28.111043735870624],[-101.29445320414237,28.07103291429312],[-101.20728491068718,28.031931429569646],[-101.24405408174465,27.97573441199033],[-101.19016822760871,27.949545510594145],[-101.19967749598564,27.890074880340308],[-101.2418352524567,27.878980970721088],[-101.31061896038315,27.892984758273215],[-101.35975018033064,27.910807760612286],[-101.35721437543012,27.93008570191781],[-101.4098323271158,27.91971926178182],[-101.37623291218398,27.958093277022066],[-101.44121291275967,27.986464586867935],[-101.49921944985894,27.975006942507104],[-101.50270618159715,28.090674590340257],[-101.53915837704206,28.089583386115414],[-101.61364764599467,28.20925211610632],[-101.58068218228799,28.234895415390085],[-101.48780832780663,28.18688242949708],[-101.42504715651889,28.231439935344756],[-101.31156988722086,28.239623967031065],[-101.31790939947214,28.221255362579573]]]}},{"type":"Feature","properties":{"cvegeo":"05031","cve_ent":"05","state_code":"COA","nom_mun":"San Buenaventura"},"geometry":{"type":"Polygon","coordinates":[[[-102.47962501952048,28.55079903848158],[-102.4358823849866,28.507696471600354],[-102.42193545803377,28.527338147647495],[-102.42288638487146,28.58808184949698],[-102.3816795552381,28.636276702760796],[-102.38104560401297,28.66773975791038],[-102.33857087192935,28.65555464406632],[-102.31162794486137,28.620636108871405],[-102.23016521243234,28.55752813120143],[-102.15916267521791,28.53333977088412],[-102.08689223555325,28.460410955190575],[-102.07801691840145,28.439859942289402],[-102.06628882073656,28.32219175337737],[-102.07104345492503,28.233622343794437],[-102.05868140603502,28.173606111428178],[-102.0837224794276,28.046480819234194],[-102.02920267406654,28.038842389660307],[-102.01652364956396,28.01847324412994],[-101.97912052728137,28.01901884624236],[-101.95788316123956,27.99719476174554],[-101.96802638084162,27.96536797185434],[-101.94552111234955,27.950454847448178],[-101.89226920943874,27.876434827529792],[-101.84535681877921,27.849700324021185],[-101.80319906230815,27.844244302896982],[-101.79495769638149,27.869342000068325],[-101.72870979335553,27.846972313459084],[-101.62283993875904,27.827876239524365],[-101.58511984086388,27.7995049296785],[-101.50080432792177,27.76349519025874],[-101.50175525475946,27.733123339334],[-101.60667418251826,27.690748241936003],[-101.59082540189004,27.63273255064862],[-101.5103135962987,27.515973698590624],[-101.497000620571,27.444499821863534],[-101.45674471777532,27.387575334800992],[-101.47766510820458,27.316101458073902],[-101.44406569327275,27.315192121219866],[-101.47576325452918,27.213710128309646],[-101.49763457179613,27.144782394773852],[-101.4374092054089,27.127868729288814],[-101.41331905885401,27.100770491038595],[-101.45484286409993,27.04348226923444],[-101.52045681590076,27.015110959388572],[-101.55183740154463,27.047301484021382],[-101.57497662126183,27.04348226923444],[-101.69130667107294,27.12241270816461],[-101.70335174435039,27.180974001564415],[-101.65326959756521,27.170971296170038],[-101.59843281659158,27.181337736306027],[-101.64090754867522,27.194977789116543],[-101.70874032976398,27.250083602471015],[-101.76262618389993,27.276818105979622],[-101.76706384247582,27.341199155245246],[-101.87198277023462,27.489966664565245],[-101.92935535610877,27.489057327711212],[-101.95312852705109,27.467415110585197],[-101.99782208842267,27.47705408123796],[-102.04885516204553,27.513063820657713],[-102.0900619916789,27.567805899270574],[-102.13729135795099,27.695113058835368],[-102.18261887054769,27.657102778336736],[-102.19941857801359,27.692385048273266],[-102.15694384592997,27.817873534129987],[-102.20163740730155,27.851518997729254],[-102.24696491989825,27.863704111573313],[-102.26566648103955,27.84824538505473],[-102.30053379842163,27.887165002407396],[-102.25425535898722,27.896985840430965],[-102.21495038302925,27.947908704256882],[-102.28246618850545,28.005015058690233],[-102.3477631646937,27.964458635000305],[-102.38453233575117,28.015381498826223],[-102.38136257962553,28.048663227683875],[-102.4127431652694,28.147599077402802],[-102.49293799524818,28.289637494002946],[-102.44253887285045,28.331103254546907],[-102.4412709704002,28.34819878740275],[-102.47962501952048,28.55079903848158]]]}},{"type":"Feature","properties":{"cvegeo":"05030","cve_ent":"05","state_code":"COA","nom_mun":"Saltillo"},"geometry":{"type":"Polygon","coordinates":[[[-100.93563681071953,25.492517330993657],[-100.90679202997617,25.479786615037177],[-100.88587163954693,25.388852929633757],[-100.844347834301,25.356116802888522],[-100.91218061538977,25.372121131519528],[-100.89569788353643,25.34193114796559],[-100.86178149299204,25.332837779425248],[-100.87572841994488,25.309922490703585],[-100.91598432274054,25.322471339289258],[-100.95116861573518,25.315196644456982],[-100.88935837128514,25.28864400831918],[-100.88999232251027,25.24499583932554],[-100.91313154222746,25.23226512336906],[-100.89696578598668,25.177341177385394],[-100.80472588273045,25.153152817068083],[-100.82184256580894,24.996565010803387],[-100.72738383326475,24.91854390872725],[-100.82628022438483,24.83506678552691],[-100.79711846802891,24.75086219284334],[-100.80567680956815,24.596093060286712],[-100.799971248542,24.556264106080015],[-100.84783456603921,24.555536636596788],[-100.90235437140028,24.583907946442658],[-100.9590930060493,24.542442185898693],[-101.08081164127401,24.59118264127493],[-101.12772403193352,24.623191298536934],[-101.164493202991,24.681388857195124],[-101.20157934966102,24.765411582507888],[-101.34231652163959,24.813242701030088],[-101.40222491241425,24.788145003858745],[-101.44882032746122,24.746133641202363],[-101.46181632757636,24.736676537920406],[-101.59779886536646,24.753953938147056],[-101.60033467026697,24.754135805517862],[-101.57117291391106,24.821608600087202],[-101.52394354763896,24.866347973305686],[-101.53281886479077,24.903267049579476],[-101.45008822991147,24.978923875835125],[-101.43867710785915,25.03057420914427],[-101.39525144893784,25.031483545998302],[-101.37940266830962,25.08931736991488],[-101.42821691264453,25.08822616569004],[-101.45769564461301,25.06149166218143],[-101.45769564461301,25.089681104656492],[-101.53598862091641,25.09841073845522],[-101.54137720633001,25.067311418047254],[-101.5689540846231,25.07022129598016],[-101.55817691379592,25.145514387494195],[-101.60191954832979,25.159518175046323],[-101.61554949967007,25.197892190286566],[-101.43328852244557,25.176431840531357],[-101.42251135161837,25.204075680894],[-101.38542520494835,25.20007459873625],[-101.36830852186986,25.325381217222166],[-101.31252081405854,25.32756362567185],[-101.3147396433465,25.37357607048598],[-101.25102754522106,25.3821238369139],[-101.28874764311622,25.398673767657325],[-101.36608969258192,25.40885834042251],[-101.40190793680169,25.473057522317326],[-101.31632452140931,25.475421798137816],[-101.27670256983878,25.45032410096647],[-101.21584325222642,25.45305211152857],[-100.99839798200728,25.51652382394016],[-100.9822322257665,25.4963365457806],[-100.93563681071953,25.492517330993657]]]}},{"type":"Feature","properties":{"cvegeo":"05029","cve_ent":"05","state_code":"COA","nom_mun":"Sacramento"},"geometry":{"type":"Polygon","coordinates":[[[-101.71191008588963,27.034388900694097],[-101.71634774446552,26.995105548599817],[-101.66658257329293,26.950366175381333],[-101.65041681705215,26.892168616723144],[-101.74963018378479,26.829788108536395],[-101.78671633045481,26.889622473531848],[-101.86342442869538,26.900352648409452],[-101.86691116043359,26.936907989941627],[-101.80541789159611,27.033843298581676],[-101.78132774504121,27.04220919763879],[-101.71191008588963,27.034388900694097]]]}},{"type":"Feature","properties":{"cvegeo":"05028","cve_ent":"05","state_code":"COA","nom_mun":"Sabinas"},"geometry":{"type":"Polygon","coordinates":[[[-101.03485017745217,28.244170651301236],[-101.03326529938936,28.200340614936785],[-101.02914461642602,28.085036701845247],[-101.01583164069831,28.00392385446539],[-100.95940998166186,27.981917902597765],[-100.9502176888975,27.926630221872482],[-100.972405981777,27.934996120929597],[-101.004420518646,27.876252960158986],[-100.98064734770367,27.859521162044757],[-101.01139398212241,27.833150393277762],[-100.90235437140028,27.757675434392922],[-100.90203739578772,27.67310710696774],[-100.95528929869852,27.693658119868914],[-101.03833690919038,27.647281940313167],[-101.26909515513722,27.63673363280637],[-101.3413655948019,27.786956081092825],[-101.36577271696936,27.87370681696769],[-101.33058842397472,27.87207001063043],[-101.29445320414237,27.846244843975857],[-101.31061896038315,27.892984758273215],[-101.2418352524567,27.878980970721088],[-101.19967749598564,27.890074880340308],[-101.19016822760871,27.949545510594145],[-101.24405408174465,27.97573441199033],[-101.20728491068718,28.031931429569646],[-101.29445320414237,28.07103291429312],[-101.30713222864495,28.111043735870624],[-101.36672364380705,28.13086727928857],[-101.36196900961858,28.217799882534244],[-101.31790939947214,28.221255362579573],[-101.30427944813187,28.222164699433606],[-101.03485017745217,28.244170651301236]]]}},{"type":"Feature","properties":{"cvegeo":"05027","cve_ent":"05","state_code":"COA","nom_mun":"Ramos Arizpe"},"geometry":{"type":"Polygon","coordinates":[[[-100.72991963816527,25.633828278110578],[-100.6906146622073,25.567082953024464],[-100.63324207633315,25.571265902553023],[-100.59647290527568,25.544531399044416],[-100.53878334378896,25.531800683087937],[-100.5295910510246,25.51415954811967],[-100.60851797855312,25.513432078636445],[-100.72516500397681,25.535801765245687],[-100.78443944352634,25.507612322770626],[-100.82279349264662,25.511613404928376],[-100.88587163954693,25.489243718319134],[-100.90964481048925,25.516887558681773],[-100.93563681071953,25.492517330993657],[-100.9822322257665,25.4963365457806],[-100.99839798200728,25.51652382394016],[-101.21584325222642,25.45305211152857],[-101.27670256983878,25.45032410096647],[-101.31632452140931,25.475421798137816],[-101.26814422829953,25.488698116206713],[-101.2453219841949,25.571084035182217],[-101.18382871535742,25.600910283994537],[-101.23486178898028,25.624553042199427],[-101.33122237519984,25.62891785909879],[-101.36260296084372,25.660926516360796],[-101.37052735115782,25.634010145481383],[-101.4034928148645,25.62891785909879],[-101.41141720517862,25.604002029298254],[-101.47195954717841,25.653651821528523],[-101.41553788814196,25.68311433559923],[-101.39366657087501,25.752042069135026],[-101.51063057191126,25.766227724057963],[-101.45484286409993,25.699664266342655],[-101.58924052382721,25.700937337938303],[-101.5787803286126,25.81060336253483],[-101.4782990594297,25.848977377775075],[-101.51887193783793,25.86952839067625],[-101.5556411088954,25.85734327683219],[-101.58670471892671,25.89899090474696],[-101.58480286525132,25.863526767439623],[-101.6231569143716,25.804601739298207],[-101.6836992563714,25.83024503858197],[-101.75343389113556,25.843157621909256],[-101.75596969603608,25.81405884258016],[-101.77213545227686,25.89935463948857],[-101.8108064770097,25.934818776795908],[-101.81651203803585,25.967191168799523],[-101.77276940350198,25.986650977475858],[-101.79939535495738,26.051213894112287],[-101.80858764772175,26.109047718028865],[-101.89480501433925,26.127598189851163],[-101.86912998972154,26.223260426895564],[-101.79400676954378,26.22344229426637],[-101.81017252578457,26.324742419805784],[-101.69352550036089,26.299280987892825],[-101.67957857340807,26.3969437660161],[-101.66024306104164,26.32328748083933],[-101.62664364610981,26.297098579443144],[-101.55849388940848,26.266544861147594],[-101.50524198649767,26.33874620735791],[-101.45484286409993,26.26745419800163],[-101.37116130238294,26.27018220856373],[-101.3458032533778,26.299826590005246],[-101.31188686283342,26.31001116277043],[-101.22059788641488,26.281276118182948],[-101.18192686168203,26.241083429234635],[-101.1404030564361,26.217440671029745],[-101.12328637335763,26.185068279026126],[-101.07510608024785,26.198890199207447],[-101.04752920195475,26.16979141987835],[-100.97620968912777,26.132690476233755],[-100.94324422542108,26.08685989879043],[-100.91661827396567,26.075402254429598],[-100.90552412752592,25.956824728663534],[-100.83483856592407,25.94500334956109],[-100.82279349264662,25.91681390708603],[-100.86178149299204,25.818423659479524],[-100.80599378518072,25.72421636140158],[-100.7812696874007,25.638556829751554],[-100.72991963816527,25.633828278110578]]]}},{"type":"Feature","properties":{"cvegeo":"05026","cve_ent":"05","state_code":"COA","nom_mun":"Progreso"},"geometry":{"type":"Polygon","coordinates":[[[-101.03833690919038,27.647281940313167],[-101.05101593369295,27.58381022790158],[-100.92771242040543,27.473234866451016],[-100.86875495646845,27.485965582407495],[-100.87572841994488,27.441408076559817],[-100.84244598062561,27.467778845326812],[-100.77461319953684,27.454866261999523],[-100.72167827223859,27.48105516339571],[-100.5803071490349,27.5179742396695],[-100.57491856362131,27.491239736160892],[-100.52134968509793,27.483601306587005],[-100.49630861170535,27.449592108246126],[-100.42942675745427,27.40794448033136],[-100.42277026959042,27.392485753812778],[-100.67793563770472,27.334833797267006],[-100.83452159031151,27.19515965648735],[-100.8310348585733,27.073854120159183],[-100.89918461527463,27.021294449996006],[-100.92485963989235,27.10731771638764],[-100.94958373767237,27.13859890416642],[-101.03928783602808,27.1911585743296],[-101.0595742752322,27.242627040267934],[-101.10870549517966,27.289366954565295],[-101.14737651991251,27.298642190476443],[-101.20284725211128,27.35993149443835],[-101.29191739924187,27.401760989723925],[-101.31283778967111,27.485601847665883],[-101.37021037554526,27.483601306587005],[-101.36482179013166,27.511427014320454],[-101.5103135962987,27.515973698590624],[-101.59082540189004,27.63273255064862],[-101.60667418251826,27.690748241936003],[-101.50175525475946,27.733123339334],[-101.50904569384844,27.65964892152803],[-101.50080432792177,27.639825378110086],[-101.33851281428882,27.63382375487346],[-101.26909515513722,27.63673363280637],[-101.03833690919038,27.647281940313167]]]}},{"type":"Feature","properties":{"cvegeo":"05025","cve_ent":"05","state_code":"COA","nom_mun":"Piedras Negras"},"geometry":{"type":"Polygon","coordinates":[[[-100.44749436737044,28.6099059339938],[-100.51215739233356,28.63536736590676],[-100.60439729558979,28.65100795979615],[-100.6379967105216,28.655736511437127],[-100.65257758869957,28.748670737919426],[-100.67666773525445,28.752308085335564],[-100.74703632124374,28.846151648671896],[-100.76573788238504,28.86542958997742],[-100.72453105275167,28.911260167420746],[-100.68712793046909,28.915261249578496],[-100.70107485742191,28.93817653830016],[-100.6478229545111,28.940722681491454],[-100.60217846630184,28.90234866625121],[-100.57174880749567,28.826146237883144],[-100.54765866094077,28.82632810525395],[-100.53307778276282,28.758127841201382],[-100.50803670937023,28.741214175716344],[-100.49662558731791,28.658646389370038],[-100.44654344053275,28.641732723885],[-100.44749436737044,28.6099059339938]]]}},{"type":"Feature","properties":{"cvegeo":"05023","cve_ent":"05","state_code":"COA","nom_mun":"Ocampo"},"geometry":{"type":"Polygon","coordinates":[[[-103.63753693221804,28.554436385897716],[-103.59664707819725,28.63955031543532],[-103.55734210223926,28.61117900558945],[-103.51455039454308,28.665011747348277],[-103.40994844239684,28.84069562754769],[-103.40360893014555,28.869248804764364],[-103.35764746632373,28.92017166859028],[-103.30693136831343,29.004012526532236],[-103.28030541685803,28.975823084057176],[-103.2280044407849,28.991645545317372],[-103.15288122060716,28.97200386927023],[-103.11674600077482,28.984007115743484],[-103.10153117137173,29.057845268291064],[-103.08029380532992,29.08676218024935],[-103.03972092692169,29.09676488564373],[-102.99851409728832,29.174785987719865],[-102.9176853160844,29.190972183721676],[-102.86760316929924,29.223708310466908],[-102.87108990103745,29.240440108581137],[-102.75571077806403,29.168966231854046],[-102.64191653315342,29.110223071083436],[-102.46694599501791,28.970003328191357],[-102.63811282580265,28.69702040461028],[-102.55316336163541,28.67064963584329],[-102.56996306910132,28.63827724383967],[-102.50593399536332,28.58226209363116],[-102.48691545860946,28.590627992688276],[-102.47962501952048,28.55079903848158],[-102.4412709704002,28.34819878740275],[-102.44253887285045,28.331103254546907],[-102.49293799524818,28.289637494002946],[-102.4127431652694,28.147599077402802],[-102.38136257962553,28.048663227683875],[-102.38453233575117,28.015381498826223],[-102.3477631646937,27.964458635000305],[-102.28246618850545,28.005015058690233],[-102.21495038302925,27.947908704256882],[-102.25425535898722,27.896985840430965],[-102.30053379842163,27.887165002407396],[-102.26566648103955,27.84824538505473],[-102.24696491989825,27.863704111573313],[-102.20163740730155,27.851518997729254],[-102.15694384592997,27.817873534129987],[-102.19941857801359,27.692385048273266],[-102.18261887054769,27.657102778336736],[-102.13729135795099,27.695113058835368],[-102.0900619916789,27.567805899270574],[-102.04885516204553,27.513063820657713],[-101.99782208842267,27.47705408123796],[-101.925551648758,27.37739076203581],[-101.89575594117694,27.305553150567103],[-101.97151311257983,27.247719326650525],[-101.99528628352215,27.263905522652337],[-102.0349082350927,27.236261682289694],[-102.09735243076787,27.24062649918906],[-102.14458179703996,27.278818647058497],[-102.31701653027497,27.272817023821872],[-102.3043375057724,27.231714998019527],[-102.36583077460988,27.262086848944268],[-102.4117922384317,27.192431645925247],[-102.33286531090319,27.13150607670495],[-102.2891226763693,27.014747224646957],[-102.39182277484015,27.034570768064903],[-102.44285584846301,27.026932338491015],[-102.48596453177177,27.080583212879034],[-102.57249887400184,27.11331933962427],[-102.6403316550906,27.160059253921627],[-102.69516843606424,27.064397016877226],[-102.72813389977092,27.083493090811945],[-102.74366570478658,27.044755340830086],[-102.78138580268174,27.04821082087542],[-102.8083287297497,27.08094694762065],[-102.80008736382304,26.873072542788424],[-102.98741995084856,26.979646822081236],[-103.21342356260695,26.976373209406713],[-103.33514219783166,26.974008933586223],[-103.45369107693072,27.0531212398872],[-103.53071615078386,27.182610807901675],[-103.52152385801949,27.281728524991408],[-103.46256639408253,27.281546657620602],[-103.35669653948604,27.411036225635073],[-103.50599205300384,27.435042718581578],[-103.47270961368459,27.76476826185439],[-103.49394697972639,27.78040885574378],[-103.43625741823968,27.838242679660354],[-103.44988736957995,27.863522244202507],[-103.5072599554541,27.867159591618645],[-103.49046024798818,27.902987463667593],[-103.53737263864771,27.879890307575124],[-103.60425449289879,27.902805596296787],[-103.63405020047983,27.86461344842735],[-103.41375214974761,28.4478621066049],[-103.63753693221804,28.554436385897716]]]}},{"type":"Feature","properties":{"cvegeo":"05022","cve_ent":"05","state_code":"COA","nom_mun":"Nava"},"geometry":{"type":"Polygon","coordinates":[[[-100.60439729558979,28.65100795979615],[-100.51215739233356,28.63536736590676],[-100.44749436737044,28.6099059339938],[-100.40026500109835,28.586626910530526],[-100.40914031825015,28.556255059605782],[-100.48933514822893,28.52988429083879],[-100.47729007495148,28.484599315507886],[-100.49947836783099,28.474960344855123],[-100.45858851381018,28.45422746458314],[-100.50962158743305,28.374387688798937],[-100.59710685650082,28.33310379562578],[-100.61200471029133,28.377479434102653],[-100.73213846745323,28.373842086686516],[-100.80979749253149,28.380934914147986],[-100.80852959008124,28.42440121577082],[-100.83927622449997,28.43422205379439],[-100.79489963874096,28.514607431691015],[-100.71058412579885,28.60081256545346],[-100.60439729558979,28.65100795979615]]]}},{"type":"Feature","properties":{"cvegeo":"05021","cve_ent":"05","state_code":"COA","nom_mun":"Nadadores"},"geometry":{"type":"Polygon","coordinates":[[[-101.52045681590076,27.015110959388572],[-101.55595808450796,26.976009474665098],[-101.63203223152341,26.972917729361384],[-101.66943535380601,26.982374832643337],[-101.6757748660573,27.004017049769352],[-101.71634774446552,26.995105548599817],[-101.71191008588963,27.034388900694097],[-101.8516963310305,27.271543952226224],[-101.89575594117694,27.305553150567103],[-101.925551648758,27.37739076203581],[-101.99782208842267,27.47705408123796],[-101.95312852705109,27.467415110585197],[-101.92935535610877,27.489057327711212],[-101.87198277023462,27.489966664565245],[-101.76706384247582,27.341199155245246],[-101.76262618389993,27.276818105979622],[-101.70874032976398,27.250083602471015],[-101.64090754867522,27.194977789116543],[-101.59843281659158,27.181337736306027],[-101.65326959756521,27.170971296170038],[-101.70335174435039,27.180974001564415],[-101.69130667107294,27.12241270816461],[-101.57497662126183,27.04348226923444],[-101.55183740154463,27.047301484021382],[-101.52045681590076,27.015110959388572]]]}},{"type":"Feature","properties":{"cvegeo":"05020","cve_ent":"05","state_code":"COA","nom_mun":"Múzquiz"},"geometry":{"type":"Polygon","coordinates":[[[-102.46694599501791,28.970003328191357],[-102.40481877495529,29.06384689152769],[-102.13855926040124,29.00855921080241],[-101.99718813719754,28.984007115743484],[-101.75248296429785,28.57735167461938],[-101.71729867130321,28.50915141056681],[-101.21584325222642,28.37638822987781],[-101.2995248139434,28.338014214637568],[-101.30427944813187,28.222164699433606],[-101.31790939947214,28.221255362579573],[-101.31156988722086,28.239623967031065],[-101.42504715651889,28.231439935344756],[-101.48780832780663,28.18688242949708],[-101.58068218228799,28.234895415390085],[-101.61364764599467,28.20925211610632],[-101.53915837704206,28.089583386115414],[-101.50270618159715,28.090674590340257],[-101.49921944985894,27.975006942507104],[-101.44121291275967,27.986464586867935],[-101.37623291218398,27.958093277022066],[-101.4098323271158,27.91971926178182],[-101.35721437543012,27.93008570191781],[-101.35975018033064,27.910807760612286],[-101.31061896038315,27.892984758273215],[-101.29445320414237,27.846244843975857],[-101.33058842397472,27.87207001063043],[-101.36577271696936,27.87370681696769],[-101.3413655948019,27.786956081092825],[-101.26909515513722,27.63673363280637],[-101.33851281428882,27.63382375487346],[-101.50080432792177,27.639825378110086],[-101.50904569384844,27.65964892152803],[-101.50175525475946,27.733123339334],[-101.50080432792177,27.76349519025874],[-101.58511984086388,27.7995049296785],[-101.62283993875904,27.827876239524365],[-101.72870979335553,27.846972313459084],[-101.79495769638149,27.869342000068325],[-101.80319906230815,27.844244302896982],[-101.84535681877921,27.849700324021185],[-101.89226920943874,27.876434827529792],[-101.94552111234955,27.950454847448178],[-101.96802638084162,27.96536797185434],[-101.95788316123956,27.99719476174554],[-101.97912052728137,28.01901884624236],[-102.01652364956396,28.01847324412994],[-102.02920267406654,28.038842389660307],[-102.0837224794276,28.046480819234194],[-102.05868140603502,28.173606111428178],[-102.07104345492503,28.233622343794437],[-102.06628882073656,28.32219175337737],[-102.07801691840145,28.439859942289402],[-102.08689223555325,28.460410955190575],[-102.15916267521791,28.53333977088412],[-102.23016521243234,28.55752813120143],[-102.31162794486137,28.620636108871405],[-102.33857087192935,28.65555464406632],[-102.38104560401297,28.66773975791038],[-102.3816795552381,28.636276702760796],[-102.42288638487146,28.58808184949698],[-102.42193545803377,28.527338147647495],[-102.4358823849866,28.507696471600354],[-102.47962501952048,28.55079903848158],[-102.48691545860946,28.590627992688276],[-102.50593399536332,28.58226209363116],[-102.56996306910132,28.63827724383967],[-102.55316336163541,28.67064963584329],[-102.63811282580265,28.69702040461028],[-102.46694599501791,28.970003328191357]]]}},{"type":"Feature","properties":{"cvegeo":"05019","cve_ent":"05","state_code":"COA","nom_mun":"Morelos"},"geometry":{"type":"Polygon","coordinates":[[[-100.83927622449997,28.43422205379439],[-100.80852959008124,28.42440121577082],[-100.80979749253149,28.380934914147986],[-100.92929729846824,28.342379031536932],[-101.00061681129523,28.268540878989352],[-101.03485017745217,28.244170651301236],[-101.30427944813187,28.222164699433606],[-101.2995248139434,28.338014214637568],[-101.21584325222642,28.37638822987781],[-101.00061681129523,28.392938160621235],[-100.96289671340007,28.400394722824316],[-100.93817261562005,28.432221512715515],[-100.86875495646845,28.453499995099914],[-100.83927622449997,28.43422205379439]]]}},{"type":"Feature","properties":{"cvegeo":"05018","cve_ent":"05","state_code":"COA","nom_mun":"Monclova"},"geometry":{"type":"Polygon","coordinates":[[[-101.52711330376461,26.843791896088522],[-101.45262403481199,26.897260903105735],[-101.43519037612094,26.950366175381333],[-101.34865603389088,27.06403328213561],[-101.29793993588058,27.020566980512776],[-101.26338959411108,27.007836264556296],[-101.20570003262436,27.04057239130153],[-101.18002500800665,27.01165547934324],[-101.0763739826981,27.042391065009596],[-101.06084217768245,27.023294991074877],[-101.03833690919038,26.983647904238985],[-100.98191525015393,26.967097973495562],[-100.91661827396567,26.88252964607038],[-100.93817261562005,26.83924521181835],[-100.9812812989288,26.80996456511845],[-100.96638344513828,26.789413552217276],[-101.00759027477164,26.79486957334148],[-101.11282617814301,26.697752397330625],[-101.19619076424743,26.747765924302506],[-101.20506608139922,26.807236554556347],[-101.25641613063466,26.84524683505498],[-101.36704061941961,26.81905793365879],[-101.4107832539535,26.83760840548109],[-101.4881253034192,26.817057392579915],[-101.52711330376461,26.843791896088522]]]}},{"type":"Feature","properties":{"cvegeo":"05016","cve_ent":"05","state_code":"COA","nom_mun":"Lamadrid"},"geometry":{"type":"Polygon","coordinates":[[[-102.09735243076787,27.24062649918906],[-102.0349082350927,27.236261682289694],[-101.99528628352215,27.263905522652337],[-101.97151311257983,27.247719326650525],[-101.89575594117694,27.305553150567103],[-101.8516963310305,27.271543952226224],[-101.71191008588963,27.034388900694097],[-101.78132774504121,27.04220919763879],[-101.80541789159611,27.033843298581676],[-101.82665525763792,27.021112582625197],[-101.87420159952256,27.071307976967887],[-101.89195223382617,27.047301484021382],[-101.93823067326056,27.047847086133803],[-101.94266833183647,27.023840593187302],[-102.00004091771062,27.02093071525439],[-102.00321067383626,27.07676399809209],[-102.05582862552194,27.16296913185454],[-102.08403945504017,27.16151419288808],[-102.09735243076787,27.24062649918906]]]}},{"type":"Feature","properties":{"cvegeo":"05015","cve_ent":"05","state_code":"COA","nom_mun":"Juárez"},"geometry":{"type":"Polygon","coordinates":[[[-100.42181934275273,27.392667621183584],[-100.42277026959042,27.392485753812778],[-100.42942675745427,27.40794448033136],[-100.49630861170535,27.449592108246126],[-100.52134968509793,27.483601306587005],[-100.57491856362131,27.491239736160892],[-100.5803071490349,27.5179742396695],[-100.72167827223859,27.48105516339571],[-100.77461319953684,27.454866261999523],[-100.84244598062561,27.467778845326812],[-100.87572841994488,27.441408076559817],[-100.86875495646845,27.485965582407495],[-100.92771242040543,27.473234866451016],[-101.05101593369295,27.58381022790158],[-101.03833690919038,27.647281940313167],[-100.95528929869852,27.693658119868914],[-100.90203739578772,27.67310710696774],[-100.90235437140028,27.757675434392922],[-101.01139398212241,27.833150393277762],[-100.98064734770367,27.859521162044757],[-101.004420518646,27.876252960158986],[-100.972405981777,27.934996120929597],[-100.9502176888975,27.926630221872482],[-100.75179095543221,27.850791528246027],[-100.65891710095086,27.821510881546125],[-100.29883280507775,27.7438535142116],[-100.28615378057518,27.730940930884316],[-100.35081680553832,27.684564751328573],[-100.41801563540196,27.393576958037617],[-100.42181934275273,27.392667621183584]]]}},{"type":"Feature","properties":{"cvegeo":"05014","cve_ent":"05","state_code":"COA","nom_mun":"Jiménez"},"geometry":{"type":"Polygon","coordinates":[[[-101.33946374112651,29.182970019406174],[-101.04816315317987,29.15496244430192],[-101.004420518646,29.16005473068451],[-101.004420518646,29.188789775271992],[-100.95180256696031,29.188607907901186],[-100.9448291034839,29.223890177837713],[-100.8487854928769,29.222798973612875],[-100.87953212729565,29.281542134383486],[-100.79489963874096,29.24371372125566],[-100.76542090677248,29.188062305788765],[-100.77651505321224,29.17278544664099],[-100.70963319896116,29.11913457225297],[-100.68427514995601,29.11113240793747],[-100.66462266197702,29.074758933776103],[-100.6478229545111,28.940722681491454],[-100.70107485742191,28.93817653830016],[-100.68712793046909,28.915261249578496],[-100.72453105275167,28.911260167420746],[-100.76573788238504,28.86542958997742],[-100.74703632124374,28.846151648671896],[-100.81803885845817,28.827055574737177],[-100.84846851726434,28.80213974493664],[-100.84181202940049,28.78267993626031],[-100.90235437140028,28.736121889333752],[-100.92771242040543,28.7293927966139],[-101.00854120160933,28.737758695671015],[-101.0586233483945,28.762492658100747],[-101.11662988549378,28.774495904573996],[-101.15815369073971,28.770494822416246],[-101.12296939774507,28.856518088807885],[-101.11346012936814,29.04947936923395],[-101.34770510705319,29.072394657955613],[-101.33946374112651,29.182970019406174]]]}},{"type":"Feature","properties":{"cvegeo":"05013","cve_ent":"05","state_code":"COA","nom_mun":"Hidalgo"},"geometry":{"type":"Polygon","coordinates":[[[-99.84333884982279,27.76986054823698],[-99.93272597256593,27.67438017856339],[-99.99929085120445,27.615091415680354],[-100.18852529190536,27.799141194936883],[-100.28615378057518,27.730940930884316],[-100.29883280507775,27.7438535142116],[-100.32228900040752,27.833150393277762],[-100.1847215845546,27.853337671437323],[-100.18598948700485,27.961730624438204],[-100.0877270471099,27.975916279361137],[-100.08011963240835,27.98901073005923],[-100.11466997417787,28.05757472885341],[-100.05602948585347,28.09049272296945],[-100.01672450989548,28.061939545752775],[-99.99041553405264,27.993557414329402],[-99.93367689940362,27.981917902597765],[-99.93906548481722,27.94972737796495],[-99.89373797222052,27.899350116251455],[-99.90134538692206,27.864431581056543],[-99.88169289894307,27.849700324021185],[-99.8778891915923,27.801323603386564],[-99.84333884982279,27.76986054823698]]]}},{"type":"Feature","properties":{"cvegeo":"05012","cve_ent":"05","state_code":"COA","nom_mun":"Guerrero"},"geometry":{"type":"Polygon","coordinates":[[[-100.29883280507775,27.7438535142116],[-100.65891710095086,27.821510881546125],[-100.60186149068927,27.978280555181627],[-100.57238275872079,28.00519692606104],[-100.54670773410308,27.998467833341188],[-100.53814939256384,28.028657816895123],[-100.59203524669978,28.066486230022946],[-100.54575680726539,28.119409634927738],[-100.63641183245879,28.134868361446323],[-100.66969427177804,28.226893251074586],[-100.6300723202075,28.231985537457177],[-100.59710685650082,28.33310379562578],[-100.50962158743305,28.374387688798937],[-100.45858851381018,28.45422746458314],[-100.49947836783099,28.474960344855123],[-100.47729007495148,28.484599315507886],[-100.48933514822893,28.52988429083879],[-100.40914031825015,28.556255059605782],[-100.38885387904604,28.515334901174242],[-100.33560197613522,28.500603644138888],[-100.36793348861679,28.479507029125294],[-100.33591895174779,28.43003910426583],[-100.34954890308805,28.40184966179077],[-100.28615378057518,28.31127971112896],[-100.29090841476365,28.2750881043384],[-100.2566750486067,28.23926023228945],[-100.21927192632411,28.230348731119914],[-100.21071358478487,28.19215658325048],[-100.09057982762297,28.14814467951522],[-100.05602948585347,28.09049272296945],[-100.11466997417787,28.05757472885341],[-100.08011963240835,27.98901073005923],[-100.0877270471099,27.975916279361137],[-100.18598948700485,27.961730624438204],[-100.1847215845546,27.853337671437323],[-100.32228900040752,27.833150393277762],[-100.29883280507775,27.7438535142116]]]}},{"type":"Feature","properties":{"cvegeo":"05011","cve_ent":"05","state_code":"COA","nom_mun":"General Cepeda"},"geometry":{"type":"Polygon","coordinates":[[[-101.61554949967007,25.197892190286566],[-101.5743426700367,25.23753927712246],[-101.625058768047,25.24772384988764],[-101.61871925579571,25.29628243789307],[-101.64566218286367,25.298282978971947],[-101.67355603676934,25.337384463695418],[-101.7192005249786,25.343204219561237],[-101.74392462275863,25.372666733631945],[-101.73378140315657,25.409222075164124],[-101.70905730537655,25.395218287611996],[-101.69574432964885,25.495609076297374],[-101.77245242788942,25.503793107983682],[-101.80256511108303,25.564900544574783],[-101.87325067268488,25.586179026959183],[-101.86659418482103,25.65892597528192],[-101.8472586724546,25.706029624320895],[-101.78418052555429,25.699118664230234],[-101.76135828144966,25.750768997539378],[-101.75596969603608,25.81405884258016],[-101.75343389113556,25.843157621909256],[-101.6836992563714,25.83024503858197],[-101.6231569143716,25.804601739298207],[-101.58480286525132,25.863526767439623],[-101.58670471892671,25.89899090474696],[-101.5556411088954,25.85734327683219],[-101.51887193783793,25.86952839067625],[-101.4782990594297,25.848977377775075],[-101.5787803286126,25.81060336253483],[-101.58924052382721,25.700937337938303],[-101.45484286409993,25.699664266342655],[-101.51063057191126,25.766227724057963],[-101.39366657087501,25.752042069135026],[-101.41553788814196,25.68311433559923],[-101.47195954717841,25.653651821528523],[-101.41141720517862,25.604002029298254],[-101.4034928148645,25.62891785909879],[-101.37052735115782,25.634010145481383],[-101.36260296084372,25.660926516360796],[-101.33122237519984,25.62891785909879],[-101.23486178898028,25.624553042199427],[-101.18382871535742,25.600910283994537],[-101.2453219841949,25.571084035182217],[-101.26814422829953,25.488698116206713],[-101.31632452140931,25.475421798137816],[-101.40190793680169,25.473057522317326],[-101.36608969258192,25.40885834042251],[-101.28874764311622,25.398673767657325],[-101.25102754522106,25.3821238369139],[-101.3147396433465,25.37357607048598],[-101.31252081405854,25.32756362567185],[-101.36830852186986,25.325381217222166],[-101.38542520494835,25.20007459873625],[-101.42251135161837,25.204075680894],[-101.43328852244557,25.176431840531357],[-101.61554949967007,25.197892190286566]]]}},{"type":"Feature","properties":{"cvegeo":"05010","cve_ent":"05","state_code":"COA","nom_mun":"Frontera"},"geometry":{"type":"Polygon","coordinates":[[[-101.34865603389088,27.06403328213561],[-101.43519037612094,26.950366175381333],[-101.45262403481199,26.897260903105735],[-101.52711330376461,26.843791896088522],[-101.58163310912568,26.806690952443926],[-101.65326959756521,26.85779568364065],[-101.65041681705215,26.892168616723144],[-101.66658257329293,26.950366175381333],[-101.71634774446552,26.995105548599817],[-101.6757748660573,27.004017049769352],[-101.66943535380601,26.982374832643337],[-101.63203223152341,26.972917729361384],[-101.55595808450796,26.976009474665098],[-101.52045681590076,27.015110959388572],[-101.45484286409993,27.04348226923444],[-101.41331905885401,27.100770491038595],[-101.34865603389088,27.06403328213561]]]}},{"type":"Feature","properties":{"cvegeo":"05009","cve_ent":"05","state_code":"COA","nom_mun":"Francisco I. Madero"},"geometry":{"type":"Polygon","coordinates":[[[-102.97125419460778,26.4234964021539],[-102.97791068247163,26.38548612165527],[-102.95286960907904,26.344747830594535],[-102.94906590172828,26.300917794230088],[-102.87996521818926,26.296007375218302],[-102.91166277944569,26.228898315390577],[-102.89422912075464,26.160879918708815],[-102.92402482833569,26.18306773794725],[-103.1560509767328,26.209438506714243],[-103.16270746459665,26.179248523160307],[-103.11769692761251,26.173610634665295],[-103.12213458618841,26.14160197740329],[-103.16556024510973,26.14742173326911],[-103.16524326949717,26.091770317802215],[-103.21342356260695,26.119414158164854],[-103.21659331873259,26.047212811954537],[-103.13703243997894,26.03157221806515],[-103.14495683029304,25.975738935227447],[-103.19282014779026,25.967918638282754],[-103.17665439154948,25.935546246279134],[-103.23529487987389,25.82751702801987],[-103.20454824545514,25.81751432262549],[-103.22071400169592,25.776230429452337],[-103.27301497776904,25.7114856454451],[-103.31010112443907,25.722033952951897],[-103.29615419748625,25.75640688603439],[-103.33926288079499,25.72548943299723],[-103.32278014894165,25.82515275219938],[-103.34687029549654,25.87698495287933],[-103.35067400284731,26.142329446886517],[-103.26128688010417,26.28454973085747],[-103.31675761230292,26.361843363450383],[-103.37413019817707,26.60227202765703],[-103.41597097903556,26.616821417321578],[-103.36588883225039,26.654104228336983],[-103.1649262938846,26.75394941490994],[-103.05049809774887,26.648102605100355],[-103.00073292657626,26.725032502951652],[-102.96776746286957,26.706482031129354],[-103.00802336566525,26.624459846895466],[-103.03940395130913,26.580629810531015],[-103.00612151198986,26.534071763604466],[-103.03877000008399,26.52279598661444],[-102.99978199973857,26.498243891555514],[-102.98868785329883,26.424951341120355],[-102.97125419460778,26.4234964021539]]]}},{"type":"Feature","properties":{"cvegeo":"05008","cve_ent":"05","state_code":"COA","nom_mun":"Escobedo"},"geometry":{"type":"Polygon","coordinates":[[[-101.47576325452918,27.213710128309646],[-101.44406569327275,27.315192121219866],[-101.47766510820458,27.316101458073902],[-101.45674471777532,27.387575334800992],[-101.497000620571,27.444499821863534],[-101.5103135962987,27.515973698590624],[-101.36482179013166,27.511427014320454],[-101.37021037554526,27.483601306587005],[-101.31283778967111,27.485601847665883],[-101.29191739924187,27.401760989723925],[-101.20284725211128,27.35993149443835],[-101.14737651991251,27.298642190476443],[-101.10870549517966,27.289366954565295],[-101.0595742752322,27.242627040267934],[-101.03928783602808,27.1911585743296],[-100.94958373767237,27.13859890416642],[-100.92485963989235,27.10731771638764],[-100.94261027419594,27.09640567413923],[-101.12613915387071,27.15023841589806],[-101.17685525188101,27.122048973423],[-101.18382871535742,27.15242082434774],[-101.21235652048821,27.17024382668681],[-101.20157934966102,27.210072780893512],[-101.23327691091745,27.209709046151897],[-101.26560842339902,27.24935613298779],[-101.32203008243548,27.279182381800112],[-101.37116130238294,27.21480133253449],[-101.42726598580684,27.18479321635136],[-101.47576325452918,27.213710128309646]]]}},{"type":"Feature","properties":{"cvegeo":"05007","cve_ent":"05","state_code":"COA","nom_mun":"Cuatro Ciénegas"},"geometry":{"type":"Polygon","coordinates":[[[-103.1649262938846,26.75394941490994],[-103.04479253672271,26.813056310422166],[-103.21342356260695,26.976373209406713],[-102.98741995084856,26.979646822081236],[-102.80008736382304,26.873072542788424],[-102.8083287297497,27.08094694762065],[-102.78138580268174,27.04821082087542],[-102.74366570478658,27.044755340830086],[-102.72813389977092,27.083493090811945],[-102.69516843606424,27.064397016877226],[-102.6403316550906,27.160059253921627],[-102.57249887400184,27.11331933962427],[-102.48596453177177,27.080583212879034],[-102.44285584846301,27.026932338491015],[-102.39182277484015,27.034570768064903],[-102.2891226763693,27.014747224646957],[-102.33286531090319,27.13150607670495],[-102.4117922384317,27.192431645925247],[-102.36583077460988,27.262086848944268],[-102.3043375057724,27.231714998019527],[-102.31701653027497,27.272817023821872],[-102.14458179703996,27.278818647058497],[-102.09735243076787,27.24062649918906],[-102.08403945504017,27.16151419288808],[-102.05582862552194,27.16296913185454],[-102.00321067383626,27.07676399809209],[-102.00004091771062,27.02093071525439],[-101.94266833183647,27.023840593187302],[-101.93823067326056,27.047847086133803],[-101.89195223382617,27.047301484021382],[-101.87420159952256,27.071307976967887],[-101.82665525763792,27.021112582625197],[-101.80541789159611,27.033843298581676],[-101.86691116043359,26.936907989941627],[-101.86342442869538,26.900352648409452],[-101.78671633045481,26.889622473531848],[-101.74963018378479,26.829788108536395],[-101.83806637969023,26.76904440668691],[-101.73378140315657,26.612274733051407],[-101.71729867130321,26.633371348065],[-101.68433320759652,26.6093648551185],[-101.65675632930343,26.558805726034194],[-101.5955800360785,26.52952507933429],[-101.48495554729355,26.420586524220994],[-101.561029694309,26.418222248400504],[-101.5049250108851,26.391124010150282],[-101.52933213305256,26.377302089968964],[-101.50524198649767,26.33874620735791],[-101.55849388940848,26.266544861147594],[-101.62664364610981,26.297098579443144],[-101.66024306104164,26.32328748083933],[-101.67957857340807,26.3969437660161],[-101.69352550036089,26.299280987892825],[-101.81017252578457,26.324742419805784],[-101.85328120909332,26.2905513540941],[-101.86912998972154,26.384576784801236],[-101.87705438003564,26.34693023904422],[-101.9388646244857,26.344020361111312],[-101.9486908684752,26.391669612262703],[-102.03554218631783,26.36475324138329],[-102.15060433367869,26.421859595816642],[-102.05392677184656,26.323469348210136],[-102.02222921059013,26.274547025463093],[-101.98197330779445,26.243447705055125],[-101.96263779542802,26.157788173405102],[-102.00606345434934,26.16106178607962],[-102.00669740557447,26.195434719162115],[-102.03173847896706,26.217986273142166],[-102.13855926040124,26.171973828328035],[-102.117638869972,26.091224715689794],[-102.26661740787723,26.051395761483093],[-102.28722082269391,26.133963547829403],[-102.39657740902862,26.107956513804023],[-102.3166995546624,26.251449869370624],[-102.34300853050524,26.31473971441141],[-102.34015574999216,26.2694547390805],[-102.37248726247373,26.27654756654197],[-102.50815282465128,26.2800030465873],[-102.50276423923768,26.319650133423192],[-102.33761994509165,26.600453353948964],[-102.38421536013861,26.586995168509254],[-102.50815282465128,26.497698289443093],[-102.62131311833674,26.491151064094048],[-102.67868570421089,26.525705864547348],[-102.7515900951007,26.631552674356932],[-102.80167224188585,26.64828447247116],[-102.9604770237806,26.52952507933429],[-102.97125419460778,26.4234964021539],[-102.98868785329883,26.424951341120355],[-102.99978199973857,26.498243891555514],[-103.03877000008399,26.52279598661444],[-103.00612151198986,26.534071763604466],[-103.03940395130913,26.580629810531015],[-103.00802336566525,26.624459846895466],[-102.96776746286957,26.706482031129354],[-103.00073292657626,26.725032502951652],[-103.05049809774887,26.648102605100355],[-103.1649262938846,26.75394941490994]]]}},{"type":"Feature","properties":{"cvegeo":"05006","cve_ent":"05","state_code":"COA","nom_mun":"Castaños"},"geometry":{"type":"Polygon","coordinates":[[[-101.52711330376461,26.843791896088522],[-101.4881253034192,26.817057392579915],[-101.4107832539535,26.83760840548109],[-101.36704061941961,26.81905793365879],[-101.25641613063466,26.84524683505498],[-101.20506608139922,26.807236554556347],[-101.19619076424743,26.747765924302506],[-101.11282617814301,26.697752397330625],[-101.01868442121139,26.59772534338686],[-100.99617915271932,26.59772534338686],[-100.98413407944187,26.545529407965297],[-101.20665095946205,26.369845527765882],[-101.10426783660377,26.261270707394196],[-101.07510608024785,26.198890199207447],[-101.12328637335763,26.185068279026126],[-101.1404030564361,26.217440671029745],[-101.18192686168203,26.241083429234635],[-101.22059788641488,26.281276118182948],[-101.31188686283342,26.31001116277043],[-101.3458032533778,26.299826590005246],[-101.37116130238294,26.27018220856373],[-101.45484286409993,26.26745419800163],[-101.50524198649767,26.33874620735791],[-101.52933213305256,26.377302089968964],[-101.5049250108851,26.391124010150282],[-101.561029694309,26.418222248400504],[-101.48495554729355,26.420586524220994],[-101.5955800360785,26.52952507933429],[-101.65675632930343,26.558805726034194],[-101.68433320759652,26.6093648551185],[-101.71729867130321,26.633371348065],[-101.73378140315657,26.612274733051407],[-101.83806637969023,26.76904440668691],[-101.74963018378479,26.829788108536395],[-101.65041681705215,26.892168616723144],[-101.65326959756521,26.85779568364065],[-101.58163310912568,26.806690952443926],[-101.52711330376461,26.843791896088522]]]}},{"type":"Feature","properties":{"cvegeo":"05005","cve_ent":"05","state_code":"COA","nom_mun":"Candela"},"geometry":{"type":"Polygon","coordinates":[[[-100.607884027328,26.71066498065791],[-100.61454051519185,26.685567283486566],[-100.69124861343242,26.61372967201786],[-100.69632022323346,26.623368642670627],[-100.75337583349503,26.735035208346027],[-100.98413407944187,26.545529407965297],[-100.99617915271932,26.59772534338686],[-101.01868442121139,26.59772534338686],[-101.11282617814301,26.697752397330625],[-101.00759027477164,26.79486957334148],[-100.96638344513828,26.789413552217276],[-100.9812812989288,26.80996456511845],[-100.93817261562005,26.83924521181835],[-100.91661827396567,26.88252964607038],[-100.98191525015393,26.967097973495562],[-101.03833690919038,26.983647904238985],[-101.06084217768245,27.023294991074877],[-100.94261027419594,27.09640567413923],[-100.92485963989235,27.10731771638764],[-100.89918461527463,27.021294449996006],[-100.8310348585733,27.073854120159183],[-100.79965427292943,27.04584654505493],[-100.74862119930657,27.081310682362265],[-100.72516500397681,27.077855202316933],[-100.69758812568371,27.10859078798329],[-100.65352851553726,27.075490926496443],[-100.54005124623923,27.047301484021382],[-100.54512285604025,26.97982868945204],[-100.54068519746436,26.880892839733118],[-100.55146236829154,26.858705020494682],[-100.53814939256384,26.808509626151995],[-100.59013339302439,26.759587303404953],[-100.607884027328,26.71066498065791]]]}},{"type":"Feature","properties":{"cvegeo":"05004","cve_ent":"05","state_code":"COA","nom_mun":"Arteaga"},"geometry":{"type":"Polygon","coordinates":[[[-100.60851797855312,25.513432078636445],[-100.5793562221972,25.494336004701726],[-100.58506178322337,25.470875113867642],[-100.53085895347486,25.463236684293754],[-100.52261758754818,25.434319772335467],[-100.45161505033377,25.41049514675977],[-100.46999963586251,25.337748198437033],[-100.41484587927631,25.32683615618862],[-100.32545875653317,25.34029434162833],[-100.25445621931875,25.306830745399868],[-100.24367904849156,25.269729801755272],[-100.26238060963286,25.253907340495076],[-100.22973212153873,25.21789760107532],[-100.26174665840773,25.206803691456102],[-100.32577573214573,25.222080550603877],[-100.33211524439702,25.18625267855493],[-100.44400763563223,25.22317175482872],[-100.59203524669978,25.254998544719918],[-100.7093162233486,25.23626620552681],[-100.80314100466764,25.16533793091214],[-100.80472588273045,25.153152817068083],[-100.89696578598668,25.177341177385394],[-100.91313154222746,25.23226512336906],[-100.88999232251027,25.24499583932554],[-100.88935837128514,25.28864400831918],[-100.95116861573518,25.315196644456982],[-100.91598432274054,25.322471339289258],[-100.87572841994488,25.309922490703585],[-100.86178149299204,25.332837779425248],[-100.89569788353643,25.34193114796559],[-100.91218061538977,25.372121131519528],[-100.844347834301,25.356116802888522],[-100.88587163954693,25.388852929633757],[-100.90679202997617,25.479786615037177],[-100.93563681071953,25.492517330993657],[-100.90964481048925,25.516887558681773],[-100.88587163954693,25.489243718319134],[-100.82279349264662,25.511613404928376],[-100.78443944352634,25.507612322770626],[-100.72516500397681,25.535801765245687],[-100.60851797855312,25.513432078636445]]]}},{"type":"Feature","properties":{"cvegeo":"05003","cve_ent":"05","state_code":"COA","nom_mun":"Allende"},"geometry":{"type":"Polygon","coordinates":[[[-101.03326529938936,28.200340614936785],[-101.03485017745217,28.244170651301236],[-101.00061681129523,28.268540878989352],[-100.92929729846824,28.342379031536932],[-100.80979749253149,28.380934914147986],[-100.73213846745323,28.373842086686516],[-100.81645398039534,28.34365210313258],[-100.89981856649976,28.267813409506125],[-100.85892871247896,28.243261314447203],[-100.87794724923282,28.190337909542407],[-101.03326529938936,28.200340614936785]]]}},{"type":"Feature","properties":{"cvegeo":"05002","cve_ent":"05","state_code":"COA","nom_mun":"Acuña"},"geometry":{"type":"Polygon","coordinates":[[[-100.87953212729565,29.281542134383486],[-100.8487854928769,29.222798973612875],[-100.9448291034839,29.223890177837713],[-100.95180256696031,29.188607907901186],[-101.004420518646,29.188789775271992],[-101.004420518646,29.16005473068451],[-101.04816315317987,29.15496244430192],[-101.33946374112651,29.182970019406174],[-101.33217330203753,29.277541052225736],[-101.46245027880148,29.23516595482774],[-101.51887193783793,29.37193021767449],[-101.83014198937613,29.270084490022654],[-101.88688062402514,29.161691537021774],[-101.91033681935491,29.131501553467835],[-101.99718813719754,28.984007115743484],[-102.13855926040124,29.00855921080241],[-102.40481877495529,29.06384689152769],[-102.46694599501791,28.970003328191357],[-102.64191653315342,29.110223071083436],[-102.75571077806403,29.168966231854046],[-102.87108990103745,29.240440108581137],[-102.90247048668132,29.253898294020843],[-102.87742941328874,29.354652817447835],[-102.83907536416845,29.358653899605585],[-102.82607936405331,29.40230206859923],[-102.83083399824177,29.444313431255612],[-102.80072131504816,29.48596105917038],[-102.8092796565874,29.52124332910691],[-102.74017897304837,29.59780949221659],[-102.73764316814786,29.641639528581038],[-102.69326658238884,29.67673993114676],[-102.6910477531009,29.722570508590085],[-102.622581020787,29.73602869402979],[-102.56362355685003,29.768037351291795],[-102.54840872744694,29.744576460457715],[-102.51576023935282,29.78458728203522],[-102.43429750692378,29.77694885246133],[-102.38706814065169,29.76203572805517],[-102.3905548723899,29.782768608327153],[-102.3398387743796,29.869701211572824],[-102.30116774964675,29.877703375888323],[-102.26344765175159,29.854242485054243],[-102.19910160240103,29.836601350085978],[-102.18737350473614,29.848968331300846],[-102.14394784581484,29.80350148859913],[-102.04853818643296,29.78567848626006],[-101.98133935656932,29.815504735072384],[-101.9566152587893,29.795499324283632],[-101.88339389228693,29.793316915833948],[-101.84884355051743,29.80659323390285],[-101.81144042823483,29.784223547293607],[-101.77372033033967,29.788952098934583],[-101.70905730537655,29.761671993313556],[-101.66151096349189,29.77131096396632],[-101.5743426700367,29.769310422887443],[-101.54613184051847,29.811867387656246],[-101.53979232826718,29.761308258571944],[-101.50207223037202,29.764036269134046],[-101.4595974982884,29.78967956841781],[-101.45135613236172,29.753306094256445],[-101.39873818067605,29.767673616550184],[-101.41617183936708,29.746213266794975],[-101.37401408289603,29.702201363059718],[-101.35658042420499,29.648186753930084],[-101.30332852129418,29.652733438200258],[-101.31252081405854,29.60981273868984],[-101.29698900904289,29.572166192932823],[-101.28018930157698,29.618724239859375],[-101.25292939889644,29.626362669433263],[-101.24310315490695,29.567619508662652],[-101.25578217940952,29.520879594365294],[-101.1831947641323,29.51706037957835],[-101.15213115410099,29.47795889485488],[-101.06211008013271,29.464318842044364],[-101.05703847033168,29.440676083839474],[-101.004420518646,29.365019257583825],[-100.95053466451006,29.34810559209879],[-100.8861886151595,29.307549168408862],[-100.87953212729565,29.281542134383486]]]}},{"type":"Feature","properties":{"cvegeo":"05001","cve_ent":"05","state_code":"COA","nom_mun":"Abasolo"},"geometry":{"type":"Polygon","coordinates":[[[-100.94261027419594,27.09640567413923],[-101.06084217768245,27.023294991074877],[-101.0763739826981,27.042391065009596],[-101.18002500800665,27.01165547934324],[-101.20570003262436,27.04057239130153],[-101.26338959411108,27.007836264556296],[-101.29793993588058,27.020566980512776],[-101.34865603389088,27.06403328213561],[-101.41331905885401,27.100770491038595],[-101.4374092054089,27.127868729288814],[-101.49763457179613,27.144782394773852],[-101.47576325452918,27.213710128309646],[-101.42726598580684,27.18479321635136],[-101.37116130238294,27.21480133253449],[-101.32203008243548,27.279182381800112],[-101.26560842339902,27.24935613298779],[-101.23327691091745,27.209709046151897],[-101.20157934966102,27.210072780893512],[-101.21235652048821,27.17024382668681],[-101.18382871535742,27.15242082434774],[-101.17685525188101,27.122048973423],[-101.12613915387071,27.15023841589806],[-100.94261027419594,27.09640567413923]]]}}]}