{"type":"FeatureCollection","features":[{"type":"Feature","properties":{"cvegeo":"06009","cve_ent":"06","state_code":"COL","nom_mun":"Tecomán"},"geometry":{"type":"MultiPolygon","coordinates":[[[[-114.72661176216923,18.360224650061582],[-114.68794073743638,18.362588925882072],[-114.69459722530023,18.3420379129809],[-114.75196981117438,18.332580809698943],[-114.75704142097541,18.357314772128674],[-114.72661176216923,18.360224650061582]]],[[[-110.98820138758529,18.85344895968975],[-110.9197346552714,18.791068451503],[-110.92227046017192,18.726141800124957],[-110.95111524091527,18.71268361468525],[-110.97266958256965,18.737781311856594],[-111.0192649976166,18.74905708884662],[-111.05064558326048,18.800707422155764],[-111.01863104639148,18.81598428130354],[-110.98820138758529,18.85344895968975]]],[[[-103.7846136164479,19.078055162636204],[-103.76876483581968,19.06787058987102],[-103.77034971388251,19.00003406056007],[-103.78397966522277,18.955840289454002],[-103.75133117712865,18.944928247205592],[-103.77637225052123,18.917648141584564],[-103.71107527433297,18.900916343470335],[-103.69427556686706,18.865270338792193],[-103.6245409321029,18.826168854068722],[-103.63817088344318,18.783248154558308],[-103.69871322544296,18.755604314195665],[-103.73801820140095,18.68394857009777],[-103.83501273884563,18.77142677545586],[-103.94753908130598,18.842173182699725],[-103.97131225224831,18.86436100193816],[-103.95324464233214,18.881456534794005],[-103.94595420324316,18.95711336104965],[-103.92313195913853,18.964751790623538],[-103.91457361759929,19.059686558184712],[-103.89618903207055,19.097696838683344],[-103.88446093440567,19.121339596888234],[-103.84832571457333,19.107699544077718],[-103.85720103172514,19.045682770632585],[-103.78366268961021,19.05914095607229],[-103.7846136164479,19.078055162636204]]]]}},{"type":"Feature","properties":{"cvegeo":"06007","cve_ent":"06","state_code":"COL","nom_mun":"Manzanillo"},"geometry":{"type":"MultiPolygon","coordinates":[[[[-104.22330786423696,19.301570161357816],[-104.12282659505406,19.257921992364174],[-104.06862376530556,19.245918745890922],[-104.1038080583002,19.215183160224566],[-104.04865430171401,19.16535150062349],[-104.06101635060402,19.15152958044217],[-104.068306789693,19.101697920841094],[-104.04199781385016,19.081328775310727],[-104.02329625270886,19.038589943171118],[-104.03026971618527,19.012401041774933],[-104.06672191163017,19.00912742910041],[-104.10285713146251,18.984393466670678],[-104.11997381454098,18.944200777722365],[-104.2220399617867,18.986212140378747],[-104.33551723108474,19.0222218797985],[-104.30508757227857,19.057140414993416],[-104.30952523085446,19.083874918502023],[-104.35295088977578,19.113701167314346],[-104.3865503047076,19.1178841168429],[-104.3954256218594,19.090240276480262],[-104.41634601228866,19.106244605111264],[-104.44202103690637,19.086239194322513],[-104.48956737879101,19.124613209562757],[-104.69021294154425,19.176445410242707],[-104.6756320633663,19.185356911412242],[-104.59004864797392,19.150074641475715],[-104.60050884318854,19.178264083950776],[-104.57673567224622,19.18081022714207],[-104.55486435497927,19.236461642608965],[-104.52316679372284,19.260286268184664],[-104.49051830562871,19.23264242782202],[-104.43948523200585,19.278109270523736],[-104.40018025604788,19.289021312772146],[-104.40144815849813,19.26683349353371],[-104.34375859701142,19.289566914884567],[-104.31491381626806,19.279382342119384],[-104.24803196201698,19.312118468864615],[-104.22330786423696,19.301570161357816]]]]}},{"type":"Feature","properties":{"cvegeo":"06001","cve_ent":"06","state_code":"COL","nom_mun":"Armería"},"geometry":{"type":"Polygon","coordinates":[[[-103.89618903207055,19.097696838683344],[-103.91457361759929,19.059686558184712],[-103.92313195913853,18.964751790623538],[-103.94595420324316,18.95711336104965],[-103.95324464233214,18.881456534794005],[-103.97131225224831,18.86436100193816],[-104.11997381454098,18.944200777722365],[-104.10285713146251,18.984393466670678],[-104.06672191163017,19.00912742910041],[-104.03026971618527,19.012401041774933],[-104.02329625270886,19.038589943171118],[-104.04199781385016,19.081328775310727],[-104.068306789693,19.101697920841094],[-104.06101635060402,19.15152958044217],[-104.03692620404912,19.151893315183784],[-103.96085205703368,19.117338514730484],[-103.89618903207055,19.097696838683344]]]}},{"type":"Feature","properties":{"cvegeo":"06004","cve_ent":"06","state_code":"COL","nom_mun":"Coquimatlán"},"geometry":{"type":"Polygon","coordinates":[[[-104.02963576496015,19.292113058075863],[-103.9570483496829,19.2904762517386],[-103.89650600768312,19.25464837968965],[-103.84103527548436,19.250829164902708],[-103.80236425075151,19.26446921771322],[-103.77193459194532,19.237552846833808],[-103.78334571399765,19.1762635428719],[-103.82582044608127,19.136070853923588],[-103.7846136164479,19.078055162636204],[-103.78366268961021,19.05914095607229],[-103.85720103172514,19.045682770632585],[-103.84832571457333,19.107699544077718],[-103.88446093440567,19.121339596888234],[-103.89618903207055,19.097696838683344],[-103.96085205703368,19.117338514730484],[-104.03692620404912,19.151893315183784],[-104.06101635060402,19.15152958044217],[-104.04865430171401,19.16535150062349],[-104.1038080583002,19.215183160224566],[-104.06862376530556,19.245918745890922],[-104.04897127732657,19.248464889082218],[-104.0629182042794,19.30193389609943],[-104.02963576496015,19.292113058075863]]]}},{"type":"Feature","properties":{"cvegeo":"06010","cve_ent":"06","state_code":"COL","nom_mun":"Villa de Álvarez"},"geometry":{"type":"Polygon","coordinates":[[[-103.67367215205039,19.431423464113905],[-103.64799712743267,19.428149851439382],[-103.65528756652165,19.386502223524616],[-103.68001166430167,19.37759072235508],[-103.67906073746397,19.32557665430432],[-103.72375429883554,19.258467594476596],[-103.77193459194532,19.237552846833808],[-103.80236425075151,19.26446921771322],[-103.84103527548436,19.250829164902708],[-103.89650600768312,19.25464837968965],[-103.9570483496829,19.2904762517386],[-104.02963576496015,19.292113058075863],[-104.0264660088345,19.31411900994349],[-103.98177244746293,19.363223200061338],[-103.89904181258363,19.34285405453097],[-103.8540312755995,19.35103808621728],[-103.79760961656304,19.291567455963442],[-103.748161421003,19.2904762517386],[-103.74499166487736,19.319393163696887],[-103.7028339084063,19.34467272823904],[-103.68318142042732,19.389230234086718],[-103.69776229860527,19.397232398402217],[-103.67367215205039,19.431423464113905]]]}},{"type":"Feature","properties":{"cvegeo":"06003","cve_ent":"06","state_code":"COL","nom_mun":"Comala"},"geometry":{"type":"Polygon","coordinates":[[[-103.61820141985162,19.512354444122952],[-103.61281283443803,19.488893553288868],[-103.66891751786191,19.461977182409456],[-103.67367215205039,19.431423464113905],[-103.69776229860527,19.397232398402217],[-103.68318142042732,19.389230234086718],[-103.7028339084063,19.34467272823904],[-103.74499166487736,19.319393163696887],[-103.748161421003,19.2904762517386],[-103.79760961656304,19.291567455963442],[-103.8540312755995,19.35103808621728],[-103.89904181258363,19.34285405453097],[-103.88224210511773,19.35740344419552],[-103.88541186124337,19.42251196294437],[-103.89967576380876,19.434515209417622],[-103.88921556859414,19.46343212137591],[-103.85466522682462,19.430877862001484],[-103.83469576323307,19.43978936317102],[-103.82138278750537,19.410872451212732],[-103.716146884134,19.456339293914443],[-103.6904718595163,19.492530900705006],[-103.61820141985162,19.512354444122952]]]}},{"type":"Feature","properties":{"cvegeo":"06008","cve_ent":"06","state_code":"COL","nom_mun":"Minatitlán"},"geometry":{"type":"Polygon","coordinates":[[[-103.89967576380876,19.434515209417622],[-103.88541186124337,19.42251196294437],[-103.88224210511773,19.35740344419552],[-103.89904181258363,19.34285405453097],[-103.98177244746293,19.363223200061338],[-104.0264660088345,19.31411900994349],[-104.02963576496015,19.292113058075863],[-104.0629182042794,19.30193389609943],[-104.04897127732657,19.248464889082218],[-104.06862376530556,19.245918745890922],[-104.12282659505406,19.257921992364174],[-104.22330786423696,19.301570161357816],[-104.12282659505406,19.32048436792173],[-104.13328679026868,19.353584229408575],[-104.0904950825725,19.39304944887366],[-104.07115957020608,19.43524267890085],[-104.0870083508343,19.441789904249895],[-104.07211049704377,19.482164460569017],[-104.07147654581864,19.48361939953547],[-104.06196727744171,19.497623187087598],[-103.96497273999702,19.454156885464762],[-103.89967576380876,19.434515209417622]]]}},{"type":"Feature","properties":{"cvegeo":"06002","cve_ent":"06","state_code":"COL","nom_mun":"Colima"},"geometry":{"type":"Polygon","coordinates":[[[-103.51455039454308,19.21718370130344],[-103.49775068707717,19.177354747096743],[-103.52374268730745,19.113883034685152],[-103.52279176046976,19.065870048792146],[-103.48887536992537,19.027314166181093],[-103.48887536992537,18.964751790623538],[-103.55892698030209,18.90582676248212],[-103.57255693164235,18.872181298882854],[-103.58143224879416,18.876000513669798],[-103.59094151717109,18.90346248666163],[-103.58555293175749,18.977118771838406],[-103.61186190760033,19.028405370405935],[-103.64704620059497,19.02185814505689],[-103.64546132253216,19.056231078139383],[-103.71836571342196,19.088421602772193],[-103.72533917689837,19.064596977196498],[-103.76876483581968,19.06787058987102],[-103.7846136164479,19.078055162636204],[-103.82582044608127,19.136070853923588],[-103.78334571399765,19.1762635428719],[-103.77193459194532,19.237552846833808],[-103.72375429883554,19.258467594476596],[-103.67906073746397,19.32557665430432],[-103.66099312754781,19.318483826842854],[-103.68825303022834,19.26865216724178],[-103.66289498122319,19.269379636725006],[-103.67494005450064,19.234279234159285],[-103.65116688355832,19.232460560451216],[-103.64989898110805,19.194086545210972],[-103.57445878531774,19.229732549889114],[-103.51455039454308,19.21718370130344]]]}},{"type":"Feature","properties":{"cvegeo":"06006","cve_ent":"06","state_code":"COL","nom_mun":"Ixtlahuacán"},"geometry":{"type":"Polygon","coordinates":[[[-103.58143224879416,18.876000513669798],[-103.61978629791444,18.893096046525642],[-103.64070668834368,18.867089012500262],[-103.6245409321029,18.826168854068722],[-103.69427556686706,18.865270338792193],[-103.71107527433297,18.900916343470335],[-103.77637225052123,18.917648141584564],[-103.75133117712865,18.944928247205592],[-103.78397966522277,18.955840289454002],[-103.77034971388251,19.00003406056007],[-103.76876483581968,19.06787058987102],[-103.72533917689837,19.064596977196498],[-103.71836571342196,19.088421602772193],[-103.64546132253216,19.056231078139383],[-103.64704620059497,19.02185814505689],[-103.61186190760033,19.028405370405935],[-103.58555293175749,18.977118771838406],[-103.59094151717109,18.90346248666163],[-103.58143224879416,18.876000513669798]]]}},{"type":"Feature","properties":{"cvegeo":"06005","cve_ent":"06","state_code":"COL","nom_mun":"Cuauhtémoc"},"geometry":{"type":"Polygon","coordinates":[[[-103.48633956502485,19.33776176814838],[-103.50662600422896,19.29229492544667],[-103.50947878474204,19.241553928991557],[-103.51455039454308,19.21718370130344],[-103.57445878531774,19.229732549889114],[-103.64989898110805,19.194086545210972],[-103.65116688355832,19.232460560451216],[-103.67494005450064,19.234279234159285],[-103.66289498122319,19.269379636725006],[-103.68825303022834,19.26865216724178],[-103.66099312754781,19.318483826842854],[-103.67906073746397,19.32557665430432],[-103.68001166430167,19.37759072235508],[-103.65528756652165,19.386502223524616],[-103.64799712743267,19.428149851439382],[-103.67367215205039,19.431423464113905],[-103.66891751786191,19.461977182409456],[-103.61281283443803,19.488893553288868],[-103.61566561495111,19.47488976573674],[-103.56907019990415,19.406143899571752],[-103.53800658987284,19.388139029861875],[-103.5151843457682,19.351765555700506],[-103.48633956502485,19.33776176814838]]]}}]}