{"type":"FeatureCollection","features":[{"type":"Feature","properties":{"cvegeo":"10007","cve_ent":"10","state_code":"DUR","nom_mun":"Gómez Palacio"},"geometry":{"type":"Polygon","coordinates":[[[-103.34687029549654,25.87698495287933],[-103.32278014894165,25.82515275219938],[-103.33926288079499,25.72548943299723],[-103.35542863703577,25.69129836728554],[-103.383639466554,25.639829901347202],[-103.42484629618737,25.623643705345394],[-103.45464200376841,25.557989584484123],[-103.49331302850126,25.538347908436982],[-103.55607419978901,25.59963721239889],[-103.58745478543288,25.595817997611945],[-103.59379429768417,25.6371018907851],[-103.62961254190394,25.644194718246567],[-103.63817088344318,25.68093192714955],[-103.6904718595163,25.73458280153757],[-103.63817088344318,25.750223395426957],[-103.60457146851135,25.842612019796835],[-103.56970415112927,25.88789699512774],[-103.54339517528643,25.865709175889307],[-103.50567507739127,25.865891043260113],[-103.50757693106667,25.83260931440246],[-103.48253585767408,25.857525144202995],[-103.4378422963025,25.82915383435713],[-103.4441818085538,25.869710258047057],[-103.40202405208274,25.874984411800455],[-103.39188083248068,25.856615807348962],[-103.34687029549654,25.87698495287933]]]}},{"type":"Feature","properties":{"cvegeo":"10034","cve_ent":"10","state_code":"DUR","nom_mun":"Tamazula"},"geometry":{"type":"Polygon","coordinates":[[[-106.6529259345427,25.55871705396735],[-106.64246573932807,25.511613404928376],[-106.69032905682529,25.444140610359035],[-106.67479725180964,25.39940123714055],[-106.74104515483559,25.386124919071655],[-106.78320291130665,25.409585809905735],[-106.86973725353671,25.33611139209977],[-106.90523852214392,25.319561461356347],[-106.90143481479315,25.291553886252093],[-106.95500369331653,25.282096782970136],[-106.94517744932703,25.257544687911214],[-106.89034066835339,25.22480856116598],[-106.84311130208131,25.18261533113879],[-106.86022798515978,25.141513305336446],[-106.8893897415157,25.133693008391752],[-106.86561657057338,25.093136584701824],[-106.75435813056329,25.13478421261659],[-106.71093247164197,25.110959587040895],[-106.68018583722323,25.09404592155586],[-106.68779325192477,25.064401540114343],[-106.65958242240654,25.065856479080797],[-106.66116730046937,25.02693686172813],[-106.68367256896144,25.012205604692777],[-106.66243520291962,24.960555271383633],[-106.61171910490933,24.95037069861845],[-106.57843666559008,24.895446752634783],[-106.56607461670006,24.857254604765345],[-106.52233198216618,24.838704132943047],[-106.48587978672128,24.791782351274883],[-106.51757734797772,24.7152161881652],[-106.41836398124508,24.782870850105347],[-106.37525529793633,24.74686111068559],[-106.37525529793633,24.747042978056395],[-106.37525529793633,24.74686111068559],[-106.37525529793633,24.747042978056395],[-106.3061546143973,24.74395123275268],[-106.287453053256,24.77286814471097],[-106.22057119900492,24.74467870223591],[-106.1505195886282,24.73358479261669],[-106.22722768686877,24.681206989824318],[-106.20186963786362,24.64265110721327],[-106.20060173541337,24.604277091973024],[-106.16858719854437,24.580998068509746],[-106.15242144230359,24.53644056266207],[-106.17397578395797,24.48860944413987],[-106.20630729643953,24.478061136633073],[-106.17143997905745,24.447325550966713],[-106.15242144230359,24.338750730595027],[-106.2687514921147,24.374760470014785],[-106.32802593166424,24.36112041720427],[-106.36321022465889,24.304014062770918],[-106.4697140304805,24.277825161374736],[-106.50838505521335,24.290919612072827],[-106.51726037236516,24.286918529915077],[-106.58604408029161,24.37894341954334],[-106.60157588530727,24.414589424221482],[-106.56924437282571,24.436959110830724],[-106.56670856792519,24.47460565658774],[-106.63010369043806,24.50643244647894],[-106.683989544574,24.598457336107202],[-106.70617783745351,24.665202661193316],[-106.86086193638491,24.81833498741268],[-106.8859030097775,24.826337151728183],[-106.93059657114907,24.820881130603976],[-106.94644535177729,24.858527676360993],[-106.92710983941086,24.8667117080473],[-107.01839881582939,24.93363890050422],[-107.068163987002,25.030392341773464],[-107.12997423145204,25.053125763124317],[-107.12521959726358,25.186434545925735],[-107.14867579259334,25.224626693795173],[-107.12109891430023,25.242449696134244],[-107.14835881698077,25.258999626877667],[-107.20826720775544,25.3315647078296],[-107.17149803669797,25.326290554076202],[-107.21016906143082,25.417042372108817],[-107.15564925606975,25.44668675355033],[-107.14804184136821,25.50506617957933],[-107.17815452456182,25.515250752344514],[-107.17023013424772,25.559626390821386],[-107.13155910951487,25.550351154910235],[-106.97338827884525,25.62964532858202],[-106.9943086692745,25.662199587956444],[-106.8992159855052,25.643830983504955],[-106.87385793650004,25.571629637294635],[-106.74484886218636,25.585087822734344],[-106.68208769089861,25.579086199497716],[-106.6529259345427,25.55871705396735]]]}},{"type":"Feature","properties":{"cvegeo":"10037","cve_ent":"10","state_code":"DUR","nom_mun":"Topia"},"geometry":{"type":"Polygon","coordinates":[[[-106.67479725180964,25.39940123714055],[-106.54990886045928,25.39667322657845],[-106.45671803036537,25.361209089271114],[-106.43674856677382,25.332474044683632],[-106.36701393200966,25.298464846342753],[-106.29315861428216,25.2997379179384],[-106.2830153946801,25.313559838119723],[-106.21391471114107,25.315742246569403],[-106.17207393028258,25.250269993078938],[-106.20282056470133,25.20225700718593],[-106.21359773552851,25.21917067267097],[-106.25765734567496,25.21917067267097],[-106.21962027216723,25.19098123019591],[-106.27255519946547,25.170248349923927],[-106.25797432128752,25.129691926234],[-106.27223822385291,25.10786784173718],[-106.33404846830297,25.18225159639718],[-106.35021422454375,25.146787459089843],[-106.4002963713289,25.12787325252593],[-106.4323109081979,25.14696932646065],[-106.40536798112994,25.165701665653756],[-106.45132944495177,25.183524667992828],[-106.47668749395692,25.17170328889038],[-106.58762895835444,25.16897527832828],[-106.62344720257421,25.144968785381774],[-106.6564126662809,25.15679016448422],[-106.71093247164197,25.110959587040895],[-106.75435813056329,25.13478421261659],[-106.86561657057338,25.093136584701824],[-106.8893897415157,25.133693008391752],[-106.86022798515978,25.141513305336446],[-106.84311130208131,25.18261533113879],[-106.89034066835339,25.22480856116598],[-106.94517744932703,25.257544687911214],[-106.95500369331653,25.282096782970136],[-106.90143481479315,25.291553886252093],[-106.90523852214392,25.319561461356347],[-106.86973725353671,25.33611139209977],[-106.78320291130665,25.409585809905735],[-106.74104515483559,25.386124919071655],[-106.67479725180964,25.39940123714055]]]}},{"type":"Feature","properties":{"cvegeo":"10038","cve_ent":"10","state_code":"DUR","nom_mun":"Vicente Guerrero"},"geometry":{"type":"Polygon","coordinates":[[[-103.84103527548436,23.701305595917034],[-104.00110795982935,23.664932121755662],[-103.99920610615396,23.611099379996837],[-104.04389966752554,23.648745925753854],[-104.07781605806993,23.607280165209893],[-104.13867537568228,23.60164227671488],[-104.12060776576611,23.620010881166372],[-104.05974844815375,23.684937532544417],[-104.02614903322194,23.703488004366715],[-104.04992220416426,23.747681775472778],[-104.01980952097065,23.743680693315028],[-104.01790766729526,23.77296134001493],[-103.94849000814366,23.825702877548913],[-103.84769176334821,23.860985147485444],[-103.81599420209177,23.80751614046823],[-103.86258961713874,23.752592194484563],[-103.84103527548436,23.701305595917034]]]}},{"type":"Feature","properties":{"cvegeo":"10039","cve_ent":"10","state_code":"DUR","nom_mun":"Nuevo Ideal"},"geometry":{"type":"Polygon","coordinates":[[[-104.72191050280068,24.84470575617967],[-104.80812786941819,24.836521724493366],[-104.92952952903033,24.793419157612142],[-104.93269928515598,24.760319296125296],[-104.95520455364804,24.754863275001092],[-104.9485480657842,24.699939329017425],[-104.92414094361673,24.67593283607092],[-104.90068474828698,24.68393500038642],[-105.00560367604578,24.585181018038305],[-105.0195506029986,24.61882648163757],[-105.03698426168964,24.60846004150158],[-105.0195506029986,24.571359097856984],[-105.0347654324017,24.557537177675663],[-105.11274143309252,24.6142797973674],[-105.16504240916564,24.672295488654783],[-105.25981811732238,24.622645696424513],[-105.245554214757,24.673386692879625],[-105.22019616575184,24.70175800272549],[-105.28073850775164,24.701212400613073],[-105.32004348370961,24.76686652147434],[-105.23762982444288,24.799966382961188],[-105.26488972712342,24.873440800767156],[-105.21100387298748,24.890718200993803],[-105.14095226261075,24.899265967421726],[-105.16155567742743,24.928728481492435],[-105.21290572666285,24.906904396995614],[-105.2081510924744,24.937458115291165],[-105.16060475058974,24.984379896959332],[-105.14792572608717,25.054398834719965],[-105.1121074818674,25.0685844896429],[-105.11432631115535,25.10241182061297],[-105.0800929449984,25.090226706768917],[-105.03761821291478,25.111687056524122],[-105.00655460288347,25.116779342906714],[-104.98341538316627,25.0818608077118],[-104.95235177313496,25.081497072970187],[-104.95964221222394,25.053853232607544],[-104.92921255341777,25.04785160937092],[-104.92857860219264,25.005476511972923],[-104.88134923592055,25.021117105862313],[-104.80812786941819,24.958190995563143],[-104.78910933266432,24.93127462468373],[-104.7421969420048,24.940367993224072],[-104.75329108844456,24.886717118836053],[-104.72191050280068,24.84470575617967]]]}},{"type":"Feature","properties":{"cvegeo":"10035","cve_ent":"10","state_code":"DUR","nom_mun":"Tepehuanes"},"geometry":{"type":"Polygon","coordinates":[[[-105.56348075415903,25.607821244085198],[-105.50927792441053,25.569992830957375],[-105.5175192903372,25.546168205381676],[-105.4766294363164,25.526162794592924],[-105.49057636326923,25.443595008246618],[-105.43827538719611,25.391035338083437],[-105.46109763130075,25.373212335744366],[-105.49057636326923,25.384124377992777],[-105.54287733934234,25.445413681954683],[-105.55714124190774,25.33374711627928],[-105.53843968076644,25.29100828413967],[-105.59866504715367,25.258454024765246],[-105.56031099803339,25.18898068911703],[-105.63004563279755,25.16897527832828],[-105.68266358448322,25.223353622199525],[-105.81072173195922,25.233720062335514],[-105.78377880489126,25.224444826424367],[-105.78980134152998,25.17188515626119],[-105.77839021947766,25.094591523668278],[-105.86460758609516,25.025663790132484],[-105.89250144000083,25.105867300658304],[-105.98220553835654,25.098592605826028],[-106.12325968594767,25.09841073845522],[-106.17429275957053,25.101138749017323],[-106.16827022293181,25.133511141020943],[-106.19869988173798,25.14169517270725],[-106.19869988173798,25.111323321782507],[-106.22564280880596,25.090772308881334],[-106.25797432128752,25.129691926234],[-106.27255519946547,25.170248349923927],[-106.21962027216723,25.19098123019591],[-106.25765734567496,25.21917067267097],[-106.21359773552851,25.21917067267097],[-106.20282056470133,25.20225700718593],[-106.17207393028258,25.250269993078938],[-106.21391471114107,25.315742246569403],[-106.2830153946801,25.313559838119723],[-106.29315861428216,25.2997379179384],[-106.36701393200966,25.298464846342753],[-106.43674856677382,25.332474044683632],[-106.45671803036537,25.361209089271114],[-106.54990886045928,25.39667322657845],[-106.67479725180964,25.39940123714055],[-106.69032905682529,25.444140610359035],[-106.64246573932807,25.511613404928376],[-106.6529259345427,25.55871705396735],[-106.60442866582035,25.634555747593804],[-106.53596193350646,25.676748977620992],[-106.46400846945434,25.741675628999037],[-106.34450866351759,25.79569023812867],[-106.24339344310955,25.74367617007791],[-106.20377149153902,25.822424741637278],[-106.1879227109108,25.7858694001051],[-106.14005939341358,25.75477007969713],[-106.11184856389535,25.754588212326322],[-106.09441490520432,25.722033952951897],[-105.97649997733038,25.741130026886616],[-105.93751197698496,25.7194878097606],[-105.90993509869186,25.72530756562642],[-105.8554152933308,25.70675709380412],[-105.79645782939383,25.67347536494647],[-105.77490348773945,25.69366264310603],[-105.74764358505891,25.667291874339035],[-105.74574173138353,25.6158234084007],[-105.70833860910093,25.573630178373513],[-105.63226446208549,25.560899462417034],[-105.56348075415903,25.607821244085198]]]}},{"type":"Feature","properties":{"cvegeo":"10033","cve_ent":"10","state_code":"DUR","nom_mun":"Súchil"},"geometry":{"type":"Polygon","coordinates":[[[-103.87938932460465,23.611644982109258],[-103.89048347104439,23.57981819221806],[-103.99635332564088,23.51470967346921],[-104.06513703356735,23.463423074901677],[-104.10983059493893,23.355030121900796],[-104.11426825351482,23.317201708772973],[-104.12916610730535,23.182256119634296],[-104.1722747906141,23.128423377875468],[-104.17544454673974,23.16352378044119],[-104.23059830332595,23.152975472934394],[-104.25722425478135,23.177527567993316],[-104.29494435267651,23.151702401338746],[-104.32695888954551,23.15479414664246],[-104.36626386550348,23.201715928310627],[-104.33805303598525,23.299196839063097],[-104.30635547472882,23.3071990033786],[-104.28385020623675,23.352302111338695],[-104.28511810868702,23.410499669996888],[-104.3180835723937,23.405771118355908],[-104.33995488966065,23.42868640707757],[-104.29684620635189,23.429777611302413],[-104.3126949869801,23.481064209869942],[-104.26990327928392,23.51289099976114],[-104.30857430401677,23.5410804422362],[-104.31491381626806,23.596731857703098],[-104.35390181661347,23.62092021802041],[-104.28480113307445,23.598004929298746],[-104.27941254766085,23.541989779090237],[-104.23820571802749,23.630377321302362],[-104.18558776634181,23.614191125300554],[-104.12060776576611,23.620010881166372],[-104.13867537568228,23.60164227671488],[-104.07781605806993,23.607280165209893],[-104.04389966752554,23.648745925753854],[-103.99920610615396,23.611099379996837],[-104.00110795982935,23.664932121755662],[-103.84103527548436,23.701305595917034],[-103.85117849508642,23.67966337879102],[-103.78524756767303,23.676389766116493],[-103.81155654351588,23.613645523188133],[-103.84927664141102,23.640016291955128],[-103.87938932460465,23.611644982109258]]]}},{"type":"Feature","properties":{"cvegeo":"10027","cve_ent":"10","state_code":"DUR","nom_mun":"San Juan de Guadalupe"},"geometry":{"type":"Polygon","coordinates":[[[-102.61180384995981,24.40040376929855],[-102.66251994797011,24.381489562734636],[-102.75190707071326,24.375851674239623],[-102.78899321738328,24.40604165779356],[-102.83210190069204,24.38476317540916],[-102.89137634024156,24.460601869035614],[-102.95413751152931,24.53644056266207],[-102.94811497489059,24.558992116642116],[-103.01880053649244,24.616825940558694],[-103.0565206343876,24.685026204611262],[-102.98456717033548,24.714306851311164],[-102.93036434058698,24.712670044973905],[-102.88376892554002,24.75104406021415],[-102.85619204724692,24.740859487448965],[-102.85302229112128,24.771776940486127],[-102.66981038705909,25.066402081193218],[-102.62892053303828,25.008386389905834],[-102.64318443560369,24.978378273722704],[-102.67298014318473,24.97856014109351],[-102.67298014318473,24.942732269044562],[-102.56647633736311,24.901993977983828],[-102.51227350761461,24.709578299670184],[-102.494522873311,24.61246112365933],[-102.48025897074561,24.490428117847937],[-102.48057594635817,24.427683874919573],[-102.53414482488155,24.40767846413082],[-102.60673224015878,24.410952076805344],[-102.61180384995981,24.40040376929855]]]}},{"type":"Feature","properties":{"cvegeo":"10031","cve_ent":"10","state_code":"DUR","nom_mun":"Santa Clara"},"geometry":{"type":"Polygon","coordinates":[[[-103.18774853798924,24.423319058020212],[-103.20264639177977,24.421136649570528],[-103.22324980659644,24.417135567412778],[-103.25399644101519,24.447325550966713],[-103.28284122175855,24.428775079144415],[-103.38649224706708,24.422955323278597],[-103.41945771077377,24.43023001811087],[-103.43340463772661,24.358392406642167],[-103.46256639408253,24.320382126143535],[-103.50662600422896,24.28800973413992],[-103.56875322429158,24.286372927802656],[-103.56304766326542,24.257092281102754],[-103.58840571227057,24.23835994190965],[-103.63753693221804,24.23545006397674],[-103.64387644446933,24.268004323351164],[-103.60108473677315,24.307651410187056],[-103.55861000468953,24.32529254515532],[-103.53198405323411,24.36221162142911],[-103.53008219955873,24.41313448525503],[-103.49806766268973,24.42622893595312],[-103.56146278520261,24.432230559189748],[-103.52722941904565,24.46132933851884],[-103.5250105897577,24.51043352863669],[-103.55512327295132,24.506614313849745],[-103.55036863876285,24.55881024927131],[-103.50092044320282,24.59118264127493],[-103.52786337027078,24.643742311438107],[-103.49267907727614,24.66083784429395],[-103.4289669791507,24.62355503327855],[-103.43625741823968,24.644287913550528],[-103.48475468696203,24.664657059080895],[-103.42833302792558,24.7444968348651],[-103.30978414882651,24.595911192915906],[-103.24417019702568,24.567903617811652],[-103.25177761172723,24.54153284904466],[-103.2200800504708,24.555172901855173],[-103.1880655136018,24.524437316188816],[-103.20771800158079,24.476606197666616],[-103.17570346471179,24.45005356152882],[-103.18774853798924,24.423319058020212]]]}},{"type":"Feature","properties":{"cvegeo":"10001","cve_ent":"10","state_code":"DUR","nom_mun":"Canatlán"},"geometry":{"type":"Polygon","coordinates":[[[-104.72191050280068,24.84470575617967],[-104.73554045414095,24.783416452217764],[-104.71176728319863,24.779051635318403],[-104.70637869778503,24.743587498011067],[-104.69877128308349,24.6966657163429],[-104.6363270874083,24.67356856025043],[-104.56690942825672,24.67120428442994],[-104.5830751844975,24.635376412380992],[-104.58402611133519,24.577724455835224],[-104.56786035509441,24.571177230486178],[-104.53806464751337,24.538077368999332],[-104.51777820830924,24.55480916711356],[-104.50700103748206,24.508432987557814],[-104.52316679372284,24.503522568546032],[-104.51841215953436,24.45041729627043],[-104.4461417198697,24.43768658031395],[-104.56469059896877,24.36621270358686],[-104.58434308694775,24.325110677784515],[-104.62364806290573,24.337113924257764],[-104.67341323407834,24.30274099117527],[-104.74283089322994,24.311470624974],[-104.81541830850716,24.261093363260503],[-104.809712747481,24.214717183704757],[-104.84933469905155,24.21453531633395],[-104.8639155772295,24.271459803396496],[-104.90385450441262,24.300012980613168],[-104.873741821219,24.331476035762755],[-104.93681996811931,24.341296873786323],[-105.00053206624474,24.32492881041371],[-105.09372289633866,24.418590506379232],[-105.14380504312383,24.42459212961586],[-105.12510348198253,24.389673594420945],[-105.16504240916564,24.397493891365638],[-105.19452114113413,24.357846804529746],[-105.15806894568922,24.34256994538197],[-105.12446953075741,24.300922317467204],[-105.14982757976256,24.302013521692047],[-105.16726123845359,24.33693205688696],[-105.2268526536157,24.328020555717423],[-105.23160728780415,24.29873990901752],[-105.34254875220168,24.340751271673902],[-105.35522777670425,24.332021637875172],[-105.39421577704967,24.376942878464465],[-105.46490133865152,24.376397276352044],[-105.42559636269354,24.409315270468085],[-105.41640406992917,24.45641891950706],[-105.44619977751022,24.4735144523629],[-105.45158836292381,24.503704435916838],[-105.48677265591846,24.52552852041366],[-105.38407255744761,24.531893878391898],[-105.40594387471455,24.574087108419086],[-105.38343860622248,24.57626951686877],[-105.33589226433783,24.649562067303926],[-105.32606602034834,24.614461664738208],[-105.25981811732238,24.622645696424513],[-105.16504240916564,24.672295488654783],[-105.11274143309252,24.6142797973674],[-105.0347654324017,24.557537177675663],[-105.0195506029986,24.571359097856984],[-105.03698426168964,24.60846004150158],[-105.0195506029986,24.61882648163757],[-105.00560367604578,24.585181018038305],[-104.90068474828698,24.68393500038642],[-104.92414094361673,24.67593283607092],[-104.9485480657842,24.699939329017425],[-104.95520455364804,24.754863275001092],[-104.93269928515598,24.760319296125296],[-104.92952952903033,24.793419157612142],[-104.80812786941819,24.836521724493366],[-104.72191050280068,24.84470575617967]]]}},{"type":"Feature","properties":{"cvegeo":"10002","cve_ent":"10","state_code":"DUR","nom_mun":"Canelas"},"geometry":{"type":"Polygon","coordinates":[[[-106.25797432128752,25.129691926234],[-106.22564280880596,25.090772308881334],[-106.19869988173798,25.111323321782507],[-106.19869988173798,25.14169517270725],[-106.16827022293181,25.133511141020943],[-106.17429275957053,25.101138749017323],[-106.12325968594767,25.09841073845522],[-106.12452758839792,25.067675152788865],[-106.1727078815077,25.06985756123855],[-106.17587763763335,24.992745796016443],[-106.2706533457901,24.99129085704999],[-106.33721822442861,25.032029148110723],[-106.31471295593654,25.054398834719965],[-106.32517315115116,25.080769603486956],[-106.35972349292068,25.047124139887693],[-106.38730037121377,25.04148625139268],[-106.37525529793633,25.100956881646518],[-106.4662272987423,24.96819370095752],[-106.49507207948565,24.98492549907175],[-106.5071171527631,24.95037069861845],[-106.55910115322365,24.95782726082153],[-106.58192339732828,24.99365513287048],[-106.6164737390978,24.974740926306566],[-106.61171910490933,24.95037069861845],[-106.66243520291962,24.960555271383633],[-106.68367256896144,25.012205604692777],[-106.66116730046937,25.02693686172813],[-106.65958242240654,25.065856479080797],[-106.68779325192477,25.064401540114343],[-106.68018583722323,25.09404592155586],[-106.71093247164197,25.110959587040895],[-106.6564126662809,25.15679016448422],[-106.62344720257421,25.144968785381774],[-106.58762895835444,25.16897527832828],[-106.47668749395692,25.17170328889038],[-106.45132944495177,25.183524667992828],[-106.40536798112994,25.165701665653756],[-106.4323109081979,25.14696932646065],[-106.4002963713289,25.12787325252593],[-106.35021422454375,25.146787459089843],[-106.33404846830297,25.18225159639718],[-106.27223822385291,25.10786784173718],[-106.25797432128752,25.129691926234]]]}},{"type":"Feature","properties":{"cvegeo":"10003","cve_ent":"10","state_code":"DUR","nom_mun":"Coneto de Comonfort"},"geometry":{"type":"Polygon","coordinates":[[[-104.59163352603673,24.95728165870911],[-104.56278874529337,24.933275165762605],[-104.61223694085342,24.906540662254002],[-104.64076474598421,24.85579966579889],[-104.63315733128266,24.792509820758106],[-104.66548884376422,24.7923279533873],[-104.67341323407834,24.748497917022853],[-104.70637869778503,24.743587498011067],[-104.71176728319863,24.779051635318403],[-104.73554045414095,24.783416452217764],[-104.72191050280068,24.84470575617967],[-104.75329108844456,24.886717118836053],[-104.7421969420048,24.940367993224072],[-104.78910933266432,24.93127462468373],[-104.80812786941819,24.958190995563143],[-104.88134923592055,25.021117105862313],[-104.92857860219264,25.005476511972923],[-104.92921255341777,25.04785160937092],[-104.95964221222394,25.053853232607544],[-104.95235177313496,25.081497072970187],[-104.98341538316627,25.0818608077118],[-105.00655460288347,25.116779342906714],[-105.03761821291478,25.111687056524122],[-105.02620709086246,25.134056743133364],[-105.07375343274711,25.140240233740798],[-105.09657567685174,25.172430758373608],[-105.06044045701941,25.18461587221767],[-105.04078796904042,25.16551979828295],[-104.99419255399346,25.188435087004613],[-104.99482650521858,25.218261335816933],[-104.96281196834958,25.220443744266618],[-104.94537830965855,25.18443400484686],[-104.90892611421364,25.18388840273444],[-104.87564367489439,25.161882450866813],[-104.8746927480567,25.20862236516417],[-104.80559206451767,25.267365525934782],[-104.82524455249666,25.216988264221285],[-104.77167567397329,25.180069187947495],[-104.77452845448636,25.127145783042703],[-104.74092903955454,25.148788000168718],[-104.68038669755475,25.113687597602997],[-104.65090796558627,25.128782589379966],[-104.62523294096856,25.09059044151053],[-104.62745177025651,24.995837541320164],[-104.59163352603673,24.95728165870911]]]}},{"type":"Feature","properties":{"cvegeo":"10004","cve_ent":"10","state_code":"DUR","nom_mun":"Cuencamé"},"geometry":{"type":"Polygon","coordinates":[[[-103.77795712858405,25.270093536496887],[-103.75386698202917,25.192254301791557],[-103.716146884134,25.174249432081677],[-103.61059400515008,25.19534604709527],[-103.5303991751713,25.22189868323307],[-103.54149332161104,25.192072434420748],[-103.49489790656409,25.173340095227644],[-103.58935663910826,25.06349220326031],[-103.53356893129694,25.033847821818792],[-103.45495897938098,25.110959587040895],[-103.44164600365328,25.083133879307447],[-103.38997897880529,25.076768521329207],[-103.43181975966378,25.03093794388588],[-103.29678814871137,25.016934156333754],[-103.28918073400983,24.952371239697325],[-103.36430395418758,24.9490976270228],[-103.35891536877398,24.902175845354634],[-103.40329195453299,24.78032470691405],[-103.42833302792558,24.7444968348651],[-103.48475468696203,24.664657059080895],[-103.43625741823968,24.644287913550528],[-103.4289669791507,24.62355503327855],[-103.49267907727614,24.66083784429395],[-103.52786337027078,24.643742311438107],[-103.50092044320282,24.59118264127493],[-103.55036863876285,24.55881024927131],[-103.55512327295132,24.506614313849745],[-103.5250105897577,24.51043352863669],[-103.52722941904565,24.46132933851884],[-103.56146278520261,24.432230559189748],[-103.49806766268973,24.42622893595312],[-103.53008219955873,24.41313448525503],[-103.53198405323411,24.36221162142911],[-103.55861000468953,24.32529254515532],[-103.60108473677315,24.307651410187056],[-103.64387644446933,24.268004323351164],[-103.63753693221804,24.23545006397674],[-103.58840571227057,24.23835994190965],[-103.56304766326542,24.257092281102754],[-103.55924395591465,24.198349120332143],[-103.63626902976779,24.11014344549082],[-103.66067615193525,24.149244930214294],[-103.74562561610249,24.08904683047723],[-103.81028864106561,24.039942640359378],[-103.81916395821742,24.086864422027546],[-103.88446093440567,24.127784580459085],[-103.90538132483492,24.103596220141775],[-103.86132171468847,24.08613695254432],[-103.86829517816489,24.038487701392924],[-103.91330571514902,24.047581069933265],[-103.91742639811237,24.025756985436445],[-103.95292766671957,24.05431016265312],[-103.96497273999702,24.092684177893364],[-103.9456372276306,24.117600007693902],[-103.92186405668826,24.133058734212483],[-103.92535078842647,24.164158054620454],[-103.95324464233214,24.196530446624074],[-103.89872483697107,24.25745601584437],[-103.91932825178775,24.304559664883342],[-103.89587205645799,24.30983381863674],[-103.90157761748415,24.348207833876984],[-103.94088259344213,24.349844640214243],[-104.02076044780834,24.411679546288575],[-103.90981898341082,24.381489562734636],[-103.91330571514902,24.465330420676594],[-103.94341839834264,24.509706059153462],[-103.97004434979804,24.49843028216344],[-103.94088259344213,24.515707682390087],[-103.95958415458342,24.55208115655146],[-103.83818249497128,24.649198332562314],[-103.85783498295027,24.681934459307545],[-103.84357108038488,24.717034861873266],[-103.79951147023843,24.733766659987495],[-103.79697566533791,24.768503327811604],[-103.83279390955768,24.770685736261285],[-103.85434825121206,24.841250276134343],[-103.90094366625902,24.801966924040066],[-103.94436932518033,24.810696557838792],[-103.99762122809115,24.918725776098057],[-103.99476844757807,24.962919547204123],[-103.9954023988032,24.98492549907175],[-103.94310142273008,24.988562846487888],[-103.9570483496829,25.056217508428034],[-103.89809088574594,25.09295471733102],[-103.91964522740031,25.134056743133364],[-103.86132171468847,25.197528455544955],[-103.83247693394512,25.252452401528622],[-103.80173029952638,25.27955063977884],[-103.77795712858405,25.270093536496887]]]}},{"type":"Feature","properties":{"cvegeo":"10005","cve_ent":"10","state_code":"DUR","nom_mun":"Durango"},"geometry":{"type":"Polygon","coordinates":[[[-104.56469059896877,24.36621270358686],[-104.49780874471769,24.34948090547263],[-104.43409664659225,24.381671430105442],[-104.38147869490658,24.358028671900552],[-104.36024132886476,24.36439402987879],[-104.30730640156652,24.286372927802656],[-104.29874806002728,24.308924481782704],[-104.26166191335724,24.298558041646714],[-104.24739801079185,24.320382126143535],[-104.16118064417435,24.314016768165295],[-104.15389020508537,24.21344411210911],[-104.13423771710637,24.188346414937765],[-104.15389020508537,24.16724979992417],[-104.10190620462481,24.120146150885198],[-104.19890074206951,24.07740731874559],[-104.24898288885467,24.03466848660598],[-104.29018971848804,24.06522220490153],[-104.29557830390164,24.009934524176252],[-104.33266445057166,24.009570789434637],[-104.32410610903243,23.961921538283242],[-104.36848269479144,23.950282026551605],[-104.39320679257145,23.959920997204367],[-104.40018025604788,23.910453072344907],[-104.39415771940915,23.82897649022344],[-104.41159137810018,23.76550477781185],[-104.48132601286434,23.74513563228148],[-104.53901557435105,23.76877839048637],[-104.54503811098978,23.738770274303242],[-104.5190461107595,23.726039558346763],[-104.54155137925157,23.706216014928817],[-104.50002757400564,23.706216014928817],[-104.46959791519946,23.68002711353263],[-104.43980220761841,23.6923940947475],[-104.4106404512625,23.664386519643244],[-104.45850376875971,23.653292610024025],[-104.48861645195332,23.658384896406616],[-104.49083528124127,23.61855594219992],[-104.46452630539844,23.604734022018597],[-104.52601957423592,23.606007093614245],[-104.52253284249771,23.635469607684954],[-104.57039615999493,23.5543567603051],[-104.59670513583777,23.573634701610626],[-104.669292551115,23.53235080843747],[-104.65027401436114,23.51470967346921],[-104.67341323407834,23.478518066678646],[-104.7279330394394,23.509981121828233],[-104.72920094188966,23.485974628881728],[-104.81256552799408,23.483246618319626],[-104.809712747481,23.3975870866696],[-104.83221801597308,23.40504364887268],[-104.82334269882128,23.479791138274294],[-104.86169674794156,23.496886671130138],[-104.84996865027668,23.547263932843634],[-104.9013186995121,23.53871616641571],[-105.00021509063218,23.50143335540031],[-105.14095226261075,23.56926988471126],[-105.16155567742743,23.532168941066665],[-105.19800787287234,23.554902362417522],[-105.20403040951106,23.57927259010564],[-105.27313109305008,23.558721577204466],[-105.2623539222229,23.604188419906176],[-105.27598387356316,23.68875674733136],[-105.23604494638006,23.758048215608767],[-105.25981811732238,23.80242385408564],[-105.24967489772033,23.826248479661338],[-105.29024777612857,23.87498893503757],[-105.38090280132197,23.85953020851899],[-105.43161889933226,23.90681572492877],[-105.5726730469234,23.96774129414906],[-105.5726730469234,24.028121261256935],[-105.51942114401258,24.071405695508965],[-105.49216124133206,24.0775891861164],[-105.4766294363164,24.13233126472926],[-105.42464543585585,24.15852016612544],[-105.43732446035843,24.17943491376823],[-105.37392933784555,24.217081459525247],[-105.3076814348196,24.21344411210911],[-105.24587119036956,24.230721512335762],[-105.23160728780415,24.29873990901752],[-105.2268526536157,24.328020555717423],[-105.16726123845359,24.33693205688696],[-105.14982757976256,24.302013521692047],[-105.12446953075741,24.300922317467204],[-105.15806894568922,24.34256994538197],[-105.19452114113413,24.357846804529746],[-105.16504240916564,24.397493891365638],[-105.12510348198253,24.389673594420945],[-105.14380504312383,24.42459212961586],[-105.09372289633866,24.418590506379232],[-105.00053206624474,24.32492881041371],[-104.93681996811931,24.341296873786323],[-104.873741821219,24.331476035762755],[-104.90385450441262,24.300012980613168],[-104.8639155772295,24.271459803396496],[-104.84933469905155,24.21453531633395],[-104.809712747481,24.214717183704757],[-104.81541830850716,24.261093363260503],[-104.74283089322994,24.311470624974],[-104.67341323407834,24.30274099117527],[-104.62364806290573,24.337113924257764],[-104.58434308694775,24.325110677784515],[-104.56469059896877,24.36621270358686]]]}},{"type":"Feature","properties":{"cvegeo":"10008","cve_ent":"10","state_code":"DUR","nom_mun":"Guadalupe Victoria"},"geometry":{"type":"Polygon","coordinates":[[[-103.97004434979804,24.49843028216344],[-103.94341839834264,24.509706059153462],[-103.91330571514902,24.465330420676594],[-103.90981898341082,24.381489562734636],[-104.02076044780834,24.411679546288575],[-103.94088259344213,24.349844640214243],[-103.90157761748415,24.348207833876984],[-103.89587205645799,24.30983381863674],[-103.91932825178775,24.304559664883342],[-103.89872483697107,24.25745601584437],[-103.95324464233214,24.196530446624074],[-103.92535078842647,24.164158054620454],[-103.92186405668826,24.133058734212483],[-103.9456372276306,24.117600007693902],[-104.01125117943141,24.157792696642215],[-104.02868483812246,24.154337216596886],[-104.05277498467734,24.199985926669406],[-104.11300035106457,24.249453851528866],[-104.12060776576611,24.223446817503486],[-104.15389020508537,24.21344411210911],[-104.16118064417435,24.314016768165295],[-104.24739801079185,24.320382126143535],[-104.26166191335724,24.298558041646714],[-104.2540544986557,24.34838970124779],[-104.16752015642564,24.369850051003],[-104.20745908360874,24.387854920712876],[-104.17037293693872,24.45278157209092],[-104.2185532300485,24.524437316188816],[-104.25437147426827,24.52370984670559],[-104.22584366913748,24.55771904504647],[-104.26705049877084,24.585544752779917],[-104.21570044953542,24.591364508645736],[-104.2638807426452,24.63155719759405],[-104.18210103460359,24.67993391822867],[-104.12853215608023,24.683571265644808],[-104.06513703356735,24.629011054402753],[-104.0477033748763,24.681206989824318],[-104.02614903322194,24.650471404157962],[-104.03660922843656,24.612279256288524],[-104.01061722820629,24.51279780445718],[-103.9954023988032,24.484426494611313],[-103.97004434979804,24.49843028216344]]]}},{"type":"Feature","properties":{"cvegeo":"10010","cve_ent":"10","state_code":"DUR","nom_mun":"Hidalgo"},"geometry":{"type":"Polygon","coordinates":[[[-104.85916094304105,26.504609249533754],[-104.809712747481,26.508428464320698],[-104.74790250303096,26.492424135689696],[-104.62016133116752,26.36875432354104],[-104.59385235532469,26.38021196790187],[-104.57451684295826,26.340383013695174],[-104.56183781845569,26.29564364047669],[-104.4914692324664,26.22580657008686],[-104.49749176910512,26.125233914030673],[-104.58244123327236,26.091224715689794],[-104.57007918438237,26.003928377702508],[-104.61191996524086,25.951550574910137],[-104.54186835486414,25.905538130096005],[-104.5146084521836,25.91444963126554],[-104.49020133001615,25.887533260386128],[-104.44392289058175,25.88971566883581],[-104.43980220761841,25.87280200335077],[-104.44297196374406,25.818969261591945],[-104.59480328216237,25.763135978754242],[-104.53045723281181,25.697845592634586],[-104.56817733070697,25.670929221755173],[-104.60558045298957,25.67747644710422],[-104.64742123384806,25.651105678337228],[-104.63886289230882,25.621279429524904],[-104.66517186815166,25.602728957702606],[-104.7146200637117,25.58017740372256],[-104.77579635693662,25.618369551591996],[-104.79164513756484,25.650741943595612],[-104.90543938247544,25.755679416551164],[-104.94696318772137,25.830426905952777],[-105.03064474943835,25.949186299089646],[-105.00940738339655,26.006292653522998],[-105.08421362796173,26.026116196940944],[-105.10101333542764,26.069036896451358],[-105.15458221395102,26.11504934126549],[-105.18564582398233,26.084313755599133],[-105.21924523891414,26.133236078346176],[-105.27693480040085,26.201254475027937],[-105.05663674966864,26.41203875779307],[-105.0569537252812,26.419313452625346],[-104.99767928573166,26.455505059415906],[-104.96661567570035,26.448048497212824],[-104.89878289461159,26.51006527065796],[-104.85916094304105,26.504609249533754]]]}},{"type":"Feature","properties":{"cvegeo":"10011","cve_ent":"10","state_code":"DUR","nom_mun":"Indé"},"geometry":{"type":"Polygon","coordinates":[[[-104.66517186815166,25.602728957702606],[-104.60716533105239,25.51597822182774],[-104.59575420900008,25.442503804021776],[-104.61255391646598,25.428136281728033],[-104.64425147772242,25.361027221900308],[-104.67436416091603,25.34029434162833],[-104.70986542952323,25.361754691383535],[-104.71525401493683,25.343204219561237],[-104.78879235705176,25.384851847476007],[-104.81161460115639,25.419042913187692],[-104.93079743148058,25.471602583350872],[-104.95774035854856,25.49469973944334],[-104.98912094419244,25.445959284067104],[-105.04427470077863,25.504884312208524],[-105.0426898227158,25.545258868527643],[-105.06868182294608,25.579268066868522],[-105.09277196950097,25.680022590295515],[-105.06741392049582,25.698391194747007],[-105.11147353064227,25.74367617007791],[-105.14982757976256,25.692025836768767],[-105.18976650694566,25.707302695916542],[-105.21290572666285,25.69366264310603],[-105.22558475116543,25.744767374302754],[-105.24618816598212,25.765500254574732],[-105.22970543412877,25.789688614892043],[-105.23699587321775,25.828790099615517],[-105.27313109305008,25.83479172285214],[-105.32257928861013,25.89262554676872],[-105.3076814348196,25.941184134774147],[-105.32289626422269,25.975920802598253],[-105.30292680063114,25.98410483428456],[-105.35522777670425,26.071037437530237],[-105.26488972712342,26.10922958539967],[-105.21924523891414,26.133236078346176],[-105.18564582398233,26.084313755599133],[-105.15458221395102,26.11504934126549],[-105.10101333542764,26.069036896451358],[-105.08421362796173,26.026116196940944],[-105.00940738339655,26.006292653522998],[-105.03064474943835,25.949186299089646],[-104.94696318772137,25.830426905952777],[-104.90543938247544,25.755679416551164],[-104.79164513756484,25.650741943595612],[-104.77579635693662,25.618369551591996],[-104.7146200637117,25.58017740372256],[-104.66517186815166,25.602728957702606]]]}},{"type":"Feature","properties":{"cvegeo":"10013","cve_ent":"10","state_code":"DUR","nom_mun":"Mapimí"},"geometry":{"type":"Polygon","coordinates":[[[-103.93295820312802,26.75394941490994],[-104.04389966752554,26.642828451346958],[-104.01537186239474,26.629915868019673],[-104.01632278923245,26.560078797629842],[-103.94753908130598,26.557714521809352],[-103.95641439845778,26.492424135689696],[-103.97543293521164,26.477329143912726],[-103.95451254478239,26.44022820026813],[-104.01061722820629,26.395125092308035],[-103.83818249497128,26.209984108826664],[-103.70029810350579,26.081767612407837],[-103.62771068822855,25.90117331319664],[-103.59316034645903,25.92536167351395],[-103.56970415112927,25.88789699512774],[-103.60457146851135,25.842612019796835],[-103.63817088344318,25.750223395426957],[-103.6904718595163,25.73458280153757],[-103.70568668891939,25.748040986977276],[-103.91235478831133,25.76640959142877],[-103.93961469099187,25.752587671247447],[-103.92661869087674,25.72821744355933],[-103.96624064244727,25.715122992861236],[-103.8984078613585,25.627644787503144],[-103.91425664198673,25.5627181361251],[-103.86575937326438,25.560899462417034],[-103.88699673930618,25.540530316886667],[-103.86354054397643,25.479786615037177],[-103.89365322717003,25.474330593912974],[-103.89872483697107,25.49815521948867],[-103.9367619104788,25.491426126768815],[-103.97796874011216,25.549623685427008],[-104.01632278923245,25.5441676643028],[-104.0175906916827,25.579268066868522],[-104.07084259459351,25.54998742016862],[-104.08193674103326,25.581814210059818],[-104.10602688758816,25.564354942462362],[-104.15040347334717,25.572175239407056],[-104.18495381511667,25.621825031637325],[-104.16815410765076,25.645467789842215],[-104.1545241563105,25.73221852571708],[-104.1589618148864,25.76168103978779],[-104.20302142503284,25.75367887547229],[-104.22172298617414,25.77077440832813],[-104.26071098651956,25.718214738164953],[-104.29526132828907,25.756225018663585],[-104.28923879165035,25.810967097276446],[-104.32157030413191,25.869892125417863],[-104.42680620750328,25.886623923532092],[-104.43980220761841,25.87280200335077],[-104.44392289058175,25.88971566883581],[-104.49020133001615,25.887533260386128],[-104.5146084521836,25.91444963126554],[-104.54186835486414,25.905538130096005],[-104.61191996524086,25.951550574910137],[-104.57007918438237,26.003928377702508],[-104.58244123327236,26.091224715689794],[-104.49749176910512,26.125233914030673],[-104.4914692324664,26.22580657008686],[-104.56183781845569,26.29564364047669],[-104.57451684295826,26.340383013695174],[-104.50097850084333,26.414584900984366],[-104.4959068910423,26.46678083640593],[-104.43473059781738,26.604454436106714],[-104.33076259689628,26.656468504157473],[-104.28638601113727,26.725396237693268],[-104.31744962116858,26.760496640258985],[-104.31523079188062,26.798688788128423],[-104.27307303540957,26.84215508975126],[-104.22806249842543,26.77704657100241],[-104.18400288827898,26.77359109095708],[-104.04580152120093,26.74303737266153],[-104.03312249669835,26.774318560440307],[-103.99508542319063,26.77759217311483],[-103.99413449635294,26.753585680168328],[-103.93295820312802,26.75394941490994]]]}},{"type":"Feature","properties":{"cvegeo":"10014","cve_ent":"10","state_code":"DUR","nom_mun":"Mezquital"},"geometry":{"type":"Polygon","coordinates":[[[-104.41159137810018,23.76550477781185],[-104.38908610960812,23.750773520776495],[-104.33107957250884,23.752046592372142],[-104.28289927939906,23.717128057177227],[-104.28289927939906,23.71694618980642],[-104.27117118173418,23.714400046615125],[-104.27972952327342,23.630559188673168],[-104.23820571802749,23.630377321302362],[-104.27941254766085,23.541989779090237],[-104.28480113307445,23.598004929298746],[-104.35390181661347,23.62092021802041],[-104.31491381626806,23.596731857703098],[-104.30857430401677,23.5410804422362],[-104.26990327928392,23.51289099976114],[-104.3126949869801,23.481064209869942],[-104.29684620635189,23.429777611302413],[-104.33995488966065,23.42868640707757],[-104.3180835723937,23.405771118355908],[-104.28511810868702,23.410499669996888],[-104.28385020623675,23.352302111338695],[-104.30635547472882,23.3071990033786],[-104.33805303598525,23.299196839063097],[-104.36626386550348,23.201715928310627],[-104.32695888954551,23.15479414664246],[-104.29494435267651,23.151702401338746],[-104.25722425478135,23.177527567993316],[-104.23059830332595,23.152975472934394],[-104.17544454673974,23.16352378044119],[-104.1722747906141,23.128423377875468],[-104.17385966867693,22.98238387911757],[-104.16308249784974,22.974745449543683],[-104.16752015642564,22.955649375608964],[-104.15167137579742,22.92236764675131],[-104.10729479003841,22.882174957803],[-104.11141547300174,22.810882948446714],[-104.08035186297045,22.769962790015175],[-104.18717264440463,22.760505686733218],[-104.22140601056158,22.77941989329713],[-104.26324679142007,22.717584987222804],[-104.28923879165035,22.64920285579943],[-104.26039401090699,22.595915716153023],[-104.32125332851935,22.535535749045152],[-104.29621225512676,22.47279150611679],[-104.34914718242501,22.409683528446813],[-104.37196942652965,22.421686774920065],[-104.49400503736692,22.376219932218355],[-104.50668406186949,22.345120611810383],[-104.55169459885363,22.388950648174834],[-104.59321840409956,22.411865936896497],[-104.60304464808905,22.460424524901924],[-104.65534562416217,22.462061331239184],[-104.656930502225,22.539354963832096],[-104.6702434779527,22.565180130486667],[-104.71525401493683,22.55590489457552],[-104.7618494299838,22.570090549498453],[-104.77928308867483,22.643019365191996],[-104.85884396742848,22.648111651574588],[-104.86264767477925,22.607009625772243],[-104.9609101146742,22.505345765491214],[-104.98785304174217,22.498798540142168],[-105.00750552972116,22.58573114338784],[-105.07280250590942,22.656477550631703],[-105.05758767650633,22.687940605781286],[-104.89276035797286,22.73740853064075],[-104.91589957769007,22.74832057288916],[-104.90607333370058,22.799970906198304],[-104.93269928515598,22.82725101181933],[-104.95900826099881,22.81361095900882],[-104.9875360661296,22.845074014158403],[-104.98912094419244,22.89072272423092],[-105.00972435900911,22.92127644252647],[-105.00338484675783,22.976927857993367],[-105.01194318829707,22.98711243075855],[-104.96788357815062,23.03257927346026],[-104.83063313791025,23.094232312163783],[-104.79418094246536,23.132788194774832],[-104.79164513756484,23.205353275726765],[-104.81668621095743,23.22335814543664],[-104.81446738166947,23.291194674747594],[-104.7998865034915,23.3497559681474],[-104.77452845448636,23.366124031520016],[-104.7643852348843,23.42232104909933],[-104.80781089380562,23.370670715790187],[-104.809712747481,23.3975870866696],[-104.81256552799408,23.483246618319626],[-104.72920094188966,23.485974628881728],[-104.7279330394394,23.509981121828233],[-104.67341323407834,23.478518066678646],[-104.65027401436114,23.51470967346921],[-104.669292551115,23.53235080843747],[-104.59670513583777,23.573634701610626],[-104.57039615999493,23.5543567603051],[-104.52253284249771,23.635469607684954],[-104.52601957423592,23.606007093614245],[-104.46452630539844,23.604734022018597],[-104.49083528124127,23.61855594219992],[-104.48861645195332,23.658384896406616],[-104.45850376875971,23.653292610024025],[-104.4106404512625,23.664386519643244],[-104.43980220761841,23.6923940947475],[-104.46959791519946,23.68002711353263],[-104.50002757400564,23.706216014928817],[-104.54155137925157,23.706216014928817],[-104.5190461107595,23.726039558346763],[-104.54503811098978,23.738770274303242],[-104.53901557435105,23.76877839048637],[-104.48132601286434,23.74513563228148],[-104.41159137810018,23.76550477781185]]]}},{"type":"Feature","properties":{"cvegeo":"10015","cve_ent":"10","state_code":"DUR","nom_mun":"Nazas"},"geometry":{"type":"Polygon","coordinates":[[[-103.97796874011216,25.549623685427008],[-103.94975791059393,25.458144397911163],[-103.90506434922236,25.47214818546329],[-103.90221156870928,25.452506509416153],[-103.84832571457333,25.46123614321488],[-103.79317195798714,25.3926721444207],[-103.82265068995562,25.350115179651898],[-103.77795712858405,25.270093536496887],[-103.80173029952638,25.27955063977884],[-103.83247693394512,25.252452401528622],[-103.86132171468847,25.197528455544955],[-103.91964522740031,25.134056743133364],[-103.89809088574594,25.09295471733102],[-103.9570483496829,25.056217508428034],[-103.94310142273008,24.988562846487888],[-103.9954023988032,24.98492549907175],[-103.99476844757807,24.962919547204123],[-104.05562776519042,24.95546298500104],[-104.09810249727404,25.053307630495127],[-104.10412503391277,25.012205604692777],[-104.12853215608023,24.992200193904026],[-104.1830519614413,24.99838368451146],[-104.17068991255128,25.048579078854146],[-104.21887020566106,25.05239829364109],[-104.21379859586003,25.021117105862313],[-104.28923879165035,24.99474633709532],[-104.2914576209383,25.019116564783438],[-104.35675459712655,25.02184457534554],[-104.37513918265529,25.071130632834198],[-104.36689781672861,25.12987379360481],[-104.3678487435663,25.256271616315566],[-104.37387128020502,25.265546852226713],[-104.35136601171295,25.279005037666423],[-104.30952523085446,25.269729801755272],[-104.20080259574489,25.309376888591164],[-104.11997381454098,25.32228947191845],[-104.13835840006972,25.364664569316446],[-104.12853215608023,25.398128165544904],[-104.1643504003,25.42431706694109],[-104.16688620520051,25.462872949552143],[-104.13677352200689,25.45941746950681],[-104.12948308291791,25.48542450353219],[-104.14184513180793,25.511249670186764],[-104.17385966867693,25.489789320431555],[-104.19256122981822,25.55289729810153],[-104.15040347334717,25.572175239407056],[-104.10602688758816,25.564354942462362],[-104.08193674103326,25.581814210059818],[-104.07084259459351,25.54998742016862],[-104.0175906916827,25.579268066868522],[-104.01632278923245,25.5441676643028],[-103.97796874011216,25.549623685427008]]]}},{"type":"Feature","properties":{"cvegeo":"10016","cve_ent":"10","state_code":"DUR","nom_mun":"Nombre de Dios"},"geometry":{"type":"Polygon","coordinates":[[[-104.24898288885467,24.03466848660598],[-104.21538347392286,23.997567542961384],[-104.24042454731544,23.97428851949811],[-104.23345108383901,23.938278780078353],[-104.1358225951692,23.96792316151987],[-104.1304340097556,23.948463352843536],[-104.19699888839412,23.910271204974098],[-104.12504542434202,23.905906388074733],[-104.04294874068785,23.882081762499038],[-104.0451675699758,23.83643305242652],[-103.94849000814366,23.825702877548913],[-104.01790766729526,23.77296134001493],[-104.01980952097065,23.743680693315028],[-104.04992220416426,23.747681775472778],[-104.02614903322194,23.703488004366715],[-104.05974844815375,23.684937532544417],[-104.12060776576611,23.620010881166372],[-104.18558776634181,23.614191125300554],[-104.23820571802749,23.630377321302362],[-104.27972952327342,23.630559188673168],[-104.27117118173418,23.714400046615125],[-104.28289927939906,23.71694618980642],[-104.28289927939906,23.717128057177227],[-104.33107957250884,23.752046592372142],[-104.38908610960812,23.750773520776495],[-104.41159137810018,23.76550477781185],[-104.39415771940915,23.82897649022344],[-104.40018025604788,23.910453072344907],[-104.39320679257145,23.959920997204367],[-104.36848269479144,23.950282026551605],[-104.32410610903243,23.961921538283242],[-104.33266445057166,24.009570789434637],[-104.29557830390164,24.009934524176252],[-104.29018971848804,24.06522220490153],[-104.24898288885467,24.03466848660598]]]}},{"type":"Feature","properties":{"cvegeo":"10018","cve_ent":"10","state_code":"DUR","nom_mun":"El Oro"},"geometry":{"type":"Polygon","coordinates":[[[-104.71525401493683,25.343204219561237],[-104.70352591727195,25.316651583423436],[-104.73997811271686,25.286825334611116],[-104.7475855274184,25.312286766524075],[-104.8106636743187,25.27791383344158],[-104.80559206451767,25.267365525934782],[-104.8746927480567,25.20862236516417],[-104.87564367489439,25.161882450866813],[-104.90892611421364,25.18388840273444],[-104.94537830965855,25.18443400484686],[-104.96281196834958,25.220443744266618],[-104.99482650521858,25.218261335816933],[-104.99419255399346,25.188435087004613],[-105.04078796904042,25.16551979828295],[-105.06044045701941,25.18461587221767],[-105.09657567685174,25.172430758373608],[-105.13271089668407,25.160973114012776],[-105.1476087504746,25.182433463767985],[-105.13397879913434,25.21316904943434],[-105.14507294557409,25.280641844003682],[-105.1948381167467,25.349023975427055],[-105.25791626364699,25.374667274710824],[-105.27693480040085,25.37757715264373],[-105.32955275208654,25.361027221900308],[-105.33335645943731,25.32519934985136],[-105.36695587436914,25.336838861582997],[-105.366321923144,25.367392579878548],[-105.40499294787685,25.413586892063485],[-105.43827538719611,25.391035338083437],[-105.49057636326923,25.443595008246618],[-105.4766294363164,25.526162794592924],[-105.5175192903372,25.546168205381676],[-105.50927792441053,25.569992830957375],[-105.56348075415903,25.607821244085198],[-105.57299002253596,25.66529133326016],[-105.54382826618004,25.667291874339035],[-105.558409144358,25.737310812099672],[-105.5051572414472,25.764772785091505],[-105.52037207085027,25.77150187781136],[-105.49596494868283,25.817878057367103],[-105.54921685159363,25.850614184112338],[-105.49406309500743,25.900445843713413],[-105.50357236338436,25.921178723985392],[-105.45127138731125,25.93754678735801],[-105.43764143597099,25.98483230376779],[-105.37868397203401,26.054305639416004],[-105.41672104554173,26.092497787285442],[-105.38407255744761,26.113048800186615],[-105.35522777670425,26.071037437530237],[-105.30292680063114,25.98410483428456],[-105.32289626422269,25.975920802598253],[-105.3076814348196,25.941184134774147],[-105.32257928861013,25.89262554676872],[-105.27313109305008,25.83479172285214],[-105.23699587321775,25.828790099615517],[-105.22970543412877,25.789688614892043],[-105.24618816598212,25.765500254574732],[-105.22558475116543,25.744767374302754],[-105.21290572666285,25.69366264310603],[-105.18976650694566,25.707302695916542],[-105.14982757976256,25.692025836768767],[-105.11147353064227,25.74367617007791],[-105.06741392049582,25.698391194747007],[-105.09277196950097,25.680022590295515],[-105.06868182294608,25.579268066868522],[-105.0426898227158,25.545258868527643],[-105.04427470077863,25.504884312208524],[-104.98912094419244,25.445959284067104],[-104.95774035854856,25.49469973944334],[-104.93079743148058,25.471602583350872],[-104.81161460115639,25.419042913187692],[-104.78879235705176,25.384851847476007],[-104.71525401493683,25.343204219561237]]]}},{"type":"Feature","properties":{"cvegeo":"10019","cve_ent":"10","state_code":"DUR","nom_mun":"Otáez"},"geometry":{"type":"Polygon","coordinates":[[[-105.68615031622143,24.599912275073656],[-105.70802163348837,24.59118264127493],[-105.70611977981298,24.553899830259525],[-105.7362324630066,24.555718503967594],[-105.73940221913224,24.589182100196055],[-105.84400417127848,24.5797249969141],[-105.85161158598002,24.559901453496153],[-105.89535422051391,24.543169655381924],[-105.98759412377012,24.561538259833412],[-105.9825225139691,24.520436234031067],[-106.00090709949784,24.49843028216344],[-106.03862719739298,24.538986705853365],[-106.06588710007352,24.526983459380112],[-106.15242144230359,24.53644056266207],[-106.16858719854437,24.580998068509746],[-106.20060173541337,24.604277091973024],[-106.20186963786362,24.64265110721327],[-106.22722768686877,24.681206989824318],[-106.1505195886282,24.73358479261669],[-106.22057119900492,24.74467870223591],[-106.20345451592645,24.80378559774813],[-106.13467080799998,24.792509820758106],[-106.09314700275405,24.81251523154686],[-106.05701178292172,24.804513067231362],[-106.05257412434582,24.823791008536887],[-106.0056617336863,24.826337151728183],[-106.00185802633553,24.827973958065442],[-105.98062066029371,24.842159612988375],[-105.9825225139691,24.892536874701875],[-105.91627461094315,24.922544990885],[-105.88679587897467,24.882170434565882],[-105.72925899953019,24.830156366515126],[-105.70897256032606,24.836339857122557],[-105.70833860910093,24.79305542287053],[-105.64843021832627,24.794510361836984],[-105.63416631576088,24.752862733922214],[-105.68329753570835,24.650653271528768],[-105.71721392625274,24.63901375979713],[-105.68615031622143,24.599912275073656]]]}},{"type":"Feature","properties":{"cvegeo":"10020","cve_ent":"10","state_code":"DUR","nom_mun":"Pánuco de Coronado"},"geometry":{"type":"Polygon","coordinates":[[[-104.26705049877084,24.585544752779917],[-104.22584366913748,24.55771904504647],[-104.25437147426827,24.52370984670559],[-104.2185532300485,24.524437316188816],[-104.17037293693872,24.45278157209092],[-104.20745908360874,24.387854920712876],[-104.16752015642564,24.369850051003],[-104.2540544986557,24.34838970124779],[-104.26166191335724,24.298558041646714],[-104.29874806002728,24.308924481782704],[-104.30730640156652,24.286372927802656],[-104.36024132886476,24.36439402987879],[-104.38147869490658,24.358028671900552],[-104.43409664659225,24.381671430105442],[-104.49780874471769,24.34948090547263],[-104.56469059896877,24.36621270358686],[-104.4461417198697,24.43768658031395],[-104.51841215953436,24.45041729627043],[-104.52316679372284,24.503522568546032],[-104.50700103748206,24.508432987557814],[-104.51777820830924,24.55480916711356],[-104.53806464751337,24.538077368999332],[-104.56786035509441,24.571177230486178],[-104.45565098824663,24.55935585138373],[-104.4594546955974,24.61355232788417],[-104.43441362220481,24.64938019993312],[-104.40208210972325,24.644469780921334],[-104.41824786596403,24.703940411175175],[-104.34280767017373,24.697575053196935],[-104.3225212309696,24.724491424076348],[-104.25088474253006,24.7152161881652],[-104.25342054743058,24.69084596047708],[-104.31618171871831,24.6966657163429],[-104.26705049877084,24.585544752779917]]]}},{"type":"Feature","properties":{"cvegeo":"10021","cve_ent":"10","state_code":"DUR","nom_mun":"Peñón Blanco"},"geometry":{"type":"Polygon","coordinates":[[[-103.99476844757807,24.962919547204123],[-103.99762122809115,24.918725776098057],[-103.94436932518033,24.810696557838792],[-103.90094366625902,24.801966924040066],[-103.85434825121206,24.841250276134343],[-103.83279390955768,24.770685736261285],[-103.79697566533791,24.768503327811604],[-103.79951147023843,24.733766659987495],[-103.84357108038488,24.717034861873266],[-103.85783498295027,24.681934459307545],[-103.83818249497128,24.649198332562314],[-103.95958415458342,24.55208115655146],[-103.94088259344213,24.515707682390087],[-103.97004434979804,24.49843028216344],[-103.9954023988032,24.484426494611313],[-104.01061722820629,24.51279780445718],[-104.03660922843656,24.612279256288524],[-104.02614903322194,24.650471404157962],[-104.0477033748763,24.681206989824318],[-104.06513703356735,24.629011054402753],[-104.12853215608023,24.683571265644808],[-104.18210103460359,24.67993391822867],[-104.2638807426452,24.63155719759405],[-104.21570044953542,24.591364508645736],[-104.26705049877084,24.585544752779917],[-104.31618171871831,24.6966657163429],[-104.25342054743058,24.69084596047708],[-104.25088474253006,24.7152161881652],[-104.3225212309696,24.724491424076348],[-104.31903449923139,24.75959182664207],[-104.25785820600647,24.775778022643877],[-104.27592581592265,24.864893034339232],[-104.25373752304314,24.902175845354634],[-104.27085420612161,24.910905479153364],[-104.31142708452985,24.88635338409444],[-104.30603849911626,24.97055797677801],[-104.31491381626806,24.991108989679184],[-104.2914576209383,25.019116564783438],[-104.28923879165035,24.99474633709532],[-104.21379859586003,25.021117105862313],[-104.21887020566106,25.05239829364109],[-104.17068991255128,25.048579078854146],[-104.1830519614413,24.99838368451146],[-104.12853215608023,24.992200193904026],[-104.10412503391277,25.012205604692777],[-104.09810249727404,25.053307630495127],[-104.05562776519042,24.95546298500104],[-103.99476844757807,24.962919547204123]]]}},{"type":"Feature","properties":{"cvegeo":"10022","cve_ent":"10","state_code":"DUR","nom_mun":"Poanas"},"geometry":{"type":"Polygon","coordinates":[[[-103.9456372276306,24.117600007693902],[-103.96497273999702,24.092684177893364],[-103.95292766671957,24.05431016265312],[-103.91742639811237,24.025756985436445],[-103.91330571514902,24.047581069933265],[-103.86829517816489,24.038487701392924],[-103.86132171468847,24.08613695254432],[-103.90538132483492,24.103596220141775],[-103.88446093440567,24.127784580459085],[-103.81916395821742,24.086864422027546],[-103.81028864106561,24.039942640359378],[-103.8727328367408,24.00702464624334],[-103.83786551935872,23.964103946732926],[-103.81853000699229,23.964649548845344],[-103.84769176334821,23.860985147485444],[-103.94849000814366,23.825702877548913],[-104.0451675699758,23.83643305242652],[-104.04294874068785,23.882081762499038],[-104.12504542434202,23.905906388074733],[-104.19699888839412,23.910271204974098],[-104.1304340097556,23.948463352843536],[-104.1358225951692,23.96792316151987],[-104.23345108383901,23.938278780078353],[-104.24042454731544,23.97428851949811],[-104.21538347392286,23.997567542961384],[-104.24898288885467,24.03466848660598],[-104.19890074206951,24.07740731874559],[-104.10190620462481,24.120146150885198],[-104.15389020508537,24.16724979992417],[-104.13423771710637,24.188346414937765],[-104.15389020508537,24.21344411210911],[-104.12060776576611,24.223446817503486],[-104.11300035106457,24.249453851528866],[-104.05277498467734,24.199985926669406],[-104.02868483812246,24.154337216596886],[-104.01125117943141,24.157792696642215],[-103.9456372276306,24.117600007693902]]]}},{"type":"Feature","properties":{"cvegeo":"10023","cve_ent":"10","state_code":"DUR","nom_mun":"Pueblo Nuevo"},"geometry":{"type":"Polygon","coordinates":[[[-104.809712747481,23.3975870866696],[-104.80781089380562,23.370670715790187],[-104.7643852348843,23.42232104909933],[-104.77452845448636,23.366124031520016],[-104.7998865034915,23.3497559681474],[-104.81446738166947,23.291194674747594],[-104.81668621095743,23.22335814543664],[-104.79164513756484,23.205353275726765],[-104.79418094246536,23.132788194774832],[-104.83063313791025,23.094232312163783],[-104.96788357815062,23.03257927346026],[-105.01194318829707,22.98711243075855],[-105.00338484675783,22.976927857993367],[-105.07628923764763,22.959468590395907],[-105.16345753110282,22.9538307019009],[-105.2978551908301,22.95419443664251],[-105.32353021544782,22.941281853315225],[-105.35427684986657,23.020212292245397],[-105.3583975328299,23.073863166633416],[-105.39231392337427,23.0840477393986],[-105.41608709431661,23.116965733514636],[-105.50230446093411,23.127877775763046],[-105.55492241261979,23.09896086380476],[-105.59708016909084,23.109145436569943],[-105.64494348658806,23.14279090016921],[-105.63004563279755,23.202261530423048],[-105.64304163291268,23.2753722134874],[-105.68519938938374,23.28573865362339],[-105.71816485309043,23.368488307340506],[-105.730843877593,23.374853665318746],[-105.7007311943994,23.420502375391262],[-105.73876826790712,23.444690735708573],[-105.72355343850403,23.475244454004123],[-105.76032260956148,23.502706426995957],[-105.76856397548816,23.555084229788328],[-105.794872951331,23.580000059588865],[-105.79709178061896,23.646199782562558],[-105.73781734106942,23.67839030719537],[-105.73020992636788,23.75386526608021],[-105.69153890163503,23.772779472644125],[-105.66998455998065,23.824066071211654],[-105.70199909684965,23.829158357594245],[-105.69375773092298,23.91190801131136],[-105.5726730469234,23.96774129414906],[-105.43161889933226,23.90681572492877],[-105.38090280132197,23.85953020851899],[-105.29024777612857,23.87498893503757],[-105.24967489772033,23.826248479661338],[-105.25981811732238,23.80242385408564],[-105.23604494638006,23.758048215608767],[-105.27598387356316,23.68875674733136],[-105.2623539222229,23.604188419906176],[-105.27313109305008,23.558721577204466],[-105.20403040951106,23.57927259010564],[-105.19800787287234,23.554902362417522],[-105.16155567742743,23.532168941066665],[-105.14095226261075,23.56926988471126],[-105.00021509063218,23.50143335540031],[-104.9013186995121,23.53871616641571],[-104.84996865027668,23.547263932843634],[-104.86169674794156,23.496886671130138],[-104.82334269882128,23.479791138274294],[-104.83221801597308,23.40504364887268],[-104.809712747481,23.3975870866696]]]}},{"type":"Feature","properties":{"cvegeo":"10024","cve_ent":"10","state_code":"DUR","nom_mun":"Rodeo"},"geometry":{"type":"Polygon","coordinates":[[[-104.37387128020502,25.265546852226713],[-104.3678487435663,25.256271616315566],[-104.36689781672861,25.12987379360481],[-104.37513918265529,25.071130632834198],[-104.35675459712655,25.02184457534554],[-104.44550776864457,25.020389636379086],[-104.49971059839308,24.983652427476102],[-104.59163352603673,24.95728165870911],[-104.62745177025651,24.995837541320164],[-104.62523294096856,25.09059044151053],[-104.65090796558627,25.128782589379966],[-104.68038669755475,25.113687597602997],[-104.74092903955454,25.148788000168718],[-104.77452845448636,25.127145783042703],[-104.77167567397329,25.180069187947495],[-104.82524455249666,25.216988264221285],[-104.80559206451767,25.267365525934782],[-104.8106636743187,25.27791383344158],[-104.7475855274184,25.312286766524075],[-104.73997811271686,25.286825334611116],[-104.70352591727195,25.316651583423436],[-104.71525401493683,25.343204219561237],[-104.70986542952323,25.361754691383535],[-104.67436416091603,25.34029434162833],[-104.64425147772242,25.361027221900308],[-104.61255391646598,25.428136281728033],[-104.5475739158903,25.395218287611996],[-104.41507810983839,25.309922490703585],[-104.40239908533582,25.314469174973755],[-104.37387128020502,25.265546852226713]]]}},{"type":"Feature","properties":{"cvegeo":"10025","cve_ent":"10","state_code":"DUR","nom_mun":"San Bernardo"},"geometry":{"type":"Polygon","coordinates":[[[-105.5618958760962,26.369663660395076],[-105.52956436361464,26.325288021918205],[-105.5086439731854,26.32146880713126],[-105.5254436806513,26.280912383441333],[-105.5165683634995,26.23853728604334],[-105.47758036315409,26.233444999660747],[-105.38407255744761,26.113048800186615],[-105.41672104554173,26.092497787285442],[-105.37868397203401,26.054305639416004],[-105.43764143597099,25.98483230376779],[-105.45127138731125,25.93754678735801],[-105.50357236338436,25.921178723985392],[-105.5219569489131,25.923542999805882],[-105.5317831929026,25.922269928210234],[-105.56443168099672,25.922088060839428],[-105.58503509581341,25.898081567892923],[-105.55175265649414,25.876621218137714],[-105.58915577877674,25.840429611347155],[-105.65318485251474,25.90062771108422],[-105.62814377912215,25.82515275219938],[-105.68615031622143,25.868619053822215],[-105.70136514562452,25.86316303269801],[-105.7229194872789,25.943366543223828],[-105.72165158482863,25.987924049071506],[-105.68107870642041,25.988651518554732],[-105.6687166575304,26.012658011501237],[-105.69122192602246,26.05466937415762],[-105.7273571458548,26.00720199037703],[-105.75271519485995,26.001200367140406],[-105.77426953651432,26.025388727457717],[-105.77395256090176,26.07412918283395],[-105.86746036660824,26.14960414171879],[-105.91690856216827,26.16015244922559],[-105.92229714758187,26.194161647566467],[-105.95399470883831,26.202891281365197],[-105.90264465960288,26.240355959751408],[-105.95653051373883,26.274365158092287],[-105.92895363544572,26.34292915688647],[-105.95177587955035,26.366753782462165],[-105.90803324501648,26.357478546551015],[-105.87982241549825,26.398580572353364],[-105.87696963498517,26.45168584462896],[-105.87982241549825,26.475692337575467],[-105.81135568318435,26.510429005399573],[-105.78663158540434,26.542983264774],[-105.7327457312684,26.50606418850021],[-105.68836914550938,26.460597345798497],[-105.66301109650423,26.351113188572775],[-105.62972865718498,26.37111859936153],[-105.60690641308034,26.349112647493904],[-105.5618958760962,26.369663660395076]]]}},{"type":"Feature","properties":{"cvegeo":"10026","cve_ent":"10","state_code":"DUR","nom_mun":"San Dimas"},"geometry":{"type":"Polygon","coordinates":[[[-105.23160728780415,24.29873990901752],[-105.24587119036956,24.230721512335762],[-105.3076814348196,24.21344411210911],[-105.37392933784555,24.217081459525247],[-105.43732446035843,24.17943491376823],[-105.42464543585585,24.15852016612544],[-105.4766294363164,24.13233126472926],[-105.49216124133206,24.0775891861164],[-105.51942114401258,24.071405695508965],[-105.5726730469234,24.028121261256935],[-105.5726730469234,23.96774129414906],[-105.69375773092298,23.91190801131136],[-105.70199909684965,23.829158357594245],[-105.66998455998065,23.824066071211654],[-105.69153890163503,23.772779472644125],[-105.73020992636788,23.75386526608021],[-105.73781734106942,23.67839030719537],[-105.79709178061896,23.646199782562558],[-105.794872951331,23.580000059588865],[-105.81167265879691,23.611099379996837],[-105.88426007407415,23.59036649972486],[-105.89281841561339,23.552538086597032],[-105.90930114746673,23.59018463235405],[-105.92705178177033,23.68402819569038],[-105.90613139134109,23.739315876415663],[-105.92705178177033,23.7615036956541],[-105.95177587955035,23.81970125431229],[-105.96128514792728,23.840797869325883],[-105.95399470883831,23.90845253126603],[-105.86746036660824,23.875170802408377],[-105.85795109823131,23.89990476483811],[-105.8997918790898,23.943916668573365],[-105.94543636729907,23.947917750731115],[-105.90866719624161,23.98338188803845],[-105.9150067084929,23.99956808404026],[-105.99995617266013,24.045944263596006],[-105.98981295305808,24.101959413804515],[-106.00312592878578,24.146880654393804],[-106.04401578280658,24.22090067431219],[-106.07000778303686,24.220173204828964],[-106.07476241722533,24.269277394946812],[-106.15242144230359,24.338750730595027],[-106.17143997905745,24.447325550966713],[-106.20630729643953,24.478061136633073],[-106.17397578395797,24.48860944413987],[-106.15242144230359,24.53644056266207],[-106.06588710007352,24.526983459380112],[-106.03862719739298,24.538986705853365],[-106.00090709949784,24.49843028216344],[-105.9825225139691,24.520436234031067],[-105.98759412377012,24.561538259833412],[-105.89535422051391,24.543169655381924],[-105.85161158598002,24.559901453496153],[-105.84400417127848,24.5797249969141],[-105.73940221913224,24.589182100196055],[-105.7362324630066,24.555718503967594],[-105.70611977981298,24.553899830259525],[-105.70802163348837,24.59118264127493],[-105.68615031622143,24.599912275073656],[-105.64304163291268,24.635376412380992],[-105.63511724259857,24.616098471075468],[-105.59454436419034,24.632830269189697],[-105.49374611939487,24.61937208374999],[-105.47377665580332,24.64810712833747],[-105.41006455767788,24.620099553233217],[-105.41323431380353,24.634648942897766],[-105.35079011812834,24.677387775037374],[-105.33589226433783,24.649562067303926],[-105.38343860622248,24.57626951686877],[-105.40594387471455,24.574087108419086],[-105.38407255744761,24.531893878391898],[-105.48677265591846,24.52552852041366],[-105.45158836292381,24.503704435916838],[-105.44619977751022,24.4735144523629],[-105.41640406992917,24.45641891950706],[-105.42559636269354,24.409315270468085],[-105.46490133865152,24.376397276352044],[-105.39421577704967,24.376942878464465],[-105.35522777670425,24.332021637875172],[-105.34254875220168,24.340751271673902],[-105.23160728780415,24.29873990901752]]]}},{"type":"Feature","properties":{"cvegeo":"10028","cve_ent":"10","state_code":"DUR","nom_mun":"San Juan del Río"},"geometry":{"type":"Polygon","coordinates":[[[-104.44550776864457,25.020389636379086],[-104.35675459712655,25.02184457534554],[-104.2914576209383,25.019116564783438],[-104.31491381626806,24.991108989679184],[-104.30603849911626,24.97055797677801],[-104.31142708452985,24.88635338409444],[-104.27085420612161,24.910905479153364],[-104.25373752304314,24.902175845354634],[-104.27592581592265,24.864893034339232],[-104.25785820600647,24.775778022643877],[-104.31903449923139,24.75959182664207],[-104.3225212309696,24.724491424076348],[-104.34280767017373,24.697575053196935],[-104.41824786596403,24.703940411175175],[-104.40208210972325,24.644469780921334],[-104.43441362220481,24.64938019993312],[-104.4594546955974,24.61355232788417],[-104.45565098824663,24.55935585138373],[-104.56786035509441,24.571177230486178],[-104.58402611133519,24.577724455835224],[-104.5830751844975,24.635376412380992],[-104.56690942825672,24.67120428442994],[-104.6363270874083,24.67356856025043],[-104.69877128308349,24.6966657163429],[-104.70637869778503,24.743587498011067],[-104.67341323407834,24.748497917022853],[-104.66548884376422,24.7923279533873],[-104.63315733128266,24.792509820758106],[-104.64076474598421,24.85579966579889],[-104.61223694085342,24.906540662254002],[-104.56278874529337,24.933275165762605],[-104.59163352603673,24.95728165870911],[-104.49971059839308,24.983652427476102],[-104.44550776864457,25.020389636379086]]]}},{"type":"Feature","properties":{"cvegeo":"10029","cve_ent":"10","state_code":"DUR","nom_mun":"San Luis del Cordero"},"geometry":{"type":"Polygon","coordinates":[[[-104.12948308291791,25.48542450353219],[-104.13677352200689,25.45941746950681],[-104.16688620520051,25.462872949552143],[-104.1643504003,25.42431706694109],[-104.12853215608023,25.398128165544904],[-104.13835840006972,25.364664569316446],[-104.11997381454098,25.32228947191845],[-104.20080259574489,25.309376888591164],[-104.30952523085446,25.269729801755272],[-104.35136601171295,25.279005037666423],[-104.37387128020502,25.265546852226713],[-104.40239908533582,25.314469174973755],[-104.41507810983839,25.309922490703585],[-104.5475739158903,25.395218287611996],[-104.49432201297948,25.412677555209452],[-104.44709264670739,25.39940123714055],[-104.4239534269902,25.441230732426128],[-104.44043615884354,25.461054275844074],[-104.37260337775477,25.487425044611065],[-104.36848269479144,25.44032139557209],[-104.29272552338855,25.446504886179525],[-104.27972952327342,25.422316525862215],[-104.2220399617867,25.461054275844074],[-104.20809303483388,25.441412599796934],[-104.17385966867693,25.489789320431555],[-104.14184513180793,25.511249670186764],[-104.12948308291791,25.48542450353219]]]}},{"type":"Feature","properties":{"cvegeo":"10030","cve_ent":"10","state_code":"DUR","nom_mun":"San Pedro del Gallo"},"geometry":{"type":"Polygon","coordinates":[[[-104.15040347334717,25.572175239407056],[-104.19256122981822,25.55289729810153],[-104.17385966867693,25.489789320431555],[-104.20809303483388,25.441412599796934],[-104.2220399617867,25.461054275844074],[-104.27972952327342,25.422316525862215],[-104.29272552338855,25.446504886179525],[-104.36848269479144,25.44032139557209],[-104.37260337775477,25.487425044611065],[-104.44043615884354,25.461054275844074],[-104.4239534269902,25.441230732426128],[-104.44709264670739,25.39940123714055],[-104.49432201297948,25.412677555209452],[-104.5475739158903,25.395218287611996],[-104.61255391646598,25.428136281728033],[-104.59575420900008,25.442503804021776],[-104.60716533105239,25.51597822182774],[-104.66517186815166,25.602728957702606],[-104.63886289230882,25.621279429524904],[-104.64742123384806,25.651105678337228],[-104.60558045298957,25.67747644710422],[-104.56817733070697,25.670929221755173],[-104.53045723281181,25.697845592634586],[-104.59480328216237,25.763135978754242],[-104.44297196374406,25.818969261591945],[-104.43980220761841,25.87280200335077],[-104.42680620750328,25.886623923532092],[-104.32157030413191,25.869892125417863],[-104.28923879165035,25.810967097276446],[-104.29526132828907,25.756225018663585],[-104.26071098651956,25.718214738164953],[-104.22172298617414,25.77077440832813],[-104.20302142503284,25.75367887547229],[-104.1589618148864,25.76168103978779],[-104.1545241563105,25.73221852571708],[-104.16815410765076,25.645467789842215],[-104.18495381511667,25.621825031637325],[-104.15040347334717,25.572175239407056]]]}},{"type":"Feature","properties":{"cvegeo":"10032","cve_ent":"10","state_code":"DUR","nom_mun":"Santiago Papasquiaro"},"geometry":{"type":"Polygon","coordinates":[[[-105.43827538719611,25.391035338083437],[-105.40499294787685,25.413586892063485],[-105.366321923144,25.367392579878548],[-105.36695587436914,25.336838861582997],[-105.33335645943731,25.32519934985136],[-105.32955275208654,25.361027221900308],[-105.27693480040085,25.37757715264373],[-105.25791626364699,25.374667274710824],[-105.1948381167467,25.349023975427055],[-105.14507294557409,25.280641844003682],[-105.13397879913434,25.21316904943434],[-105.1476087504746,25.182433463767985],[-105.13271089668407,25.160973114012776],[-105.09657567685174,25.172430758373608],[-105.07375343274711,25.140240233740798],[-105.02620709086246,25.134056743133364],[-105.03761821291478,25.111687056524122],[-105.0800929449984,25.090226706768917],[-105.11432631115535,25.10241182061297],[-105.1121074818674,25.0685844896429],[-105.14792572608717,25.054398834719965],[-105.16060475058974,24.984379896959332],[-105.2081510924744,24.937458115291165],[-105.21290572666285,24.906904396995614],[-105.16155567742743,24.928728481492435],[-105.14095226261075,24.899265967421726],[-105.21100387298748,24.890718200993803],[-105.26488972712342,24.873440800767156],[-105.23762982444288,24.799966382961188],[-105.32004348370961,24.76686652147434],[-105.28073850775164,24.701212400613073],[-105.22019616575184,24.70175800272549],[-105.245554214757,24.673386692879625],[-105.25981811732238,24.622645696424513],[-105.32606602034834,24.614461664738208],[-105.33589226433783,24.649562067303926],[-105.35079011812834,24.677387775037374],[-105.41323431380353,24.634648942897766],[-105.41006455767788,24.620099553233217],[-105.47377665580332,24.64810712833747],[-105.49374611939487,24.61937208374999],[-105.59454436419034,24.632830269189697],[-105.63511724259857,24.616098471075468],[-105.64304163291268,24.635376412380992],[-105.68615031622143,24.599912275073656],[-105.71721392625274,24.63901375979713],[-105.68329753570835,24.650653271528768],[-105.63416631576088,24.752862733922214],[-105.64843021832627,24.794510361836984],[-105.70833860910093,24.79305542287053],[-105.70897256032606,24.836339857122557],[-105.72925899953019,24.830156366515126],[-105.88679587897467,24.882170434565882],[-105.91627461094315,24.922544990885],[-105.9825225139691,24.892536874701875],[-105.98062066029371,24.842159612988375],[-106.00185802633553,24.827973958065442],[-106.0056617336863,24.826337151728183],[-106.05257412434582,24.823791008536887],[-106.05701178292172,24.804513067231362],[-106.09314700275405,24.81251523154686],[-106.13467080799998,24.792509820758106],[-106.20345451592645,24.80378559774813],[-106.22057119900492,24.74467870223591],[-106.287453053256,24.77286814471097],[-106.3061546143973,24.74395123275268],[-106.37525529793633,24.747042978056395],[-106.37525529793633,24.74686111068559],[-106.37525529793633,24.747042978056395],[-106.37525529793633,24.74686111068559],[-106.41836398124508,24.782870850105347],[-106.51757734797772,24.7152161881652],[-106.48587978672128,24.791782351274883],[-106.52233198216618,24.838704132943047],[-106.56607461670006,24.857254604765345],[-106.57843666559008,24.895446752634783],[-106.61171910490933,24.95037069861845],[-106.6164737390978,24.974740926306566],[-106.58192339732828,24.99365513287048],[-106.55910115322365,24.95782726082153],[-106.5071171527631,24.95037069861845],[-106.49507207948565,24.98492549907175],[-106.4662272987423,24.96819370095752],[-106.37525529793633,25.100956881646518],[-106.38730037121377,25.04148625139268],[-106.35972349292068,25.047124139887693],[-106.32517315115116,25.080769603486956],[-106.31471295593654,25.054398834719965],[-106.33721822442861,25.032029148110723],[-106.2706533457901,24.99129085704999],[-106.17587763763335,24.992745796016443],[-106.1727078815077,25.06985756123855],[-106.12452758839792,25.067675152788865],[-106.12325968594767,25.09841073845522],[-105.98220553835654,25.098592605826028],[-105.89250144000083,25.105867300658304],[-105.86460758609516,25.025663790132484],[-105.77839021947766,25.094591523668278],[-105.78980134152998,25.17188515626119],[-105.78377880489126,25.224444826424367],[-105.81072173195922,25.233720062335514],[-105.68266358448322,25.223353622199525],[-105.63004563279755,25.16897527832828],[-105.56031099803339,25.18898068911703],[-105.59866504715367,25.258454024765246],[-105.53843968076644,25.29100828413967],[-105.55714124190774,25.33374711627928],[-105.54287733934234,25.445413681954683],[-105.49057636326923,25.384124377992777],[-105.46109763130075,25.373212335744366],[-105.43827538719611,25.391035338083437]]]}},{"type":"Feature","properties":{"cvegeo":"10006","cve_ent":"10","state_code":"DUR","nom_mun":"General Simón Bolívar"},"geometry":{"type":"Polygon","coordinates":[[[-102.98900482891139,24.796147168174244],[-102.923073901498,24.78032470691405],[-102.88376892554002,24.75104406021415],[-102.93036434058698,24.712670044973905],[-102.98456717033548,24.714306851311164],[-103.0565206343876,24.685026204611262],[-103.01880053649244,24.616825940558694],[-102.94811497489059,24.558992116642116],[-102.95413751152931,24.53644056266207],[-102.89137634024156,24.460601869035614],[-102.90120258423106,24.42859321177361],[-102.96745048725701,24.457691991102706],[-102.98361624349779,24.43313989604378],[-103.04352463427246,24.466421624901432],[-103.09867839085865,24.401676840894197],[-103.1658772207223,24.435140437122655],[-103.18774853798924,24.423319058020212],[-103.17570346471179,24.45005356152882],[-103.20771800158079,24.476606197666616],[-103.1880655136018,24.524437316188816],[-103.2200800504708,24.555172901855173],[-103.25177761172723,24.54153284904466],[-103.24417019702568,24.567903617811652],[-103.30978414882651,24.595911192915906],[-103.42833302792558,24.7444968348651],[-103.40329195453299,24.78032470691405],[-103.35891536877398,24.902175845354634],[-103.36430395418758,24.9490976270228],[-103.28918073400983,24.952371239697325],[-103.29678814871137,25.016934156333754],[-103.43181975966378,25.03093794388588],[-103.38997897880529,25.076768521329207],[-103.44164600365328,25.083133879307447],[-103.45495897938098,25.110959587040895],[-103.53356893129694,25.033847821818792],[-103.58935663910826,25.06349220326031],[-103.49489790656409,25.173340095227644],[-103.54149332161104,25.192072434420748],[-103.5303991751713,25.22189868323307],[-103.50852785790435,25.24044915505537],[-103.50567507739127,25.276640761845933],[-103.43403858895174,25.199892731365445],[-103.3988542959571,25.17624997316055],[-103.35828141754885,25.10877717859121],[-103.26223780694185,25.058581784248524],[-103.2742828802193,25.020753371120698],[-103.24638902631364,24.99529193920774],[-103.25906805081621,24.964374486170577],[-103.09709351279584,24.82651901909899],[-102.98900482891139,24.796147168174244]]]}},{"type":"Feature","properties":{"cvegeo":"10012","cve_ent":"10","state_code":"DUR","nom_mun":"Lerdo"},"geometry":{"type":"Polygon","coordinates":[[[-103.6904718595163,25.73458280153757],[-103.63817088344318,25.68093192714955],[-103.62961254190394,25.644194718246567],[-103.59379429768417,25.6371018907851],[-103.58745478543288,25.595817997611945],[-103.55607419978901,25.59963721239889],[-103.49331302850126,25.538347908436982],[-103.47556239419767,25.517978762906615],[-103.36937556398861,25.416496769996396],[-103.34148171008295,25.410131412018156],[-103.33704405150704,25.371393662036297],[-103.40709566188376,25.398673767657325],[-103.46288336969509,25.37521287682324],[-103.49394697972639,25.311559297040844],[-103.50567507739127,25.276640761845933],[-103.50852785790435,25.24044915505537],[-103.5303991751713,25.22189868323307],[-103.61059400515008,25.19534604709527],[-103.716146884134,25.174249432081677],[-103.75386698202917,25.192254301791557],[-103.77795712858405,25.270093536496887],[-103.82265068995562,25.350115179651898],[-103.79317195798714,25.3926721444207],[-103.84832571457333,25.46123614321488],[-103.90221156870928,25.452506509416153],[-103.90506434922236,25.47214818546329],[-103.94975791059393,25.458144397911163],[-103.97796874011216,25.549623685427008],[-103.9367619104788,25.491426126768815],[-103.89872483697107,25.49815521948867],[-103.89365322717003,25.474330593912974],[-103.86354054397643,25.479786615037177],[-103.88699673930618,25.540530316886667],[-103.86575937326438,25.560899462417034],[-103.91425664198673,25.5627181361251],[-103.8984078613585,25.627644787503144],[-103.96624064244727,25.715122992861236],[-103.92661869087674,25.72821744355933],[-103.93961469099187,25.752587671247447],[-103.91235478831133,25.76640959142877],[-103.70568668891939,25.748040986977276],[-103.6904718595163,25.73458280153757]]]}},{"type":"Feature","properties":{"cvegeo":"10017","cve_ent":"10","state_code":"DUR","nom_mun":"Ocampo"},"geometry":{"type":"Polygon","coordinates":[[[-106.0785661245761,26.79832505338681],[-106.04718553893223,26.844701232942555],[-105.93909685504778,26.76304278345028],[-105.9318064159588,26.765588926641577],[-105.89408631806364,26.741036831582655],[-105.86555851293285,26.747402189560894],[-105.77585441457714,26.660833321056835],[-105.79423900010588,26.698843601555467],[-105.74637568260866,26.713938593332436],[-105.67505616978168,26.617548886804805],[-105.60120085205419,26.614820876242703],[-105.61958543758291,26.68356674240769],[-105.54921685159363,26.546620612190136],[-105.49628192429539,26.542801397403192],[-105.49596494868283,26.526978936142996],[-105.4712408509028,26.508610331691507],[-105.45602602149971,26.52952507933429],[-105.38946114286121,26.524069058210088],[-105.34825431322784,26.51242954647845],[-105.35712963037963,26.485695042969844],[-105.3175076788091,26.462416019506566],[-105.28802894684061,26.488786788273558],[-105.26488972712342,26.461870417394145],[-105.10196426226534,26.521341047647986],[-105.0569537252812,26.419313452625346],[-105.05663674966864,26.41203875779307],[-105.27693480040085,26.201254475027937],[-105.21924523891414,26.133236078346176],[-105.26488972712342,26.10922958539967],[-105.35522777670425,26.071037437530237],[-105.38407255744761,26.113048800186615],[-105.47758036315409,26.233444999660747],[-105.5165683634995,26.23853728604334],[-105.5254436806513,26.280912383441333],[-105.5086439731854,26.32146880713126],[-105.52956436361464,26.325288021918205],[-105.5618958760962,26.369663660395076],[-105.60690641308034,26.349112647493904],[-105.62972865718498,26.37111859936153],[-105.66301109650423,26.351113188572775],[-105.68836914550938,26.460597345798497],[-105.7327457312684,26.50606418850021],[-105.78663158540434,26.542983264774],[-105.81135568318435,26.510429005399573],[-105.87982241549825,26.475692337575467],[-105.87696963498517,26.45168584462896],[-105.89947490347724,26.42022278947938],[-105.94036475749805,26.42476947374955],[-105.94797217219958,26.451503977258156],[-105.9923487579586,26.426224412716003],[-106.01009939226219,26.370027395136688],[-106.03355558759196,26.3623889655628],[-106.07507939283789,26.39876243972417],[-106.10550905164406,26.40058111343224],[-106.15337236914128,26.469508846968033],[-106.20377149153902,26.479693419733216],[-106.20694124766466,26.512611413849257],[-106.24180856504674,26.493151605172923],[-106.27001939456497,26.526978936142996],[-106.24149158943418,26.544801938482067],[-106.2199372477798,26.656286636786664],[-106.19014154019875,26.694478784656102],[-106.1318180274869,26.713756725961627],[-106.17682856447105,26.727760513513754],[-106.1780964669213,26.772318019361432],[-106.12547851523561,26.7794108468229],[-106.10107139306817,26.759223568663337],[-106.0785661245761,26.79832505338681]]]}},{"type":"Feature","properties":{"cvegeo":"10009","cve_ent":"10","state_code":"DUR","nom_mun":"Guanaceví"},"geometry":{"type":"Polygon","coordinates":[[[-106.27001939456497,26.526978936142996],[-106.24180856504674,26.493151605172923],[-106.20694124766466,26.512611413849257],[-106.20377149153902,26.479693419733216],[-106.15337236914128,26.469508846968033],[-106.10550905164406,26.40058111343224],[-106.07507939283789,26.39876243972417],[-106.03355558759196,26.3623889655628],[-106.01009939226219,26.370027395136688],[-105.9923487579586,26.426224412716003],[-105.94797217219958,26.451503977258156],[-105.94036475749805,26.42476947374955],[-105.89947490347724,26.42022278947938],[-105.87696963498517,26.45168584462896],[-105.87982241549825,26.398580572353364],[-105.90803324501648,26.357478546551015],[-105.95177587955035,26.366753782462165],[-105.92895363544572,26.34292915688647],[-105.95653051373883,26.274365158092287],[-105.90264465960288,26.240355959751408],[-105.95399470883831,26.202891281365197],[-105.92229714758187,26.194161647566467],[-105.91690856216827,26.16015244922559],[-105.86746036660824,26.14960414171879],[-105.77395256090176,26.07412918283395],[-105.77426953651432,26.025388727457717],[-105.75271519485995,26.001200367140406],[-105.7273571458548,26.00720199037703],[-105.69122192602246,26.05466937415762],[-105.6687166575304,26.012658011501237],[-105.68107870642041,25.988651518554732],[-105.72165158482863,25.987924049071506],[-105.7229194872789,25.943366543223828],[-105.70136514562452,25.86316303269801],[-105.68615031622143,25.868619053822215],[-105.62814377912215,25.82515275219938],[-105.65318485251474,25.90062771108422],[-105.58915577877674,25.840429611347155],[-105.55175265649414,25.876621218137714],[-105.58503509581341,25.898081567892923],[-105.56443168099672,25.922088060839428],[-105.5317831929026,25.922269928210234],[-105.5219569489131,25.923542999805882],[-105.50357236338436,25.921178723985392],[-105.49406309500743,25.900445843713413],[-105.54921685159363,25.850614184112338],[-105.49596494868283,25.817878057367103],[-105.52037207085027,25.77150187781136],[-105.5051572414472,25.764772785091505],[-105.558409144358,25.737310812099672],[-105.54382826618004,25.667291874339035],[-105.57299002253596,25.66529133326016],[-105.56348075415903,25.607821244085198],[-105.63226446208549,25.560899462417034],[-105.70833860910093,25.573630178373513],[-105.74574173138353,25.6158234084007],[-105.74764358505891,25.667291874339035],[-105.77490348773945,25.69366264310603],[-105.79645782939383,25.67347536494647],[-105.8554152933308,25.70675709380412],[-105.90993509869186,25.72530756562642],[-105.93751197698496,25.7194878097606],[-105.97649997733038,25.741130026886616],[-106.09441490520432,25.722033952951897],[-106.11184856389535,25.754588212326322],[-106.14005939341358,25.75477007969713],[-106.1879227109108,25.7858694001051],[-106.20377149153902,25.822424741637278],[-106.24339344310955,25.74367617007791],[-106.34450866351759,25.79569023812867],[-106.46400846945434,25.741675628999037],[-106.555931397098,25.691480234656346],[-106.56005208006134,25.91263095755747],[-106.54737305555877,25.952459911764173],[-106.45608407914024,25.97264718992373],[-106.44467295708792,26.00501958192735],[-106.4716158841559,26.06030726265263],[-106.45893685965332,26.112139463332582],[-106.415511200732,26.1392377015828],[-106.43294485942305,26.20398248559004],[-106.42406954227124,26.214530793096834],[-106.31249412664859,26.34856704538148],[-106.28713607764344,26.335108859941776],[-106.27540797997855,26.367481251945392],[-106.30235090704653,26.36366203715845],[-106.29759627285806,26.396398163903683],[-106.26463080915137,26.405855267185636],[-106.2421255406593,26.46678083640593],[-106.27001939456497,26.526978936142996]]]}},{"type":"Feature","properties":{"cvegeo":"10036","cve_ent":"10","state_code":"DUR","nom_mun":"Tlahualilo"},"geometry":{"type":"Polygon","coordinates":[[[-103.6993471766681,26.72521437032246],[-103.6584573226473,26.71939461445664],[-103.63690298099291,26.692478243577227],[-103.41597097903556,26.616821417321578],[-103.37413019817707,26.60227202765703],[-103.31675761230292,26.361843363450383],[-103.26128688010417,26.28454973085747],[-103.35067400284731,26.142329446886517],[-103.34687029549654,25.87698495287933],[-103.39188083248068,25.856615807348962],[-103.40202405208274,25.874984411800455],[-103.4441818085538,25.869710258047057],[-103.4378422963025,25.82915383435713],[-103.48253585767408,25.857525144202995],[-103.50757693106667,25.83260931440246],[-103.50567507739127,25.865891043260113],[-103.54339517528643,25.865709175889307],[-103.56970415112927,25.88789699512774],[-103.59316034645903,25.92536167351395],[-103.62771068822855,25.90117331319664],[-103.70029810350579,26.081767612407837],[-103.83818249497128,26.209984108826664],[-104.01061722820629,26.395125092308035],[-103.95451254478239,26.44022820026813],[-103.97543293521164,26.477329143912726],[-103.95641439845778,26.492424135689696],[-103.94753908130598,26.557714521809352],[-104.01632278923245,26.560078797629842],[-104.01537186239474,26.629915868019673],[-104.04389966752554,26.642828451346958],[-103.93295820312802,26.75394941490994],[-103.86132171468847,26.75394941490994],[-103.6993471766681,26.72521437032246]]]}}]}