{"type":"FeatureCollection","features":[{"type":"Feature","properties":{"cvegeo":"11009","cve_ent":"11","state_code":"GUA","nom_mun":"Comonfort"},"geometry":{"type":"Polygon","coordinates":[[[-100.86051359054179,20.66102875813899],[-100.85195524900254,20.681397903669357],[-100.8842867614841,20.69794783441278],[-100.95687417676135,20.69740223230036],[-100.98001339647854,20.730502093787205],[-100.9670173963634,20.77978815127586],[-100.98888871363035,20.78851778507459],[-100.98857173801778,20.811433073796252],[-100.95402139624827,20.799247959952194],[-100.91376549345259,20.807795726380114],[-100.8896753468977,20.793428204086375],[-100.80377495589276,20.80815946112173],[-100.78634129720173,20.78215242709635],[-100.71819154050038,20.831256617214198],[-100.67761866209216,20.79997542943542],[-100.63229114949546,20.792336999861533],[-100.61549144202954,20.76305635316163],[-100.61897817376774,20.715952704122657],[-100.63514393000852,20.66684851400481],[-100.66684149126496,20.688672598501633],[-100.7226291990763,20.679761097332097],[-100.74957212614426,20.65248099171107],[-100.80948051691892,20.688308863760017],[-100.82501232193458,20.66502984029674],[-100.86051359054179,20.66102875813899]]]}},{"type":"Feature","properties":{"cvegeo":"11007","cve_ent":"11","state_code":"GUA","nom_mun":"Celaya"},"geometry":{"type":"Polygon","coordinates":[[[-100.63514393000852,20.66684851400481],[-100.67603378402933,20.618108058628575],[-100.69822207690883,20.621199803932292],[-100.71311993069936,20.56773079691508],[-100.75781349207094,20.537358945990334],[-100.74893817491913,20.48516301056877],[-100.69283349149524,20.46843121245454],[-100.69093163781986,20.423873706606862],[-100.73784402847939,20.37386017963498],[-100.78222061423838,20.374951383859823],[-100.7847564191389,20.35603717729591],[-100.82374441948431,20.37513325123063],[-100.844347834301,20.391865049344858],[-100.8265971999974,20.431330268809944],[-100.85195524900254,20.439514300496253],[-100.84688363920152,20.484253673714736],[-100.90901085926413,20.51571672886432],[-100.91091271293952,20.565548388465395],[-100.91122968855208,20.56936760325234],[-100.87414354188205,20.58500819714173],[-100.88492071270923,20.62883823350618],[-100.86051359054179,20.66102875813899],[-100.82501232193458,20.66502984029674],[-100.80948051691892,20.688308863760017],[-100.74957212614426,20.65248099171107],[-100.7226291990763,20.679761097332097],[-100.66684149126496,20.688672598501633],[-100.63514393000852,20.66684851400481]]]}},{"type":"Feature","properties":{"cvegeo":"11025","cve_ent":"11","state_code":"GUA","nom_mun":"Purísima del Rincón"},"geometry":{"type":"Polygon","coordinates":[[[-101.78576540361712,21.048769992699185],[-101.82094969661176,21.0358574093719],[-101.83362872111434,21.053316676969356],[-101.8694469653341,21.03822168519239],[-101.85645096521897,20.996937792019235],[-101.88751457525028,20.902184891828867],[-101.90304638026592,20.826164330831606],[-101.99623721035985,20.83507583200114],[-102.05392677184656,20.815434155954],[-102.06755672318683,20.771604119589554],[-102.07389623543811,20.776514538601337],[-102.08752618677838,20.778878814421827],[-102.0802357476894,20.827983004539675],[-102.05487769868425,20.846351608991167],[-101.93727974642287,20.95565389884608],[-101.90875194129208,20.99839273098569],[-101.88688062402514,21.061136973914053],[-101.87166579462206,21.095328039625738],[-101.81777994048612,21.10678568398657],[-101.80890462333431,21.051861738002902],[-101.78576540361712,21.048769992699185]]]}},{"type":"Feature","properties":{"cvegeo":"11030","cve_ent":"11","state_code":"GUA","nom_mun":"San Felipe"},"geometry":{"type":"Polygon","coordinates":[[[-101.04055573847833,21.32593586580882],[-101.05164988491809,21.28847118742261],[-101.08746812913786,21.2802871557363],[-101.08334744617451,21.313932619335567],[-101.11155827569274,21.29811015807537],[-101.10585271466658,21.257917469127058],[-101.18477964219511,21.23354724143894],[-101.20379817894897,21.20754020741356],[-101.29572110659264,21.202811655772585],[-101.33312422887522,21.145705301339234],[-101.3866931073986,21.13843060650696],[-101.37306315605834,21.176259019634784],[-101.39081379036193,21.212450626425348],[-101.44374871766018,21.254098254340114],[-101.49826852302125,21.255189458564956],[-101.52267564518871,21.232274169843294],[-101.53725652336666,21.272466858791606],[-101.60825906058108,21.313932619335567],[-101.63266618274854,21.326845202662852],[-101.64597915847624,21.3281182742585],[-101.6428094023506,21.354852777767107],[-101.6792615977955,21.39322679300735],[-101.59684793852877,21.4210525007408],[-101.5708559382985,21.418506357549504],[-101.52647935253948,21.431782675618404],[-101.53091701111538,21.393772395119772],[-101.50080432792177,21.378859270713612],[-101.4053946685399,21.42050689862838],[-101.37116130238294,21.39740974253591],[-101.32868657029933,21.409776723750774],[-101.33946374112651,21.463427598138793],[-101.31695847263444,21.507257634503244],[-101.28589486260314,21.523261963134246],[-101.32203008243548,21.55599808987948],[-101.3635538876814,21.561454111003684],[-101.33819583867626,21.677667360949258],[-101.40476071731477,21.67057453348779],[-101.43994501030942,21.666755318700847],[-101.44343174204762,21.73586491960745],[-101.42694901019428,21.75496099354217],[-101.42314530284351,21.824979931302803],[-101.36608969258192,21.839347453596545],[-101.31949427753496,21.835346371438796],[-101.29191739924187,21.812794817458744],[-101.21711115467667,21.81588656276246],[-101.21964695957719,21.80224650995195],[-101.16132344686535,21.757507136733466],[-101.05925729961963,21.765509301048965],[-100.98159827454137,21.75296045246329],[-100.91249759100234,21.713677100369015],[-100.90235437140028,21.682032177848622],[-100.85322315145281,21.67421188090393],[-100.83452159031151,21.664572910251167],[-100.8576608100287,21.618924200178647],[-100.8728756394318,21.594372105119724],[-100.93024822530595,21.59855505464828],[-100.93405193265671,21.56163597837449],[-101.004420518646,21.539630026506863],[-101.00949212844702,21.493799449063538],[-101.03960481164064,21.445422728428916],[-101.02375603101243,21.42159810285322],[-101.04182364092858,21.36558295264471],[-101.04055573847833,21.32593586580882]]]}},{"type":"Feature","properties":{"cvegeo":"11045","cve_ent":"11","state_code":"GUA","nom_mun":"Xichú"},"geometry":{"type":"Polygon","coordinates":[[[-100.1187906571412,21.228636822427156],[-100.13051875480609,21.215542371729065],[-100.14890334033483,21.245914222653806],[-100.12576412061762,21.258099336497864],[-100.1527070476856,21.30447551605361],[-100.10516070580094,21.37140270851053],[-100.1321036328689,21.407230580559478],[-100.083289388534,21.402683896289307],[-100.0921647056858,21.463427598138793],[-100.05793133952885,21.495618122771607],[-100.06268597371732,21.523261963134246],[-99.95745007034596,21.526171841067157],[-99.9650574850475,21.505984562907596],[-99.94413709461826,21.461427057059918],[-99.9064169967231,21.447968871620212],[-99.86742899637768,21.47343030353317],[-99.81702987397995,21.461608924430728],[-99.77772489802197,21.495072520659185],[-99.77899280047222,21.394863599344614],[-99.82970889848252,21.37722246437635],[-99.859187630451,21.34030338810256],[-99.87757221597974,21.261554816543196],[-99.90419816743514,21.18517052080432],[-99.94794080196903,21.212450626425348],[-99.98661182670187,21.218270382291166],[-100.0113359244819,21.189535337703685],[-100.07251221770682,21.229182424539577],[-100.1187906571412,21.228636822427156]]]}},{"type":"Feature","properties":{"cvegeo":"11013","cve_ent":"11","state_code":"GUA","nom_mun":"Doctor Mora"},"geometry":{"type":"Polygon","coordinates":[[[-100.29376119527673,21.09223629432202],[-100.4557357332971,21.10551261239092],[-100.45922246503532,21.114969715672878],[-100.4852144652656,21.178623295455274],[-100.44369066001967,21.19208148089498],[-100.40565358651195,21.169529926914933],[-100.35208470798857,21.210813820088084],[-100.31499856131853,21.20535779896388],[-100.29122539037621,21.168256855319285],[-100.24019231675335,21.120243869426275],[-100.25382226809361,21.08714400793943],[-100.29376119527673,21.09223629432202]]]}},{"type":"Feature","properties":{"cvegeo":"11034","cve_ent":"11","state_code":"GUA","nom_mun":"Santa Catarina"},"geometry":{"type":"Polygon","coordinates":[[[-100.13051875480609,21.215542371729065],[-100.1187906571412,21.228636822427156],[-100.07251221770682,21.229182424539577],[-100.0113359244819,21.189535337703685],[-99.99643807069137,21.18244251024222],[-100.02655075388498,21.073503955128917],[-100.01513963183267,21.05095240114887],[-100.0547615834032,21.050043064294833],[-100.07980265679579,21.067502331892292],[-100.07314616893194,21.092781896434442],[-100.11023231560196,21.10678568398657],[-100.10801348631402,21.126245492662903],[-100.1527070476856,21.155889874104417],[-100.13051875480609,21.215542371729065]]]}},{"type":"Feature","properties":{"cvegeo":"11040","cve_ent":"11","state_code":"GUA","nom_mun":"Tierra Blanca"},"geometry":{"type":"Polygon","coordinates":[[[-100.1527070476856,21.155889874104417],[-100.10801348631402,21.126245492662903],[-100.11023231560196,21.10678568398657],[-100.07314616893194,21.092781896434442],[-100.07980265679579,21.067502331892292],[-100.0547615834032,21.050043064294833],[-100.01513963183267,21.05095240114887],[-100.01165290009446,21.040767828383686],[-100.02243007092164,21.01439705961669],[-100.0611010956545,21.028400847168818],[-100.06078412004193,21.00584929318877],[-100.09248168129837,20.931829273270385],[-100.1882083162928,20.93255674275361],[-100.24589787777951,20.963292328419968],[-100.25445621931875,21.044223308429014],[-100.26745221943389,21.056954024385494],[-100.29376119527673,21.09223629432202],[-100.25382226809361,21.08714400793943],[-100.24019231675335,21.120243869426275],[-100.16348421851278,21.136430065428087],[-100.1527070476856,21.155889874104417]]]}},{"type":"Feature","properties":{"cvegeo":"11041","cve_ent":"11","state_code":"GUA","nom_mun":"Uriangato"},"geometry":{"type":"Polygon","coordinates":[[[-101.08049466566145,20.08287238634403],[-101.132478666122,20.060684567105593],[-101.17400247136793,20.09778551075019],[-101.19650773986,20.057047219689455],[-101.19967749598564,20.106151409807303],[-101.17907408116895,20.126702422708476],[-101.20284725211128,20.15016331354256],[-101.2079188619123,20.19290214568217],[-101.15942159318996,20.160347886307743],[-101.12613915387071,20.164530835836302],[-101.08049466566145,20.08287238634403]]]}},{"type":"Feature","properties":{"cvegeo":"11043","cve_ent":"11","state_code":"GUA","nom_mun":"Victoria"},"geometry":{"type":"Polygon","coordinates":[[[-100.24019231675335,21.120243869426275],[-100.29122539037621,21.168256855319285],[-100.31499856131853,21.20535779896388],[-100.35208470798857,21.210813820088084],[-100.38251436679475,21.264282827105298],[-100.37268812280524,21.300656301266667],[-100.34257543961164,21.32229851839268],[-100.36412978126602,21.333756162753513],[-100.36634861055396,21.372675780106178],[-100.34447729328703,21.423053041819674],[-100.29883280507775,21.41923382703273],[-100.29978373191545,21.437966166225834],[-100.22656236541309,21.468519884521385],[-100.24811670706747,21.51089498191938],[-100.21229846284768,21.597100115681826],[-100.20025338957025,21.615468720133318],[-100.22339260928744,21.6654822471052],[-100.18060090159125,21.650205387957424],[-100.16728792586355,21.60146493258119],[-100.14700148665943,21.618014863324614],[-100.07599894944502,21.557816763587546],[-100.06268597371732,21.523261963134246],[-100.05793133952885,21.495618122771607],[-100.0921647056858,21.463427598138793],[-100.083289388534,21.402683896289307],[-100.1321036328689,21.407230580559478],[-100.10516070580094,21.37140270851053],[-100.1527070476856,21.30447551605361],[-100.12576412061762,21.258099336497864],[-100.14890334033483,21.245914222653806],[-100.13051875480609,21.215542371729065],[-100.1527070476856,21.155889874104417],[-100.16348421851278,21.136430065428087],[-100.24019231675335,21.120243869426275]]]}},{"type":"Feature","properties":{"cvegeo":"11006","cve_ent":"11","state_code":"GUA","nom_mun":"Atarjea"},"geometry":{"type":"Polygon","coordinates":[[[-99.77899280047222,21.394863599344614],[-99.79452460548788,21.357398920958403],[-99.75775543443041,21.292108534838746],[-99.73715201961373,21.312841415110725],[-99.67375689710086,21.296837086479723],[-99.69879797049344,21.26755643977982],[-99.69372636069241,21.23591151725943],[-99.73873689767655,21.235547782517816],[-99.82939192286996,21.157890415183292],[-99.88834938680692,21.169529926914933],[-99.90419816743514,21.18517052080432],[-99.87757221597974,21.261554816543196],[-99.859187630451,21.34030338810256],[-99.82970889848252,21.37722246437635],[-99.77899280047222,21.394863599344614]]]}},{"type":"Feature","properties":{"cvegeo":"11028","cve_ent":"11","state_code":"GUA","nom_mun":"Salvatierra"},"geometry":{"type":"Polygon","coordinates":[[[-100.82786510244766,20.352763564621387],[-100.80250705344251,20.32366478529229],[-100.8221595414215,20.321118642100995],[-100.84339690746332,20.279289146815422],[-100.80599378518072,20.228730017731117],[-100.78982802893994,20.23218549777645],[-100.78158666301326,20.173078602264223],[-100.83483856592407,20.133977117540752],[-100.86875495646845,20.122701340550726],[-100.89664881037412,20.109425022481826],[-100.88713954199719,20.084327325310483],[-100.92454266427978,20.028312175101973],[-100.97018715248905,20.005215019009505],[-101.0142467626355,20.045589575328624],[-100.99269242098111,20.064685649263343],[-101.01171095773498,20.08159931474838],[-101.00061681129523,20.109425022481826],[-100.97906246964085,20.131612841720262],[-100.92866334724312,20.150527048284175],[-100.94165934735825,20.18708238981635],[-101.02122022611191,20.210543280650434],[-101.02026929927422,20.200176840514445],[-101.05196686053065,20.215999301774637],[-101.03453320183961,20.25037223485713],[-101.04182364092858,20.277288605736544],[-101.00568842109625,20.285290770052047],[-100.98413407944187,20.32821146956246],[-100.91027876171438,20.341305920260556],[-100.89886763966207,20.378406863905152],[-100.88016607852077,20.354945973071068],[-100.82786510244766,20.352763564621387]]]}},{"type":"Feature","properties":{"cvegeo":"11032","cve_ent":"11","state_code":"GUA","nom_mun":"San José Iturbide"},"geometry":{"type":"Polygon","coordinates":[[[-100.52864012418691,21.071139679308427],[-100.45922246503532,21.114969715672878],[-100.4557357332971,21.10551261239092],[-100.29376119527673,21.09223629432202],[-100.26745221943389,21.056954024385494],[-100.25445621931875,21.044223308429014],[-100.24589787777951,20.963292328419968],[-100.26364851208311,20.970930757993855],[-100.2655503657585,20.92928313007909],[-100.3340170980724,20.89054538009723],[-100.41421192805117,20.887999236905934],[-100.45383387962173,20.900184350749992],[-100.47253544076302,20.928191925854247],[-100.51342529478381,21.003303149997475],[-100.52864012418691,21.071139679308427]]]}},{"type":"Feature","properties":{"cvegeo":"11024","cve_ent":"11","state_code":"GUA","nom_mun":"Pueblo Nuevo"},"geometry":{"type":"Polygon","coordinates":[[[-101.400957009964,20.51571672886432],[-101.4187076442676,20.549362192463587],[-101.3467541802155,20.592646626715617],[-101.31188686283342,20.579915910759137],[-101.31315476528367,20.539177619698403],[-101.3413655948019,20.54627044715987],[-101.36704061941961,20.504077217132682],[-101.400957009964,20.51571672886432]]]}},{"type":"Feature","properties":{"cvegeo":"11036","cve_ent":"11","state_code":"GUA","nom_mun":"Santiago Maravatío"},"geometry":{"type":"Polygon","coordinates":[[[-101.02026929927422,20.200176840514445],[-101.02122022611191,20.210543280650434],[-100.94165934735825,20.18708238981635],[-100.92866334724312,20.150527048284175],[-100.97906246964085,20.131612841720262],[-101.00061681129523,20.109425022481826],[-101.04118968970346,20.11960959524701],[-101.01044305528472,20.18526371610828],[-101.02026929927422,20.200176840514445]]]}},{"type":"Feature","properties":{"cvegeo":"11004","cve_ent":"11","state_code":"GUA","nom_mun":"Apaseo el Alto"},"geometry":{"type":"Polygon","coordinates":[[[-100.46999963586251,20.386772762962266],[-100.50867066059536,20.33239441909102],[-100.54227007552717,20.334394960169895],[-100.58601271006106,20.31038846722339],[-100.59298617353747,20.32548345900036],[-100.65352851553726,20.348216880351217],[-100.65543036921265,20.403140826334884],[-100.69093163781986,20.423873706606862],[-100.69283349149524,20.46843121245454],[-100.63672880807135,20.474614703061974],[-100.60376334436467,20.506623360323978],[-100.56287349034386,20.512988718302218],[-100.55748490493026,20.530993588012095],[-100.51913085580998,20.526992505854345],[-100.50518392885715,20.5550000809586],[-100.50803670937023,20.518262872055615],[-100.4887011970038,20.473341631466326],[-100.4887011970038,20.42569238031493],[-100.46999963586251,20.386772762962266]]]}},{"type":"Feature","properties":{"cvegeo":"11005","cve_ent":"11","state_code":"GUA","nom_mun":"Apaseo el Grande"},"geometry":{"type":"Polygon","coordinates":[[[-100.48901817261637,20.594465300423686],[-100.4852144652656,20.55372700936295],[-100.50518392885715,20.5550000809586],[-100.51913085580998,20.526992505854345],[-100.55748490493026,20.530993588012095],[-100.56287349034386,20.512988718302218],[-100.60376334436467,20.506623360323978],[-100.63672880807135,20.474614703061974],[-100.69283349149524,20.46843121245454],[-100.74893817491913,20.48516301056877],[-100.75781349207094,20.537358945990334],[-100.71311993069936,20.56773079691508],[-100.69822207690883,20.621199803932292],[-100.67603378402933,20.618108058628575],[-100.63514393000852,20.66684851400481],[-100.61897817376774,20.715952704122657],[-100.59647290527568,20.717225775718305],[-100.58220900271029,20.676851219399186],[-100.56223953911874,20.671213330904173],[-100.55114539267898,20.633566785147156],[-100.5295910510246,20.638659071529748],[-100.48901817261637,20.594465300423686]]]}},{"type":"Feature","properties":{"cvegeo":"11046","cve_ent":"11","state_code":"GUA","nom_mun":"Yuriria"},"geometry":{"type":"Polygon","coordinates":[[[-101.07859281198606,20.300567629199822],[-101.04182364092858,20.277288605736544],[-101.03453320183961,20.25037223485713],[-101.05196686053065,20.215999301774637],[-101.02026929927422,20.200176840514445],[-101.01044305528472,20.18526371610828],[-101.04118968970346,20.11960959524701],[-101.00061681129523,20.109425022481826],[-101.01171095773498,20.08159931474838],[-101.08049466566145,20.08287238634403],[-101.12613915387071,20.164530835836302],[-101.15942159318996,20.160347886307743],[-101.2079188619123,20.19290214568217],[-101.20284725211128,20.15016331354256],[-101.26624237462416,20.15525559992515],[-101.2684612039121,20.134158984911558],[-101.28811369189108,20.12415627951718],[-101.324565887336,20.084145457939677],[-101.3182263750847,20.04868132063234],[-101.29191739924187,20.03595060467586],[-101.32836959468676,20.03194952251811],[-101.40254188802682,20.044862105845397],[-101.40856442466554,20.122883207921532],[-101.38922891229912,20.130339770124614],[-101.42251135161837,20.163257764240655],[-101.42029252233043,20.2016317794809],[-101.36323691206884,20.19563015624427],[-101.36133505839345,20.248917295890678],[-101.34390139970242,20.27128698249992],[-101.24658988664515,20.293474801738355],[-101.20633398384949,20.246371152699382],[-101.15720276390202,20.27419686043283],[-101.11219222691787,20.276924870994932],[-101.11662988549378,20.30238630290789],[-101.07859281198606,20.300567629199822]]]}},{"type":"Feature","properties":{"cvegeo":"11019","cve_ent":"11","state_code":"GUA","nom_mun":"Jerécuaro"},"geometry":{"type":"Polygon","coordinates":[[[-100.40343475722399,20.36058386156608],[-100.38663504975808,20.30693298717806],[-100.3615939763655,20.285836372164468],[-100.40850636702503,20.277106738365738],[-100.44400763563223,20.17562474545552],[-100.40438568406168,20.179989562354884],[-100.42340422081554,20.149981446171754],[-100.38092948873192,20.129794168012193],[-100.38980480588373,20.080689977894345],[-100.35810724462729,20.064685649263343],[-100.36286187881575,19.98993815986173],[-100.44844529420813,19.982663465029454],[-100.45510178207198,20.00666995797596],[-100.49440675802995,20.02321988871938],[-100.4931388555797,20.06541311874657],[-100.5020141727315,20.0821449168608],[-100.5020141727315,20.082508651602414],[-100.5020141727315,20.0821449168608],[-100.50930461182048,20.079053171557085],[-100.5162780752969,20.085418529535325],[-100.51754597774716,20.086691601130973],[-100.52230061193562,20.088874009580653],[-100.53751544133871,20.10233219502036],[-100.53783241695128,20.10233219502036],[-100.55431514880462,20.081963049489993],[-100.58189202709772,20.081963049489993],[-100.60693310049031,20.154528130441925],[-100.65162666186188,20.15434626307112],[-100.6300723202075,20.19854003417718],[-100.67666773525445,20.228730017731117],[-100.66969427177804,20.27765234047816],[-100.68744490608165,20.32148237684261],[-100.65352851553726,20.348216880351217],[-100.59298617353747,20.32548345900036],[-100.58601271006106,20.31038846722339],[-100.54227007552717,20.334394960169895],[-100.50867066059536,20.33239441909102],[-100.46999963586251,20.386772762962266],[-100.40945729386272,20.375315118601435],[-100.40343475722399,20.36058386156608]]]}},{"type":"Feature","properties":{"cvegeo":"11039","cve_ent":"11","state_code":"GUA","nom_mun":"Tarimoro"},"geometry":{"type":"Polygon","coordinates":[[[-100.78158666301326,20.173078602264223],[-100.78982802893994,20.23218549777645],[-100.80599378518072,20.228730017731117],[-100.84339690746332,20.279289146815422],[-100.8221595414215,20.321118642100995],[-100.80250705344251,20.32366478529229],[-100.82786510244766,20.352763564621387],[-100.82374441948431,20.37513325123063],[-100.7847564191389,20.35603717729591],[-100.78222061423838,20.374951383859823],[-100.73784402847939,20.37386017963498],[-100.69093163781986,20.423873706606862],[-100.65543036921265,20.403140826334884],[-100.65352851553726,20.348216880351217],[-100.68744490608165,20.32148237684261],[-100.66969427177804,20.27765234047816],[-100.67666773525445,20.228730017731117],[-100.72643290642706,20.183263175029406],[-100.78158666301326,20.173078602264223]]]}},{"type":"Feature","properties":{"cvegeo":"11010","cve_ent":"11","state_code":"GUA","nom_mun":"Coroneo"},"geometry":{"type":"Polygon","coordinates":[[[-100.35081680553832,20.288382515355764],[-100.32355690285777,20.252009041194395],[-100.35525446411421,20.219091047078354],[-100.35588841533934,20.182353838175374],[-100.38092948873192,20.129794168012193],[-100.42340422081554,20.149981446171754],[-100.40438568406168,20.179989562354884],[-100.44400763563223,20.17562474545552],[-100.40850636702503,20.277106738365738],[-100.3615939763655,20.285836372164468],[-100.38663504975808,20.30693298717806],[-100.35081680553832,20.288382515355764]]]}},{"type":"Feature","properties":{"cvegeo":"11038","cve_ent":"11","state_code":"GUA","nom_mun":"Tarandacuao"},"geometry":{"type":"Polygon","coordinates":[[[-100.5083536849828,20.05268240279009],[-100.49440675802995,20.02321988871938],[-100.45510178207198,20.00666995797596],[-100.44844529420813,19.982663465029454],[-100.511840416721,19.95811136997053],[-100.53593056327588,19.92301096740481],[-100.52705524612409,19.96574979954442],[-100.5926691979249,19.966477269027646],[-100.55780188054283,19.99157496619899],[-100.60186149068927,19.98593707770398],[-100.56382441718155,20.07232407883723],[-100.53117592908742,20.07814383470305],[-100.5083536849828,20.05268240279009]]]}},{"type":"Feature","properties":{"cvegeo":"11011","cve_ent":"11","state_code":"GUA","nom_mun":"Cortazar"},"geometry":{"type":"Polygon","coordinates":[[[-101.03928783602808,20.509715105627695],[-100.96923622565136,20.502804145537034],[-100.90901085926413,20.51571672886432],[-100.84688363920152,20.484253673714736],[-100.85195524900254,20.439514300496253],[-100.8265971999974,20.431330268809944],[-100.844347834301,20.391865049344858],[-100.82374441948431,20.37513325123063],[-100.82786510244766,20.352763564621387],[-100.88016607852077,20.354945973071068],[-100.89886763966207,20.378406863905152],[-100.91027876171438,20.341305920260556],[-100.98413407944187,20.32821146956246],[-100.98001339647854,20.34858061509283],[-101.02122022611191,20.368949760623195],[-101.04404247021654,20.451517546969505],[-101.03928783602808,20.509715105627695]]]}},{"type":"Feature","properties":{"cvegeo":"11002","cve_ent":"11","state_code":"GUA","nom_mun":"Acámbaro"},"geometry":{"type":"Polygon","coordinates":[[[-100.60186149068927,19.98593707770398],[-100.61992910060545,19.95702016574569],[-100.66050197901367,19.96447672794877],[-100.71660666243757,19.941379571856302],[-100.74703632124374,19.912826394639627],[-100.78000178495044,19.91555440520173],[-100.79204685822788,19.955565226779235],[-100.82469534632202,19.978298648130092],[-100.83578949276176,19.934650479136447],[-100.90901085926413,19.96211245212828],[-100.94768188399698,19.962476186869896],[-100.9590930060493,19.930831264349504],[-101.00315261619573,19.95301908358794],[-100.97018715248905,20.005215019009505],[-100.92454266427978,20.028312175101973],[-100.88713954199719,20.084327325310483],[-100.89664881037412,20.109425022481826],[-100.86875495646845,20.122701340550726],[-100.83483856592407,20.133977117540752],[-100.78158666301326,20.173078602264223],[-100.72643290642706,20.183263175029406],[-100.67666773525445,20.228730017731117],[-100.6300723202075,20.19854003417718],[-100.65162666186188,20.15434626307112],[-100.60693310049031,20.154528130441925],[-100.58189202709772,20.081963049489993],[-100.55431514880462,20.081963049489993],[-100.53783241695128,20.10233219502036],[-100.53751544133871,20.10233219502036],[-100.52230061193562,20.088874009580653],[-100.51754597774716,20.086691601130973],[-100.5162780752969,20.085418529535325],[-100.50930461182048,20.079053171557085],[-100.5020141727315,20.0821449168608],[-100.5020141727315,20.082508651602414],[-100.5020141727315,20.0821449168608],[-100.4931388555797,20.06541311874657],[-100.49440675802995,20.02321988871938],[-100.5083536849828,20.05268240279009],[-100.53117592908742,20.07814383470305],[-100.56382441718155,20.07232407883723],[-100.60186149068927,19.98593707770398]]]}},{"type":"Feature","properties":{"cvegeo":"11003","cve_ent":"11","state_code":"GUA","nom_mun":"San Miguel de Allende"},"geometry":{"type":"Polygon","coordinates":[[[-100.52864012418691,21.071139679308427],[-100.51342529478381,21.003303149997475],[-100.47253544076302,20.928191925854247],[-100.46999963586251,20.907095310840653],[-100.50771973375767,20.869448765083636],[-100.5020141727315,20.852898834340213],[-100.55970373421822,20.82998354561855],[-100.56414139279411,20.77451399752246],[-100.5492435390036,20.736321849653024],[-100.59647290527568,20.717225775718305],[-100.61897817376774,20.715952704122657],[-100.61549144202954,20.76305635316163],[-100.63229114949546,20.792336999861533],[-100.67761866209216,20.79997542943542],[-100.71819154050038,20.831256617214198],[-100.78634129720173,20.78215242709635],[-100.80377495589276,20.80815946112173],[-100.8896753468977,20.793428204086375],[-100.91376549345259,20.807795726380114],[-100.95402139624827,20.799247959952194],[-100.98857173801778,20.811433073796252],[-100.98888871363035,20.78851778507459],[-101.03326529938936,20.784698570287645],[-101.06718168993373,20.813979216987548],[-101.0871511535253,20.85999166180168],[-101.02946159203859,20.885453093714638],[-100.99396032343138,20.921280965763586],[-100.9616288109498,20.951834684059136],[-100.92232383499183,20.96201925682432],[-100.91027876171438,21.00584929318877],[-100.83864227327484,21.01912561125767],[-100.8541740782905,21.066592995038256],[-100.82152559019637,21.061500708655664],[-100.76510393115991,21.090781355355567],[-100.70044090619679,21.106058214503342],[-100.63641183245879,21.108604357694638],[-100.56636022208207,21.10096592812075],[-100.52864012418691,21.071139679308427]]]}},{"type":"Feature","properties":{"cvegeo":"11031","cve_ent":"11","state_code":"GUA","nom_mun":"San Francisco del Rincón"},"geometry":{"type":"Polygon","coordinates":[[[-101.78576540361712,21.048769992699185],[-101.78418052555429,21.01621573332476],[-101.73061164703093,21.005121823705544],[-101.73536628121938,20.983115871837914],[-101.6684844269683,20.994027914086324],[-101.67133720748139,20.95110721457591],[-101.71286101272732,20.954380827250432],[-101.71603076885296,20.909823321402754],[-101.6970122320991,20.893818992771752],[-101.70874032976398,20.81034186957141],[-101.73473232999426,20.79488314305283],[-101.77150150105172,20.799793562064615],[-101.80795369649663,20.836167036225984],[-101.86152257502,20.845987874249552],[-101.90304638026592,20.826164330831606],[-101.88751457525028,20.902184891828867],[-101.85645096521897,20.996937792019235],[-101.8694469653341,21.03822168519239],[-101.83362872111434,21.053316676969356],[-101.82094969661176,21.0358574093719],[-101.78576540361712,21.048769992699185]]]}},{"type":"Feature","properties":{"cvegeo":"11008","cve_ent":"11","state_code":"GUA","nom_mun":"Manuel Doblado"},"geometry":{"type":"Polygon","coordinates":[[[-101.80795369649663,20.836167036225984],[-101.77150150105172,20.799793562064615],[-101.73473232999426,20.79488314305283],[-101.74741135449683,20.78215242709635],[-101.68274832953371,20.789245254557816],[-101.70113291506243,20.72850155270833],[-101.69067271984781,20.69612916070471],[-101.74265672030836,20.689036333243244],[-101.77625613524019,20.622654742898746],[-101.80763672088406,20.607196016380165],[-101.80795369649663,20.58318952343366],[-101.84884355051743,20.57173187907283],[-101.85803584328178,20.53990508918163],[-101.89480501433925,20.5630022452741],[-101.93094023417159,20.545542977676643],[-101.92935535610877,20.56773079691508],[-101.96897730767931,20.56245664316168],[-101.95154364898828,20.60683228163855],[-101.96802638084162,20.663574901330286],[-102.01937643007705,20.67612374991596],[-102.01430482027601,20.7170439083475],[-102.03459125948014,20.741959738148037],[-102.06438696706118,20.738686125473514],[-102.06755672318683,20.771604119589554],[-102.05392677184656,20.815434155954],[-101.99623721035985,20.83507583200114],[-101.90304638026592,20.826164330831606],[-101.86152257502,20.845987874249552],[-101.80795369649663,20.836167036225984]]]}},{"type":"Feature","properties":{"cvegeo":"11012","cve_ent":"11","state_code":"GUA","nom_mun":"Cuerámaro"},"geometry":{"type":"Polygon","coordinates":[[[-101.69067271984781,20.69612916070471],[-101.63710384132443,20.694674221738257],[-101.61745135334544,20.65648207386882],[-101.58068218228799,20.639022806271363],[-101.60540628006801,20.526992505854345],[-101.63456803642393,20.547543518755518],[-101.72237028110425,20.537904548102755],[-101.74392462275863,20.56372971475733],[-101.71159311027706,20.56409344949894],[-101.71824959814091,20.608105353234198],[-101.7566036472612,20.605377342672096],[-101.77625613524019,20.622654742898746],[-101.74265672030836,20.689036333243244],[-101.69067271984781,20.69612916070471]]]}},{"type":"Feature","properties":{"cvegeo":"11042","cve_ent":"11","state_code":"GUA","nom_mun":"Valle de Santiago"},"geometry":{"type":"Polygon","coordinates":[[[-101.31315476528367,20.539177619698403],[-101.2817741796398,20.532630394349358],[-101.27828744790159,20.502258543424613],[-101.22693739866617,20.45570049649806],[-101.13121076367173,20.48989156220975],[-101.09412461700171,20.440423637350285],[-101.11219222691787,20.401322152626815],[-101.10997339762993,20.317117559943245],[-101.07859281198606,20.300567629199822],[-101.11662988549378,20.30238630290789],[-101.11219222691787,20.276924870994932],[-101.15720276390202,20.27419686043283],[-101.20633398384949,20.246371152699382],[-101.24658988664515,20.293474801738355],[-101.34390139970242,20.27128698249992],[-101.36133505839345,20.248917295890678],[-101.39525144893784,20.248371693778257],[-101.41997554671786,20.274378727803636],[-101.45864657145071,20.26946830879185],[-101.44501662011044,20.28965558695141],[-101.45991447390097,20.323482917921485],[-101.46023144951353,20.323482917921485],[-101.45991447390097,20.323482917921485],[-101.41205115640375,20.38549969136662],[-101.38003661953475,20.415325940178942],[-101.39525144893784,20.4753421725452],[-101.36704061941961,20.504077217132682],[-101.3413655948019,20.54627044715987],[-101.31315476528367,20.539177619698403]]]}},{"type":"Feature","properties":{"cvegeo":"11033","cve_ent":"11","state_code":"GUA","nom_mun":"San Luis de la Paz"},"geometry":{"type":"Polygon","coordinates":[[[-100.27759543903595,21.686578862118793],[-100.22339260928744,21.6654822471052],[-100.20025338957025,21.615468720133318],[-100.21229846284768,21.597100115681826],[-100.24811670706747,21.51089498191938],[-100.22656236541309,21.468519884521385],[-100.29978373191545,21.437966166225834],[-100.29883280507775,21.41923382703273],[-100.34447729328703,21.423053041819674],[-100.36634861055396,21.372675780106178],[-100.36412978126602,21.333756162753513],[-100.34257543961164,21.32229851839268],[-100.37268812280524,21.300656301266667],[-100.38251436679475,21.264282827105298],[-100.35208470798857,21.210813820088084],[-100.40565358651195,21.169529926914933],[-100.44369066001967,21.19208148089498],[-100.4852144652656,21.178623295455274],[-100.45922246503532,21.114969715672878],[-100.52864012418691,21.071139679308427],[-100.56636022208207,21.10096592812075],[-100.63641183245879,21.108604357694638],[-100.68237329628062,21.162437099453463],[-100.69346744272038,21.19608256305273],[-100.66303778391419,21.206085268447108],[-100.65574734482522,21.23354724143894],[-100.71660666243757,21.278832216769846],[-100.72167827223859,21.297928290704565],[-100.67223007667856,21.311932078256692],[-100.69758812568371,21.364855483161485],[-100.64306832032264,21.33630230594481],[-100.607884027328,21.334301764865934],[-100.59837475895107,21.391226251928476],[-100.63958158858443,21.40141082469366],[-100.67793563770472,21.39322679300735],[-100.70424461354756,21.45742597490217],[-100.70075788180935,21.5167147377852],[-100.74196471144272,21.511076849290188],[-100.69441836955806,21.534719607495077],[-100.73023661377783,21.535447076978304],[-100.75147397981965,21.580550184938403],[-100.71755758927526,21.549996466642853],[-100.68110539383036,21.547450323451557],[-100.6576491985006,21.524535034729894],[-100.63577788123366,21.543267373923],[-100.61485749080441,21.50580269553679],[-100.5847448076108,21.522352626280213],[-100.5340287096005,21.542358037068965],[-100.46429407483635,21.543085506552192],[-100.4557357332971,21.556179957250286],[-100.48584841649073,21.594372105119724],[-100.45953944064789,21.628381303460603],[-100.45129807472121,21.666209716588426],[-100.35018285431318,21.69148928113058],[-100.27759543903595,21.686578862118793]]]}},{"type":"Feature","properties":{"cvegeo":"11023","cve_ent":"11","state_code":"GUA","nom_mun":"Pénjamo"},"geometry":{"type":"Polygon","coordinates":[[[-101.77625613524019,20.622654742898746],[-101.7566036472612,20.605377342672096],[-101.71824959814091,20.608105353234198],[-101.71159311027706,20.56409344949894],[-101.74392462275863,20.56372971475733],[-101.72237028110425,20.537904548102755],[-101.63456803642393,20.547543518755518],[-101.60540628006801,20.526992505854345],[-101.61047788986903,20.44933513851982],[-101.59494608485338,20.43205773829317],[-101.61903623140827,20.377133792309504],[-101.64597915847624,20.350399288800897],[-101.62727759733494,20.303295639761924],[-101.62569271927212,20.266922165600555],[-101.64788101215163,20.238187121013073],[-101.68591808565935,20.218363577595127],[-101.69384247597345,20.191810941457327],[-101.72744189090528,20.211452617504467],[-101.76040735461197,20.201813646851704],[-101.7965425744443,20.212725689100115],[-101.83489662356459,20.224728935573367],[-101.9147744779308,20.194175217277817],[-101.90780101445439,20.215089964920605],[-101.93981555132339,20.227093211393857],[-101.95154364898828,20.2707413803875],[-101.93474394152236,20.297475883896105],[-101.9601019905275,20.30584178295322],[-101.94647203918724,20.343124593968625],[-101.99021467372113,20.36058386156608],[-102.02539896671577,20.34730754349718],[-102.0108180885378,20.379316200759185],[-102.09640150393018,20.384044752400165],[-102.06406999144862,20.4407873720919],[-102.06121721093554,20.44478845424965],[-102.00955018608755,20.544997375564222],[-101.9841921370824,20.53481280279904],[-101.96897730767931,20.56245664316168],[-101.92935535610877,20.56773079691508],[-101.93094023417159,20.545542977676643],[-101.89480501433925,20.5630022452741],[-101.85803584328178,20.53990508918163],[-101.84884355051743,20.57173187907283],[-101.80795369649663,20.58318952343366],[-101.80763672088406,20.607196016380165],[-101.77625613524019,20.622654742898746]]]}},{"type":"Feature","properties":{"cvegeo":"11037","cve_ent":"11","state_code":"GUA","nom_mun":"Silao"},"geometry":{"type":"Polygon","coordinates":[[[-101.54137720633001,20.942195713406374],[-101.58163310912568,20.976932381230483],[-101.57307476758643,21.02949205139366],[-101.49985340108408,21.010577844829747],[-101.48020091310508,21.11951639994305],[-101.47259349840354,21.152070659317474],[-101.43519037612094,21.13733940228212],[-101.43677525418377,21.098965387041876],[-101.4053946685399,21.100784060749945],[-101.40190793680169,21.071503414050042],[-101.34833905827831,21.032583796697377],[-101.35975018033064,21.01439705961669],[-101.3324902776501,20.992754842490676],[-101.34358442408985,20.923099639471655],[-101.31854335069727,20.883998154748184],[-101.35911622910551,20.839986251012927],[-101.40856442466554,20.84380546579987],[-101.4107832539535,20.800702898918647],[-101.45579379093763,20.79997542943542],[-101.46023144951353,20.847079078474394],[-101.50429105965998,20.85126202800295],[-101.49921944985894,20.91600681201019],[-101.54137720633001,20.942195713406374]]]}},{"type":"Feature","properties":{"cvegeo":"11001","cve_ent":"11","state_code":"GUA","nom_mun":"Abasolo"},"geometry":{"type":"Polygon","coordinates":[[[-101.52711330376461,20.749052565609503],[-101.54169418194257,20.731593298012047],[-101.50048735230921,20.659755686543342],[-101.49763457179613,20.59592023939014],[-101.47227652279098,20.572641215926865],[-101.50746081578562,20.561547306307645],[-101.49383086444536,20.508623901402853],[-101.44438266888531,20.500985471828965],[-101.400957009964,20.51571672886432],[-101.36704061941961,20.504077217132682],[-101.39525144893784,20.4753421725452],[-101.38003661953475,20.415325940178942],[-101.41205115640375,20.38549969136662],[-101.45769564461301,20.418053950741044],[-101.51316637681178,20.397866672581486],[-101.57497662126183,20.39113757986163],[-101.56388247482208,20.320391172617768],[-101.62727759733494,20.303295639761924],[-101.64597915847624,20.350399288800897],[-101.61903623140827,20.377133792309504],[-101.59494608485338,20.43205773829317],[-101.61047788986903,20.44933513851982],[-101.60540628006801,20.526992505854345],[-101.58068218228799,20.639022806271363],[-101.61745135334544,20.65648207386882],[-101.63710384132443,20.694674221738257],[-101.62347388998417,20.72104499050525],[-101.64534520725111,20.743232809743684],[-101.60065164587954,20.776878273342952],[-101.58924052382721,20.754690454104516],[-101.52711330376461,20.749052565609503]]]}},{"type":"Feature","properties":{"cvegeo":"11016","cve_ent":"11","state_code":"GUA","nom_mun":"Huanímaro"},"geometry":{"type":"Polygon","coordinates":[[[-101.41205115640375,20.38549969136662],[-101.45991447390097,20.323482917921485],[-101.46023144951353,20.323482917921485],[-101.50048735230921,20.311479671448232],[-101.52330959641384,20.33239441909102],[-101.56388247482208,20.320391172617768],[-101.57497662126183,20.39113757986163],[-101.51316637681178,20.397866672581486],[-101.45769564461301,20.418053950741044],[-101.41205115640375,20.38549969136662]]]}},{"type":"Feature","properties":{"cvegeo":"11029","cve_ent":"11","state_code":"GUA","nom_mun":"San Diego de la Unión"},"geometry":{"type":"Polygon","coordinates":[[[-100.75147397981965,21.580550184938403],[-100.73023661377783,21.535447076978304],[-100.69441836955806,21.534719607495077],[-100.74196471144272,21.511076849290188],[-100.70075788180935,21.5167147377852],[-100.70424461354756,21.45742597490217],[-100.67793563770472,21.39322679300735],[-100.63958158858443,21.40141082469366],[-100.59837475895107,21.391226251928476],[-100.607884027328,21.334301764865934],[-100.64306832032264,21.33630230594481],[-100.69758812568371,21.364855483161485],[-100.67223007667856,21.311932078256692],[-100.72167827223859,21.297928290704565],[-100.7990203217043,21.32229851839268],[-100.89981856649976,21.32411719210075],[-100.94641398154673,21.305202985536837],[-100.99808100639471,21.34994235875532],[-101.01741651876114,21.321025446797034],[-101.04055573847833,21.32593586580882],[-101.04182364092858,21.36558295264471],[-101.02375603101243,21.42159810285322],[-101.03960481164064,21.445422728428916],[-101.00949212844702,21.493799449063538],[-101.004420518646,21.539630026506863],[-100.93405193265671,21.56163597837449],[-100.93024822530595,21.59855505464828],[-100.8728756394318,21.594372105119724],[-100.8576608100287,21.618924200178647],[-100.80948051691892,21.592007829299234],[-100.75147397981965,21.580550184938403]]]}},{"type":"Feature","properties":{"cvegeo":"11044","cve_ent":"11","state_code":"GUA","nom_mun":"Villagrán"},"geometry":{"type":"Polygon","coordinates":[[[-100.91122968855208,20.56936760325234],[-100.91091271293952,20.565548388465395],[-100.90901085926413,20.51571672886432],[-100.96923622565136,20.502804145537034],[-101.03928783602808,20.509715105627695],[-101.08556627546247,20.52208208684256],[-101.08398139739965,20.561183571566033],[-101.06274403135784,20.5630022452741],[-101.0532347629809,20.55318140725053],[-101.05735544594424,20.579006573905104],[-101.02502393346268,20.56136543893684],[-100.95085164012262,20.582098319208818],[-100.91122968855208,20.56936760325234]]]}},{"type":"Feature","properties":{"cvegeo":"11035","cve_ent":"11","state_code":"GUA","nom_mun":"Santa Cruz de Juventino Rosas"},"geometry":{"type":"Polygon","coordinates":[[[-100.98888871363035,20.78851778507459],[-100.9670173963634,20.77978815127586],[-100.98001339647854,20.730502093787205],[-100.95687417676135,20.69740223230036],[-100.8842867614841,20.69794783441278],[-100.85195524900254,20.681397903669357],[-100.86051359054179,20.66102875813899],[-100.88492071270923,20.62883823350618],[-100.87414354188205,20.58500819714173],[-100.91122968855208,20.56936760325234],[-100.95085164012262,20.582098319208818],[-101.02502393346268,20.56136543893684],[-101.05735544594424,20.579006573905104],[-101.0532347629809,20.55318140725053],[-101.06274403135784,20.5630022452741],[-101.07447212902272,20.701221447087303],[-101.11314315375557,20.7117697545941],[-101.1093394464048,20.75505418884613],[-101.06718168993373,20.813979216987548],[-101.03326529938936,20.784698570287645],[-100.98888871363035,20.78851778507459]]]}},{"type":"Feature","properties":{"cvegeo":"11027","cve_ent":"11","state_code":"GUA","nom_mun":"Salamanca"},"geometry":{"type":"Polygon","coordinates":[[[-101.08905300720068,20.86508394818427],[-101.0871511535253,20.85999166180168],[-101.06718168993373,20.813979216987548],[-101.1093394464048,20.75505418884613],[-101.11314315375557,20.7117697545941],[-101.07447212902272,20.701221447087303],[-101.06274403135784,20.5630022452741],[-101.08398139739965,20.561183571566033],[-101.08556627546247,20.52208208684256],[-101.03928783602808,20.509715105627695],[-101.04404247021654,20.451517546969505],[-101.09412461700171,20.440423637350285],[-101.13121076367173,20.48989156220975],[-101.22693739866617,20.45570049649806],[-101.27828744790159,20.502258543424613],[-101.2817741796398,20.532630394349358],[-101.31315476528367,20.539177619698403],[-101.31188686283342,20.579915910759137],[-101.27670256983878,20.589373014041094],[-101.26275564288594,20.66102875813899],[-101.26560842339902,20.701221447087303],[-101.21203954487565,20.75669099518339],[-101.18699847148307,20.753781117250483],[-101.14198793449893,20.84780654795762],[-101.08905300720068,20.86508394818427]]]}},{"type":"Feature","properties":{"cvegeo":"11017","cve_ent":"11","state_code":"GUA","nom_mun":"Irapuato"},"geometry":{"type":"Polygon","coordinates":[[[-101.31188686283342,20.579915910759137],[-101.3467541802155,20.592646626715617],[-101.4187076442676,20.549362192463587],[-101.400957009964,20.51571672886432],[-101.44438266888531,20.500985471828965],[-101.49383086444536,20.508623901402853],[-101.50746081578562,20.561547306307645],[-101.47227652279098,20.572641215926865],[-101.49763457179613,20.59592023939014],[-101.50048735230921,20.659755686543342],[-101.54169418194257,20.731593298012047],[-101.52711330376461,20.749052565609503],[-101.45579379093763,20.79997542943542],[-101.4107832539535,20.800702898918647],[-101.40856442466554,20.84380546579987],[-101.35911622910551,20.839986251012927],[-101.27670256983878,20.83634890359679],[-101.21425837416359,20.824709391865152],[-101.14198793449893,20.84780654795762],[-101.18699847148307,20.753781117250483],[-101.21203954487565,20.75669099518339],[-101.26560842339902,20.701221447087303],[-101.26275564288594,20.66102875813899],[-101.27670256983878,20.589373014041094],[-101.31188686283342,20.579915910759137]]]}},{"type":"Feature","properties":{"cvegeo":"11026","cve_ent":"11","state_code":"GUA","nom_mun":"Romita"},"geometry":{"type":"Polygon","coordinates":[[[-101.63710384132443,20.694674221738257],[-101.69067271984781,20.69612916070471],[-101.70113291506243,20.72850155270833],[-101.68274832953371,20.789245254557816],[-101.74741135449683,20.78215242709635],[-101.73473232999426,20.79488314305283],[-101.70874032976398,20.81034186957141],[-101.6970122320991,20.893818992771752],[-101.68972179301012,20.86453834607185],[-101.64154149990034,20.928919395337473],[-101.58068218228799,20.921826567876007],[-101.54137720633001,20.942195713406374],[-101.49921944985894,20.91600681201019],[-101.50429105965998,20.85126202800295],[-101.46023144951353,20.847079078474394],[-101.45579379093763,20.79997542943542],[-101.52711330376461,20.749052565609503],[-101.58924052382721,20.754690454104516],[-101.60065164587954,20.776878273342952],[-101.64534520725111,20.743232809743684],[-101.62347388998417,20.72104499050525],[-101.63710384132443,20.694674221738257]]]}},{"type":"Feature","properties":{"cvegeo":"11015","cve_ent":"11","state_code":"GUA","nom_mun":"Guanajuato"},"geometry":{"type":"Polygon","coordinates":[[[-101.3866931073986,21.13843060650696],[-101.33312422887522,21.145705301339234],[-101.29572110659264,21.202811655772585],[-101.20379817894897,21.20754020741356],[-101.1733685201428,21.211359422200506],[-101.14737651991251,21.158436017295713],[-101.10870549517966,21.14825144453053],[-101.14610861746226,21.045496380024662],[-101.12677310509584,21.00766796689684],[-101.08461534862478,20.997847128873268],[-101.05703847033168,20.97929665705097],[-101.11314315375557,20.95328962302559],[-101.08905300720068,20.86508394818427],[-101.14198793449893,20.84780654795762],[-101.21425837416359,20.824709391865152],[-101.27670256983878,20.83634890359679],[-101.35911622910551,20.839986251012927],[-101.31854335069727,20.883998154748184],[-101.34358442408985,20.923099639471655],[-101.3324902776501,20.992754842490676],[-101.35975018033064,21.01439705961669],[-101.34833905827831,21.032583796697377],[-101.40190793680169,21.071503414050042],[-101.4053946685399,21.100784060749945],[-101.43677525418377,21.098965387041876],[-101.43519037612094,21.13733940228212],[-101.4275829614194,21.137703137023735],[-101.3866931073986,21.13843060650696]]]}},{"type":"Feature","properties":{"cvegeo":"11020","cve_ent":"11","state_code":"GUA","nom_mun":"León"},"geometry":{"type":"Polygon","coordinates":[[[-101.63266618274854,21.326845202662852],[-101.60825906058108,21.313932619335567],[-101.53725652336666,21.272466858791606],[-101.52267564518871,21.232274169843294],[-101.49826852302125,21.255189458564956],[-101.44374871766018,21.254098254340114],[-101.39081379036193,21.212450626425348],[-101.37306315605834,21.176259019634784],[-101.3866931073986,21.13843060650696],[-101.4275829614194,21.137703137023735],[-101.43519037612094,21.13733940228212],[-101.47259349840354,21.152070659317474],[-101.48020091310508,21.11951639994305],[-101.49985340108408,21.010577844829747],[-101.57307476758643,21.02949205139366],[-101.58163310912568,20.976932381230483],[-101.54137720633001,20.942195713406374],[-101.58068218228799,20.921826567876007],[-101.64154149990034,20.928919395337473],[-101.68972179301012,20.86453834607185],[-101.6970122320991,20.893818992771752],[-101.71603076885296,20.909823321402754],[-101.71286101272732,20.954380827250432],[-101.67133720748139,20.95110721457591],[-101.6684844269683,20.994027914086324],[-101.73536628121938,20.983115871837914],[-101.73061164703093,21.005121823705544],[-101.78418052555429,21.01621573332476],[-101.78576540361712,21.048769992699185],[-101.80890462333431,21.051861738002902],[-101.81777994048612,21.10678568398657],[-101.83362872111434,21.13733940228212],[-101.7876672572925,21.15643547621684],[-101.77372033033967,21.21972532125762],[-101.76864872053865,21.257735601756252],[-101.68655203688448,21.29410907591762],[-101.64344335357572,21.29938322967102],[-101.64597915847624,21.3281182742585],[-101.63266618274854,21.326845202662852]]]}},{"type":"Feature","properties":{"cvegeo":"11018","cve_ent":"11","state_code":"GUA","nom_mun":"Jaral del Progreso"},"geometry":{"type":"Polygon","coordinates":[[[-100.98413407944187,20.32821146956246],[-101.00568842109625,20.285290770052047],[-101.04182364092858,20.277288605736544],[-101.07859281198606,20.300567629199822],[-101.10997339762993,20.317117559943245],[-101.11219222691787,20.401322152626815],[-101.09412461700171,20.440423637350285],[-101.04404247021654,20.451517546969505],[-101.02122022611191,20.368949760623195],[-100.98001339647854,20.34858061509283],[-100.98413407944187,20.32821146956246]]]}},{"type":"Feature","properties":{"cvegeo":"11022","cve_ent":"11","state_code":"GUA","nom_mun":"Ocampo"},"geometry":{"type":"Polygon","coordinates":[[[-101.5708559382985,21.418506357549504],[-101.58924052382721,21.46470066973444],[-101.64090754867522,21.528717984258453],[-101.62283993875904,21.544722312889455],[-101.58638774331415,21.60783029055943],[-101.59367818240312,21.631654916135126],[-101.55785993818336,21.734955582753415],[-101.58004823106286,21.736228654349063],[-101.58575379208901,21.778785619117865],[-101.5388414014295,21.777694414893023],[-101.51063057191126,21.798791029906617],[-101.49636666934586,21.809884939525837],[-101.47386140085379,21.827344207123293],[-101.42314530284351,21.824979931302803],[-101.42694901019428,21.75496099354217],[-101.44343174204762,21.73586491960745],[-101.43994501030942,21.666755318700847],[-101.40476071731477,21.67057453348779],[-101.33819583867626,21.677667360949258],[-101.3635538876814,21.561454111003684],[-101.32203008243548,21.55599808987948],[-101.28589486260314,21.523261963134246],[-101.31695847263444,21.507257634503244],[-101.33946374112651,21.463427598138793],[-101.32868657029933,21.409776723750774],[-101.37116130238294,21.39740974253591],[-101.4053946685399,21.42050689862838],[-101.50080432792177,21.378859270713612],[-101.53091701111538,21.393772395119772],[-101.52647935253948,21.431782675618404],[-101.5708559382985,21.418506357549504]]]}},{"type":"Feature","properties":{"cvegeo":"11021","cve_ent":"11","state_code":"GUA","nom_mun":"Moroleón"},"geometry":{"type":"Polygon","coordinates":[[[-101.20284725211128,20.15016331354256],[-101.17907408116895,20.126702422708476],[-101.19967749598564,20.106151409807303],[-101.19650773986,20.057047219689455],[-101.16068949564023,20.03995168683361],[-101.20157934966102,20.025766031910678],[-101.20316422772385,20.00721556008838],[-101.23834852071849,20.032131389888917],[-101.29191739924187,20.03595060467586],[-101.3182263750847,20.04868132063234],[-101.324565887336,20.084145457939677],[-101.28811369189108,20.12415627951718],[-101.2684612039121,20.134158984911558],[-101.26624237462416,20.15525559992515],[-101.20284725211128,20.15016331354256]]]}},{"type":"Feature","properties":{"cvegeo":"11014","cve_ent":"11","state_code":"GUA","nom_mun":"Dolores Hidalgo Cuna de la Independencia Nacional"},"geometry":{"type":"Polygon","coordinates":[[[-100.7990203217043,21.32229851839268],[-100.72167827223859,21.297928290704565],[-100.71660666243757,21.278832216769846],[-100.65574734482522,21.23354724143894],[-100.66303778391419,21.206085268447108],[-100.69346744272038,21.19608256305273],[-100.68237329628062,21.162437099453463],[-100.63641183245879,21.108604357694638],[-100.70044090619679,21.106058214503342],[-100.76510393115991,21.090781355355567],[-100.82152559019637,21.061500708655664],[-100.8541740782905,21.066592995038256],[-100.83864227327484,21.01912561125767],[-100.91027876171438,21.00584929318877],[-100.92232383499183,20.96201925682432],[-100.9616288109498,20.951834684059136],[-100.99396032343138,20.921280965763586],[-101.02946159203859,20.885453093714638],[-101.0871511535253,20.85999166180168],[-101.08905300720068,20.86508394818427],[-101.11314315375557,20.95328962302559],[-101.05703847033168,20.97929665705097],[-101.08461534862478,20.997847128873268],[-101.12677310509584,21.00766796689684],[-101.14610861746226,21.045496380024662],[-101.10870549517966,21.14825144453053],[-101.14737651991251,21.158436017295713],[-101.1733685201428,21.211359422200506],[-101.20379817894897,21.20754020741356],[-101.18477964219511,21.23354724143894],[-101.10585271466658,21.257917469127058],[-101.11155827569274,21.29811015807537],[-101.08334744617451,21.313932619335567],[-101.08746812913786,21.2802871557363],[-101.05164988491809,21.28847118742261],[-101.04055573847833,21.32593586580882],[-101.01741651876114,21.321025446797034],[-100.99808100639471,21.34994235875532],[-100.94641398154673,21.305202985536837],[-100.89981856649976,21.32411719210075],[-100.7990203217043,21.32229851839268]]]}}]}