{"type":"FeatureCollection","features":[{"type":"Feature","properties":{"cvegeo":"13035","cve_ent":"13","state_code":"HID","nom_mun":"Metepec"},"geometry":{"type":"Polygon","coordinates":[[[-98.3113957142993,20.322391713696643],[-98.28445278723132,20.262739216072],[-98.2597286894513,20.21527183229141],[-98.27621142130465,20.205450994267842],[-98.33421795840393,20.187991726670383],[-98.36433064159753,20.20890647431317],[-98.39856400775449,20.224728935573367],[-98.41156000786962,20.283108361602366],[-98.39539425162884,20.315480753605982],[-98.39539425162884,20.315844488347597],[-98.3779605929378,20.31220714093146],[-98.33453493401649,20.328757071674882],[-98.3113957142993,20.322391713696643]]]}},{"type":"Feature","properties":{"cvegeo":"13007","cve_ent":"13","state_code":"HID","nom_mun":"Almoloya"},"geometry":{"type":"Polygon","coordinates":[[[-98.28350186039363,19.84699040640755],[-98.26733610415285,19.84335305899141],[-98.23500459167128,19.776971468646913],[-98.19443171326304,19.765331956915276],[-98.1956996157133,19.741507331339577],[-98.2552910308754,19.718592042617914],[-98.26543425047745,19.716955236280654],[-98.26733610415285,19.720228848955177],[-98.33168215350341,19.72222939003405],[-98.32375776318929,19.68531031376026],[-98.36686644649805,19.628022091956105],[-98.43628410564965,19.644572022699528],[-98.39888098336705,19.676035077849114],[-98.43438225197426,19.69476741704222],[-98.44325756912606,19.71950137947195],[-98.40268469071782,19.743871607160067],[-98.36433064159753,19.798068083660507],[-98.32090498267623,19.815345483887157],[-98.28350186039363,19.84699040640755]]]}},{"type":"Feature","properties":{"cvegeo":"13008","cve_ent":"13","state_code":"HID","nom_mun":"Apan"},"geometry":{"type":"Polygon","coordinates":[[[-98.3148824460375,19.85426510123982],[-98.28350186039363,19.84699040640755],[-98.32090498267623,19.815345483887157],[-98.36433064159753,19.798068083660507],[-98.40268469071782,19.743871607160067],[-98.44325756912606,19.71950137947195],[-98.43438225197426,19.69476741704222],[-98.39888098336705,19.676035077849114],[-98.43628410564965,19.644572022699528],[-98.36686644649805,19.628022091956105],[-98.38208127590114,19.609289752763],[-98.40965815419423,19.616564447595273],[-98.4917548378484,19.607289211684126],[-98.51933171614151,19.60237879267234],[-98.53581444799485,19.63420558256354],[-98.52852400890586,19.660940086072145],[-98.56085552138744,19.692221273850922],[-98.53486352115715,19.713863490976937],[-98.5335956187069,19.75223750621718],[-98.50094713061277,19.761694609499138],[-98.45403473995324,19.79970488999777],[-98.38556800763935,19.8377151704964],[-98.38556800763935,19.851718958048526],[-98.37700966610011,19.85972112236403],[-98.3148824460375,19.85426510123982]]]}},{"type":"Feature","properties":{"cvegeo":"13001","cve_ent":"13","state_code":"HID","nom_mun":"Acatlán"},"geometry":{"type":"Polygon","coordinates":[[[-98.4695665449689,20.335122429653122],[-98.45878937414172,20.33366749068667],[-98.42740878849784,20.326574663225202],[-98.40807327613142,20.321664244213416],[-98.39539425162884,20.315844488347597],[-98.39539425162884,20.315480753605982],[-98.41156000786962,20.283108361602366],[-98.39856400775449,20.224728935573367],[-98.36433064159753,20.20890647431317],[-98.37922849538806,20.16234842738662],[-98.36971922701113,20.140524342889798],[-98.40490352000577,20.135977658619627],[-98.47970976457096,20.0768707631074],[-98.51742986246612,20.099058582345837],[-98.4616421546548,20.194175217277817],[-98.465128886393,20.23382230411371],[-98.48700020365993,20.262375481330384],[-98.49777737448713,20.308933528256937],[-98.4695665449689,20.335122429653122]]]}},{"type":"Feature","properties":{"cvegeo":"13002","cve_ent":"13","state_code":"HID","nom_mun":"Acaxochitlán"},"geometry":{"type":"Polygon","coordinates":[[[-98.2597286894513,20.21527183229141],[-98.19221288397509,20.25801066443102],[-98.14688537137839,20.220364118674002],[-98.14783629821609,20.220727853415617],[-98.12976868829992,20.17653408230955],[-98.1361082005512,20.146889700868037],[-98.09807112704348,20.14379795556432],[-98.12818381023709,20.107242614032145],[-98.15797951781815,20.084145457939677],[-98.23278576238333,20.07177847672481],[-98.26480029925233,20.094875632817278],[-98.24768361617386,20.110516226706668],[-98.25750986016335,20.149981446171754],[-98.29301112877056,20.19344774779459],[-98.27621142130465,20.205450994267842],[-98.2597286894513,20.21527183229141]]]}},{"type":"Feature","properties":{"cvegeo":"13003","cve_ent":"13","state_code":"HID","nom_mun":"Actopan"},"geometry":{"type":"Polygon","coordinates":[[[-98.81570391388917,20.389318906153562],[-98.80365884061172,20.37113216907288],[-98.82045854807764,20.318390631538893],[-98.78400635263273,20.311479671448232],[-98.79827025519813,20.292201730142708],[-98.81475298705148,20.24764422429503],[-98.88226879252768,20.265649094004907],[-98.87751415833921,20.293838536479967],[-98.938056500339,20.252918378048427],[-98.94661484187824,20.18199010343376],[-98.96848615914519,20.187809859299577],[-98.99099142763725,20.18890106352442],[-98.97926332997237,20.19799443206476],[-98.9887725983493,20.3000220270874],[-98.95073552484158,20.31402581463953],[-98.95897689076826,20.352399829879772],[-98.94281113452747,20.32784773482085],[-98.90762684153283,20.337122970731997],[-98.91967191481028,20.363857474240604],[-98.91967191481028,20.36403934161141],[-98.91967191481028,20.363857474240604],[-98.91967191481028,20.36403934161141],[-98.91903796358514,20.364403076353025],[-98.90445708540719,20.435876953080115],[-98.81570391388917,20.389318906153562]]]}},{"type":"Feature","properties":{"cvegeo":"13004","cve_ent":"13","state_code":"HID","nom_mun":"Agua Blanca de Iturbide"},"geometry":{"type":"Polygon","coordinates":[[[-98.45878937414172,20.33366749068667],[-98.38620195886448,20.402595224222463],[-98.36084390985933,20.39968534628955],[-98.317418250938,20.428784125618648],[-98.29839971418416,20.40332269370569],[-98.31583337287519,20.354945973071068],[-98.33453493401649,20.328757071674882],[-98.3779605929378,20.31220714093146],[-98.39539425162884,20.315844488347597],[-98.40807327613142,20.321664244213416],[-98.42740878849784,20.326574663225202],[-98.45878937414172,20.33366749068667]]]}},{"type":"Feature","properties":{"cvegeo":"13006","cve_ent":"13","state_code":"HID","nom_mun":"Alfajayucan"},"geometry":{"type":"Polygon","coordinates":[[[-99.29275221079851,20.482435000006667],[-99.28958245467287,20.406414439009406],[-99.29402011324878,20.338941644440066],[-99.33966460145804,20.307114854548868],[-99.34727201615958,20.335668031765543],[-99.38150538231653,20.327484000079235],[-99.49688450528996,20.334394960169895],[-99.53111787144691,20.325665326371166],[-99.53682343247306,20.345852604530727],[-99.51938977378202,20.378406863905152],[-99.51209933469305,20.451881281711117],[-99.50988050540509,20.474069100949553],[-99.46835670015916,20.49498384859234],[-99.36597357730088,20.505168421357524],[-99.32444977205495,20.49261957277185],[-99.31715933296597,20.452245016452732],[-99.29275221079851,20.482435000006667]]]}},{"type":"Feature","properties":{"cvegeo":"13011","cve_ent":"13","state_code":"HID","nom_mun":"Atlapexco"},"geometry":{"type":"Polygon","coordinates":[[[-98.31678429971288,21.088417079535077],[-98.31868615338827,21.046041982137083],[-98.32027103145109,21.006031160559576],[-98.33928956820495,20.986389484512436],[-98.31266361674955,20.946014928193318],[-98.3148824460375,20.935284753315713],[-98.33928956820495,20.931283671157964],[-98.38017942222575,20.986935086624857],[-98.44325756912606,20.97820545282613],[-98.43660108126221,21.021126152336546],[-98.41599766644552,21.043677706316593],[-98.38081337345088,21.065138056071802],[-98.3735229343619,21.099510989154297],[-98.33009727544058,21.11187797036916],[-98.31678429971288,21.088417079535077]]]}},{"type":"Feature","properties":{"cvegeo":"13012","cve_ent":"13","state_code":"HID","nom_mun":"Atotonilco el Grande"},"geometry":{"type":"Polygon","coordinates":[[[-98.5503953261728,20.432603340405592],[-98.54912742372255,20.36476681109464],[-98.53486352115715,20.34694380875557],[-98.56244039945025,20.301476966053855],[-98.59033425335592,20.30638738506564],[-98.62995620492646,20.27637926888251],[-98.63217503421441,20.230548691439186],[-98.66418957108341,20.24527994847454],[-98.73329025462243,20.298567088120947],[-98.79827025519813,20.292201730142708],[-98.78400635263273,20.311479671448232],[-98.82045854807764,20.318390631538893],[-98.80365884061172,20.37113216907288],[-98.81570391388917,20.389318906153562],[-98.77291220619298,20.436422555192536],[-98.72283005940781,20.44933513851982],[-98.66228771740802,20.437695626788184],[-98.62361669267517,20.413507266470873],[-98.58906635090565,20.44024176997948],[-98.5503953261728,20.432603340405592]]]}},{"type":"Feature","properties":{"cvegeo":"13014","cve_ent":"13","state_code":"HID","nom_mun":"Calnali"},"geometry":{"type":"Polygon","coordinates":[[[-98.4242390323722,20.925463915292145],[-98.44040478861298,20.917825485718257],[-98.43818595932503,20.860173529172485],[-98.5060187404138,20.88599869582706],[-98.58367776549207,20.851080160632144],[-98.65309542464365,20.84507853739552],[-98.66926118088443,20.88927230850158],[-98.63154108298929,20.896728870704663],[-98.64897474168032,20.920371628909553],[-98.63344293666466,20.942741315518795],[-98.57987405814129,20.95801817466657],[-98.55641786281153,20.950197877721877],[-98.55641786281153,20.94928854086784],[-98.53961815534562,20.932738610124417],[-98.50887152092687,20.93201114064119],[-98.48161161824635,20.965838471611264],[-98.45023103260247,20.965838471611264],[-98.43026156901092,20.9614736547119],[-98.4242390323722,20.925463915292145]]]}},{"type":"Feature","properties":{"cvegeo":"13015","cve_ent":"13","state_code":"HID","nom_mun":"Cardonal"},"geometry":{"type":"Polygon","coordinates":[[[-98.94534693942799,20.642478286316692],[-98.94439601259029,20.642842021058307],[-98.93171698808771,20.652662859081875],[-98.94598089065312,20.584462595029308],[-98.96341454934415,20.57282308329767],[-98.94915064677876,20.525901301629503],[-98.99733093988854,20.457337302835324],[-99.03346615972087,20.446788995328525],[-99.06484674536475,20.416235277032975],[-99.09210664804527,20.434603881484467],[-99.13204557522839,20.472250427241484],[-99.09939708713426,20.52262768895498],[-99.13648323380428,20.536631476507107],[-99.17673913659996,20.70885987666119],[-99.13172859961583,20.713952163043782],[-99.1222193312389,20.746870157159822],[-99.0803785503804,20.768694241656643],[-99.08354830650605,20.750871239317572],[-99.03631894023395,20.77578706911811],[-99.00462137897752,20.73886799284432],[-99.02395689134394,20.7197719189096],[-99.00271952530214,20.652662859081875],[-98.96404850056928,20.630838774585055],[-98.94534693942799,20.642478286316692]]]}},{"type":"Feature","properties":{"cvegeo":"13016","cve_ent":"13","state_code":"HID","nom_mun":"Cuautepec de Hinojosa"},"geometry":{"type":"Polygon","coordinates":[[[-98.15797951781815,20.084145457939677],[-98.18080176192278,20.045407707957818],[-98.17382829844637,20.03358632885537],[-98.16685483496994,19.971569555410237],[-98.21598605491742,19.96847781010652],[-98.26797005537797,19.91610000731415],[-98.26987190905336,19.89536712704217],[-98.3148824460375,19.85426510123982],[-98.37700966610011,19.85972112236403],[-98.38556800763935,19.851718958048526],[-98.38208127590114,19.902096219762022],[-98.35989298302164,19.98811948615366],[-98.33643678769187,20.04468023847459],[-98.35545532444573,20.064685649263343],[-98.32375776318929,20.09596683704212],[-98.26480029925233,20.094875632817278],[-98.23278576238333,20.07177847672481],[-98.15797951781815,20.084145457939677]]]}},{"type":"Feature","properties":{"cvegeo":"13018","cve_ent":"13","state_code":"HID","nom_mun":"Chapulhuacán"},"geometry":{"type":"Polygon","coordinates":[[[-98.84708449953304,21.176259019634784],[-98.82457923104097,21.16098216048701],[-98.84074498728175,21.134247656978403],[-98.874027426601,21.141158617069063],[-98.89146108529205,21.096964845963],[-98.91713610990976,21.09860165230026],[-98.96182967128134,21.04495077791224],[-98.98655376906136,21.039494756788038],[-99.03695289145908,21.071685281420848],[-99.03917172074704,21.151525057205053],[-98.99923279356392,21.180805703904955],[-98.95865991515569,21.17644088700559],[-98.90382313418206,21.212632493796153],[-98.88258576814025,21.179532632309307],[-98.84708449953304,21.176259019634784]]]}},{"type":"Feature","properties":{"cvegeo":"13022","cve_ent":"13","state_code":"HID","nom_mun":"Epazoyucan"},"geometry":{"type":"Polygon","coordinates":[[[-98.59191913141873,20.099786051829064],[-98.57638732640308,20.07050540512916],[-98.62012996093696,20.01867320444921],[-98.58716449723028,19.99230243568222],[-98.65785005883212,19.954292155183587],[-98.66292166863315,19.98175412817542],[-98.71902635205704,19.990665629344956],[-98.7060303519419,20.02085561289889],[-98.66418957108341,20.067049925083833],[-98.66355561985829,20.109425022481826],[-98.61696020481132,20.090692683288722],[-98.60523210714643,20.117609054168135],[-98.60237932663337,20.11779092153894],[-98.59191913141873,20.099786051829064]]]}},{"type":"Feature","properties":{"cvegeo":"13024","cve_ent":"13","state_code":"HID","nom_mun":"Huasca de Ocampo"},"geometry":{"type":"Polygon","coordinates":[[[-98.53486352115715,20.34694380875557],[-98.4695665449689,20.335122429653122],[-98.49777737448713,20.308933528256937],[-98.48700020365993,20.262375481330384],[-98.465128886393,20.23382230411371],[-98.4616421546548,20.194175217277817],[-98.51742986246612,20.099058582345837],[-98.57353454589,20.12142826895508],[-98.56148947261256,20.179443960242462],[-98.58621357039257,20.165985774802756],[-98.62932225370133,20.189628533007646],[-98.63217503421441,20.230548691439186],[-98.62995620492646,20.27637926888251],[-98.59033425335592,20.30638738506564],[-98.56244039945025,20.301476966053855],[-98.53486352115715,20.34694380875557]]]}},{"type":"Feature","properties":{"cvegeo":"13025","cve_ent":"13","state_code":"HID","nom_mun":"Huautla"},"geometry":{"type":"Polygon","coordinates":[[[-98.28255093355594,21.136430065428087],[-98.24926849423667,21.12915537059581],[-98.22739717696973,21.150433852980214],[-98.18745824978663,21.110604898773513],[-98.15068907872916,21.08496159948975],[-98.16178322516892,21.018761876516056],[-98.19696751816356,21.016579468066375],[-98.21598605491742,20.952562153542363],[-98.23722342095922,20.932374875382806],[-98.23722342095922,20.930738069045542],[-98.31266361674955,20.946014928193318],[-98.33928956820495,20.986389484512436],[-98.32027103145109,21.006031160559576],[-98.31868615338827,21.046041982137083],[-98.31678429971288,21.088417079535077],[-98.28255093355594,21.136430065428087]]]}},{"type":"Feature","properties":{"cvegeo":"13026","cve_ent":"13","state_code":"HID","nom_mun":"Huazalingo"},"geometry":{"type":"Polygon","coordinates":[[[-98.41599766644552,21.043677706316593],[-98.43660108126221,21.021126152336546],[-98.44325756912606,20.97820545282613],[-98.45023103260247,20.965838471611264],[-98.48161161824635,20.965838471611264],[-98.50887152092687,20.93201114064119],[-98.53961815534562,20.932738610124417],[-98.54278791147127,20.958200042037376],[-98.5424709358587,20.963292328419968],[-98.54183698463358,20.965838471611264],[-98.54025210657075,20.967293410577717],[-98.54468976514664,20.969293951656596],[-98.54405581392152,20.97020328851063],[-98.54912742372255,20.975659309634835],[-98.53961815534562,20.982024667613075],[-98.53264469186921,21.021853621819773],[-98.50728664286406,21.05095240114887],[-98.48192859385891,21.037857950450775],[-98.41599766644552,21.043677706316593]]]}},{"type":"Feature","properties":{"cvegeo":"13027","cve_ent":"13","state_code":"HID","nom_mun":"Huehuetla"},"geometry":{"type":"Polygon","coordinates":[[[-97.98522780897058,20.516989800459967],[-97.98871454070878,20.495165715963147],[-98.01280468726367,20.46679440611728],[-98.02548371176624,20.448607669036594],[-98.07112819997552,20.429511595101875],[-98.09426741969271,20.38659089559146],[-98.10726341980785,20.404595765301337],[-98.1592474202684,20.38786396718711],[-98.17541317650918,20.410415521167156],[-98.10916527348323,20.442787913170775],[-98.12057639553555,20.45988344602662],[-98.06130195598601,20.532266659607743],[-98.06542263894936,20.53481280279904],[-98.07049424875038,20.569185735881533],[-98.09426741969271,20.57445988963493],[-98.10092390755656,20.613925109100016],[-98.0774677122268,20.65120792011542],[-98.06669054139961,20.67375947409547],[-98.03626088259344,20.633021183034735],[-98.00836702868777,20.532630394349358],[-97.98522780897058,20.516989800459967]]]}},{"type":"Feature","properties":{"cvegeo":"13028","cve_ent":"13","state_code":"HID","nom_mun":"Huejutla de Reyes"},"geometry":{"type":"Polygon","coordinates":[[[-98.51679591124099,21.244095548945737],[-98.46861561813121,21.24973343744075],[-98.48192859385891,21.229546159281192],[-98.45308381311555,21.203175390514197],[-98.4429405935135,21.178077693342853],[-98.42582391043501,21.16734751846525],[-98.4242390323722,21.16734751846525],[-98.42233717869681,21.163164568936693],[-98.36528156843522,21.161709629970236],[-98.34087444626778,21.16971179428574],[-98.3094938606239,21.184988653433514],[-98.29935064102185,21.179532632309307],[-98.2961808848962,21.187716663995616],[-98.28255093355594,21.136430065428087],[-98.31678429971288,21.088417079535077],[-98.33009727544058,21.11187797036916],[-98.3735229343619,21.099510989154297],[-98.38081337345088,21.065138056071802],[-98.41599766644552,21.043677706316593],[-98.48192859385891,21.037857950450775],[-98.50728664286406,21.05095240114887],[-98.53010888696869,21.042950236833367],[-98.57638732640308,21.057863361239527],[-98.61727718042388,21.09350936591767],[-98.60523210714643,21.13097404430388],[-98.57131571660206,21.144068495001974],[-98.56814596047641,21.146796505564076],[-98.56814596047641,21.146978372934882],[-98.56814596047641,21.146796505564076],[-98.56814596047641,21.146978372934882],[-98.56814596047641,21.147523975047303],[-98.56814596047641,21.14770584241811],[-98.56814596047641,21.147523975047303],[-98.56814596047641,21.14770584241811],[-98.56814596047641,21.147887709788918],[-98.56180644822513,21.154434935137964],[-98.55388205791101,21.110604898773513],[-98.51584498440329,21.125699890550482],[-98.4917548378484,21.14370476026036],[-98.52662215523048,21.196810032535957],[-98.55261415546076,21.20663087055953],[-98.55261415546076,21.209540748492437],[-98.51679591124099,21.244095548945737]]]}},{"type":"Feature","properties":{"cvegeo":"13030","cve_ent":"13","state_code":"HID","nom_mun":"Ixmiquilpan"},"geometry":{"type":"Polygon","coordinates":[[[-99.17673913659996,20.70885987666119],[-99.13648323380428,20.536631476507107],[-99.09939708713426,20.52262768895498],[-99.13204557522839,20.472250427241484],[-99.09210664804527,20.434603881484467],[-99.09210664804527,20.42987532984349],[-99.07942762354271,20.407141908492633],[-99.10383474571016,20.36876789325239],[-99.11366098969965,20.38022553761322],[-99.12950977032787,20.407141908492633],[-99.16374313648483,20.410415521167156],[-99.28958245467287,20.406414439009406],[-99.29275221079851,20.482435000006667],[-99.2813410887462,20.51171564670657],[-99.2483756250395,20.51753540257239],[-99.28546177170954,20.55045339668843],[-99.2724657715944,20.584462595029308],[-99.25630001535362,20.606104812155323],[-99.28355991803414,20.653935930677523],[-99.27436762526978,20.699039038637622],[-99.17673913659996,20.70885987666119]]]}},{"type":"Feature","properties":{"cvegeo":"13031","cve_ent":"13","state_code":"HID","nom_mun":"Jacala de Ledezma"},"geometry":{"type":"Polygon","coordinates":[[[-99.05787328188833,20.959291246262218],[-99.06769952587783,20.893091523288525],[-99.03885474513447,20.87144930616251],[-99.01730040348009,20.82816487191048],[-99.09210664804527,20.805067715818012],[-99.14345669728071,20.84907961955327],[-99.13141162400326,20.870176234566863],[-99.15835455107123,20.897092605446275],[-99.19892742947947,20.894364594884173],[-99.20558391734332,20.93201114064119],[-99.22777221022282,20.948015469272192],[-99.258201869029,20.988208158220505],[-99.22301757603435,21.032220061955762],[-99.26580928373055,21.04622384950789],[-99.24362099085104,21.103693938682852],[-99.1808598195633,21.126609227404515],[-99.15486781933302,21.109331827177865],[-99.08798596508194,20.997665261502462],[-99.05787328188833,20.959291246262218]]]}},{"type":"Feature","properties":{"cvegeo":"13032","cve_ent":"13","state_code":"HID","nom_mun":"Jaltocán"},"geometry":{"type":"Polygon","coordinates":[[[-98.51584498440329,21.125699890550482],[-98.55388205791101,21.110604898773513],[-98.56180644822513,21.154434935137964],[-98.52662215523048,21.196810032535957],[-98.4917548378484,21.14370476026036],[-98.51584498440329,21.125699890550482]]]}},{"type":"Feature","properties":{"cvegeo":"13033","cve_ent":"13","state_code":"HID","nom_mun":"Juárez Hidalgo"},"geometry":{"type":"Polygon","coordinates":[[[-98.77956869405683,20.799247959952194],[-98.77925171844427,20.799247959952194],[-98.82743201155405,20.770876650106324],[-98.87751415833921,20.787062846108135],[-98.87561230466383,20.825254993977573],[-98.8981175731559,20.84089558786696],[-98.86293328016126,20.902184891828867],[-98.82711503594149,20.86981249982525],[-98.78400635263273,20.852898834340213],[-98.77956869405683,20.799247959952194]]]}},{"type":"Feature","properties":{"cvegeo":"13034","cve_ent":"13","state_code":"HID","nom_mun":"Lolotla"},"geometry":{"type":"Polygon","coordinates":[[[-98.71966030328217,21.183897449208672],[-98.7326563033973,21.14825144453053],[-98.73519210829782,21.048769992699185],[-98.70729825439216,20.914551873043735],[-98.64897474168032,20.920371628909553],[-98.63154108298929,20.896728870704663],[-98.66926118088443,20.88927230850158],[-98.65309542464365,20.84507853739552],[-98.7025436202037,20.824345657123537],[-98.745969279125,20.830347280360165],[-98.70634732755447,20.863810876588623],[-98.76150108414066,20.894182727513368],[-98.7665726939417,20.945469326080897],[-98.74755415718784,20.953107755654784],[-98.7557955231145,20.98984496455777],[-98.73836186442347,21.000938874176985],[-98.7567464499522,21.060773239172438],[-98.78368937702017,21.071867148791654],[-98.73962976687372,21.11424224618965],[-98.74501835228732,21.155889874104417],[-98.76625571832913,21.164801375273953],[-98.765621767104,21.17425847855591],[-98.76847454761707,21.174440345926715],[-98.76910849884221,21.174440345926715],[-98.76847454761707,21.174440345926715],[-98.74121464493655,21.188989735591264],[-98.71966030328217,21.183897449208672]]]}},{"type":"Feature","properties":{"cvegeo":"13036","cve_ent":"13","state_code":"HID","nom_mun":"San Agustín Metzquititlán"},"geometry":{"type":"Polygon","coordinates":[[[-98.5060187404138,20.596102106760945],[-98.52630517961792,20.544269906080995],[-98.55800274087436,20.509169503515274],[-98.59730771683233,20.495711318075568],[-98.5503953261728,20.432603340405592],[-98.58906635090565,20.44024176997948],[-98.62361669267517,20.413507266470873],[-98.66228771740802,20.437695626788184],[-98.6936683030519,20.509169503515274],[-98.68130625416188,20.56409344949894],[-98.6473898636175,20.555181948329405],[-98.6429522050416,20.586645003478992],[-98.55102927739793,20.605377342672096],[-98.51996566736663,20.62465528397762],[-98.5060187404138,20.596102106760945]]]}},{"type":"Feature","properties":{"cvegeo":"13038","cve_ent":"13","state_code":"HID","nom_mun":"Mineral del Chico"},"geometry":{"type":"Polygon","coordinates":[[[-98.66418957108341,20.24527994847454],[-98.66101981495777,20.205632861638648],[-98.66101981495777,20.204177922672194],[-98.6607028393452,20.20399605530139],[-98.66101981495777,20.204177922672194],[-98.66101981495777,20.205632861638648],[-98.70286059581626,20.17562474545552],[-98.7380448888109,20.181444501321337],[-98.74818810841296,20.14434355767674],[-98.78685913314581,20.142343016597867],[-98.78051962089452,20.173442337005838],[-98.83725825554355,20.152709456733856],[-98.81475298705148,20.24764422429503],[-98.79827025519813,20.292201730142708],[-98.73329025462243,20.298567088120947],[-98.66418957108341,20.24527994847454]]]}},{"type":"Feature","properties":{"cvegeo":"13039","cve_ent":"13","state_code":"HID","nom_mun":"Mineral del Monte"},"geometry":{"type":"Polygon","coordinates":[[[-98.66101981495777,20.205632861638648],[-98.66101981495777,20.204177922672194],[-98.6607028393452,20.20399605530139],[-98.66672537598393,20.164530835836302],[-98.60523210714643,20.117609054168135],[-98.61696020481132,20.090692683288722],[-98.66355561985829,20.109425022481826],[-98.69430225427702,20.140706210260603],[-98.70286059581626,20.17562474545552],[-98.66101981495777,20.205632861638648]]]}},{"type":"Feature","properties":{"cvegeo":"13040","cve_ent":"13","state_code":"HID","nom_mun":"La Misión"},"geometry":{"type":"Polygon","coordinates":[[[-99.05502050137525,21.159527221520555],[-99.03917172074704,21.151525057205053],[-99.03695289145908,21.071685281420848],[-98.98655376906136,21.039494756788038],[-98.96182967128134,21.04495077791224],[-98.95834293954313,21.03185632721415],[-98.99067445202469,20.991845505636643],[-99.05058284279936,20.998756465727304],[-99.02395689134394,20.97293129907273],[-99.05787328188833,20.959291246262218],[-99.08798596508194,20.997665261502462],[-99.15486781933302,21.109331827177865],[-99.1808598195633,21.126609227404515],[-99.17578820976227,21.13843060650696],[-99.05502050137525,21.159527221520555]]]}},{"type":"Feature","properties":{"cvegeo":"13042","cve_ent":"13","state_code":"HID","nom_mun":"Molango de Escamilla"},"geometry":{"type":"Polygon","coordinates":[[[-98.7665726939417,20.945469326080897],[-98.76150108414066,20.894182727513368],[-98.70634732755447,20.863810876588623],[-98.745969279125,20.830347280360165],[-98.7025436202037,20.824345657123537],[-98.72187913257012,20.793791938827987],[-98.69303435182677,20.76432942475728],[-98.72536586430833,20.72268179684251],[-98.753259718214,20.74068666655239],[-98.77925171844427,20.799247959952194],[-98.77956869405683,20.799247959952194],[-98.78400635263273,20.852898834340213],[-98.82711503594149,20.86981249982525],[-98.86293328016126,20.902184891828867],[-98.8439147434074,20.936921559652976],[-98.86008049964818,20.972021962218697],[-98.765621767104,20.968202747431754],[-98.7665726939417,20.945469326080897]]]}},{"type":"Feature","properties":{"cvegeo":"13043","cve_ent":"13","state_code":"HID","nom_mun":"Nicolás Flores"},"geometry":{"type":"Polygon","coordinates":[[[-99.09210664804527,20.805067715818012],[-99.0803785503804,20.768694241656643],[-99.1222193312389,20.746870157159822],[-99.13172859961583,20.713952163043782],[-99.17673913659996,20.70885987666119],[-99.27436762526978,20.699039038637622],[-99.25249630800285,20.76269261842002],[-99.2252364053223,20.770876650106324],[-99.2350626493118,20.807431991638502],[-99.21097250275692,20.818344033886913],[-99.2030481124428,20.870721836679284],[-99.19892742947947,20.894364594884173],[-99.15835455107123,20.897092605446275],[-99.13141162400326,20.870176234566863],[-99.14345669728071,20.84907961955327],[-99.09210664804527,20.805067715818012]]]}},{"type":"Feature","properties":{"cvegeo":"13045","cve_ent":"13","state_code":"HID","nom_mun":"Omitlán de Juárez"},"geometry":{"type":"Polygon","coordinates":[[[-98.63217503421441,20.230548691439186],[-98.62932225370133,20.189628533007646],[-98.58621357039257,20.165985774802756],[-98.56148947261256,20.179443960242462],[-98.57353454589,20.12142826895508],[-98.60237932663337,20.11779092153894],[-98.60523210714643,20.117609054168135],[-98.66672537598393,20.164530835836302],[-98.6607028393452,20.20399605530139],[-98.66101981495777,20.204177922672194],[-98.66101981495777,20.205632861638648],[-98.66418957108341,20.24527994847454],[-98.63217503421441,20.230548691439186]]]}},{"type":"Feature","properties":{"cvegeo":"13046","cve_ent":"13","state_code":"HID","nom_mun":"San Felipe Orizatlán"},"geometry":{"type":"Polygon","coordinates":[[[-98.46734771568094,21.378495535971997],[-98.46639678884326,21.365219217903096],[-98.46924956935634,21.358853859924857],[-98.49777737448713,21.327936406887694],[-98.54405581392152,21.263919092363686],[-98.51679591124099,21.244095548945737],[-98.55261415546076,21.209540748492437],[-98.55261415546076,21.20663087055953],[-98.52662215523048,21.196810032535957],[-98.56180644822513,21.154434935137964],[-98.56814596047641,21.147887709788918],[-98.56814596047641,21.14770584241811],[-98.56814596047641,21.147523975047303],[-98.56814596047641,21.14770584241811],[-98.56814596047641,21.147523975047303],[-98.56814596047641,21.146978372934882],[-98.56814596047641,21.146796505564076],[-98.56814596047641,21.146978372934882],[-98.56814596047641,21.146796505564076],[-98.57131571660206,21.144068495001974],[-98.60523210714643,21.13097404430388],[-98.61727718042388,21.09350936591767],[-98.65816703444469,21.120789471538696],[-98.67021210772214,21.157890415183292],[-98.69113249815138,21.16734751846525],[-98.68257415661215,21.2006292473229],[-98.63946547330339,21.183169979725445],[-98.60935279010978,21.200992982064516],[-98.59952654612029,21.292108534838746],[-98.6277373756385,21.31084087403185],[-98.68352508344984,21.34194019443982],[-98.64390313187928,21.36631042212794],[-98.60174537540823,21.35830825781244],[-98.53930117973306,21.38358782235459],[-98.51647893562843,21.361218135745347],[-98.50443386235098,21.389407578220407],[-98.46734771568094,21.378495535971997]]]}},{"type":"Feature","properties":{"cvegeo":"13047","cve_ent":"13","state_code":"HID","nom_mun":"Pacula"},"geometry":{"type":"Polygon","coordinates":[[[-99.24362099085104,21.103693938682852],[-99.26580928373055,21.04622384950789],[-99.22301757603435,21.032220061955762],[-99.258201869029,20.988208158220505],[-99.22777221022282,20.948015469272192],[-99.25534908851591,20.899456881266765],[-99.334592991657,20.86344714184701],[-99.33395904043188,20.889817910614003],[-99.37104518710191,20.881088276815273],[-99.40432762642116,20.928919395337473],[-99.38435816282961,21.009668507975714],[-99.36375474801292,21.04858812532838],[-99.398622065395,21.088417079535077],[-99.3897467482432,21.102420867087204],[-99.34632108932189,21.10096592812075],[-99.3364948453324,21.130064707449847],[-99.30860099142673,21.147160240305688],[-99.24362099085104,21.103693938682852]]]}},{"type":"Feature","properties":{"cvegeo":"13049","cve_ent":"13","state_code":"HID","nom_mun":"Pisaflores"},"geometry":{"type":"Polygon","coordinates":[[[-98.94281113452747,21.30265684234554],[-98.93298489053798,21.29811015807537],[-98.90382313418206,21.212632493796153],[-98.95865991515569,21.17644088700559],[-98.99923279356392,21.180805703904955],[-99.03917172074704,21.151525057205053],[-99.05502050137525,21.159527221520555],[-99.05406957453756,21.163528303678305],[-99.05248469647474,21.219543453886814],[-99.07372206251655,21.23882139519234],[-99.05502050137525,21.282287696815175],[-98.94534693942799,21.31138647614427],[-98.94281113452747,21.30265684234554]]]}},{"type":"Feature","properties":{"cvegeo":"13051","cve_ent":"13","state_code":"HID","nom_mun":"Mineral de la Reforma"},"geometry":{"type":"Polygon","coordinates":[[[-98.66355561985829,20.109425022481826],[-98.66418957108341,20.067049925083833],[-98.7060303519419,20.02085561289889],[-98.71902635205704,19.990665629344956],[-98.77196127935528,19.98520960822075],[-98.77386313303067,20.02394735820261],[-98.74945601086321,20.08960147906388],[-98.69430225427702,20.140706210260603],[-98.66355561985829,20.109425022481826]]]}},{"type":"Feature","properties":{"cvegeo":"13053","cve_ent":"13","state_code":"HID","nom_mun":"San Bartolo Tutotepec"},"geometry":{"type":"Polygon","coordinates":[[[-98.317418250938,20.428784125618648],[-98.27494351885439,20.481343795781825],[-98.26384937241464,20.491346501176203],[-98.21218234756665,20.5284474448208],[-98.17319434722123,20.529720516416447],[-98.1227952248235,20.585735666624956],[-98.11138410277118,20.6161075175497],[-98.10092390755656,20.613925109100016],[-98.09426741969271,20.57445988963493],[-98.07049424875038,20.569185735881533],[-98.06542263894936,20.53481280279904],[-98.06130195598601,20.532266659607743],[-98.12057639553555,20.45988344602662],[-98.10916527348323,20.442787913170775],[-98.17541317650918,20.410415521167156],[-98.20774468899074,20.382226078692096],[-98.25687590893823,20.381680476579675],[-98.3113957142993,20.322391713696643],[-98.33453493401649,20.328757071674882],[-98.31583337287519,20.354945973071068],[-98.29839971418416,20.40332269370569],[-98.317418250938,20.428784125618648]]]}},{"type":"Feature","properties":{"cvegeo":"13055","cve_ent":"13","state_code":"HID","nom_mun":"Santiago de Anaya"},"geometry":{"type":"Polygon","coordinates":[[[-98.90445708540719,20.435876953080115],[-98.91903796358514,20.364403076353025],[-98.91967191481028,20.36403934161141],[-98.91967191481028,20.363857474240604],[-98.91967191481028,20.36403934161141],[-98.91967191481028,20.363857474240604],[-98.90762684153283,20.337122970731997],[-98.94281113452747,20.32784773482085],[-98.95897689076826,20.352399829879772],[-99.01064391561624,20.342033389743783],[-99.05914118433859,20.356764646779137],[-99.09083874559502,20.347671278238796],[-99.10383474571016,20.36876789325239],[-99.07942762354271,20.407141908492633],[-99.09210664804527,20.42987532984349],[-99.09210664804527,20.434603881484467],[-99.06484674536475,20.416235277032975],[-99.03346615972087,20.446788995328525],[-98.99733093988854,20.457337302835324],[-98.94915064677876,20.525901301629503],[-98.94915064677876,20.499166798120896],[-98.91523425623437,20.4966206549296],[-98.8927289877423,20.444606586878844],[-98.90445708540719,20.435876953080115]]]}},{"type":"Feature","properties":{"cvegeo":"13056","cve_ent":"13","state_code":"HID","nom_mun":"Santiago Tulantepec de Lugo Guerrero"},"geometry":{"type":"Polygon","coordinates":[[[-98.36401366598497,20.06595872085899],[-98.35545532444573,20.064685649263343],[-98.33643678769187,20.04468023847459],[-98.35989298302164,19.98811948615366],[-98.39254147111576,19.98939255774931],[-98.388737763765,20.019218806561632],[-98.41663161767065,20.020128143415665],[-98.45942332536684,20.052500535419284],[-98.43279737391144,20.06541311874657],[-98.36401366598497,20.06595872085899]]]}},{"type":"Feature","properties":{"cvegeo":"13057","cve_ent":"13","state_code":"HID","nom_mun":"Singuilucan"},"geometry":{"type":"Polygon","coordinates":[[[-98.57353454589,20.12142826895508],[-98.51742986246612,20.099058582345837],[-98.47970976457096,20.0768707631074],[-98.45942332536684,20.052500535419284],[-98.41663161767065,20.020128143415665],[-98.388737763765,20.019218806561632],[-98.39254147111576,19.98939255774931],[-98.35989298302164,19.98811948615366],[-98.38208127590114,19.902096219762022],[-98.42202020308424,19.91610000731415],[-98.4410387398381,19.877180389961485],[-98.50063015500021,19.868632623533564],[-98.53739932605767,19.887364962726668],[-98.52979191135613,19.91664560942657],[-98.59445493631925,19.956292696262462],[-98.57987405814129,19.98757388404124],[-98.58716449723028,19.99230243568222],[-98.62012996093696,20.01867320444921],[-98.57638732640308,20.07050540512916],[-98.59191913141873,20.099786051829064],[-98.60237932663337,20.11779092153894],[-98.57353454589,20.12142826895508]]]}},{"type":"Feature","properties":{"cvegeo":"13058","cve_ent":"13","state_code":"HID","nom_mun":"Tasquillo"},"geometry":{"type":"Polygon","coordinates":[[[-99.2724657715944,20.584462595029308],[-99.28546177170954,20.55045339668843],[-99.2483756250395,20.51753540257239],[-99.2813410887462,20.51171564670657],[-99.29275221079851,20.482435000006667],[-99.31715933296597,20.452245016452732],[-99.32444977205495,20.49261957277185],[-99.36597357730088,20.505168421357524],[-99.46835670015916,20.49498384859234],[-99.48737523691302,20.569185735881533],[-99.4537758219812,20.60865095534662],[-99.39386743120654,20.603558668964027],[-99.36343777240036,20.57736976756784],[-99.31208772316494,20.573004950668476],[-99.28324294242158,20.60919655745904],[-99.2724657715944,20.584462595029308]]]}},{"type":"Feature","properties":{"cvegeo":"13060","cve_ent":"13","state_code":"HID","nom_mun":"Tenango de Doria"},"geometry":{"type":"Polygon","coordinates":[[[-98.09426741969271,20.38659089559146],[-98.09997298071887,20.382226078692096],[-98.11296898083401,20.35421850358784],[-98.12659893217428,20.33694110336119],[-98.1814357131479,20.33639550124877],[-98.19062800591227,20.293838536479967],[-98.25465707965027,20.30129509868305],[-98.28445278723132,20.262739216072],[-98.3113957142993,20.322391713696643],[-98.25687590893823,20.381680476579675],[-98.20774468899074,20.382226078692096],[-98.17541317650918,20.410415521167156],[-98.1592474202684,20.38786396718711],[-98.10726341980785,20.404595765301337],[-98.09426741969271,20.38659089559146]]]}},{"type":"Feature","properties":{"cvegeo":"13062","cve_ent":"13","state_code":"HID","nom_mun":"Tepehuacán de Guerrero"},"geometry":{"type":"Polygon","coordinates":[[[-98.76910849884221,21.174440345926715],[-98.76847454761707,21.174440345926715],[-98.765621767104,21.17425847855591],[-98.76625571832913,21.164801375273953],[-98.74501835228732,21.155889874104417],[-98.73962976687372,21.11424224618965],[-98.78368937702017,21.071867148791654],[-98.7567464499522,21.060773239172438],[-98.73836186442347,21.000938874176985],[-98.7557955231145,20.98984496455777],[-98.74755415718784,20.953107755654784],[-98.7665726939417,20.945469326080897],[-98.765621767104,20.968202747431754],[-98.86008049964818,20.972021962218697],[-98.87688020711408,20.996210322536008],[-98.92791328073695,20.98511641291679],[-98.95834293954313,21.03185632721415],[-98.96182967128134,21.04495077791224],[-98.91713610990976,21.09860165230026],[-98.89146108529205,21.096964845963],[-98.874027426601,21.141158617069063],[-98.84074498728175,21.134247656978403],[-98.82457923104097,21.16098216048701],[-98.76910849884221,21.174440345926715]]]}},{"type":"Feature","properties":{"cvegeo":"13068","cve_ent":"13","state_code":"HID","nom_mun":"Tianguistengo"},"geometry":{"type":"Polygon","coordinates":[[[-98.42518995920989,20.84962522166569],[-98.44389152035119,20.83416649514711],[-98.46449493516786,20.77451399752246],[-98.45308381311555,20.748325096126276],[-98.53232771625665,20.71340656093136],[-98.53232771625665,20.713224693560555],[-98.53232771625665,20.71340656093136],[-98.55293113107332,20.734139441203343],[-98.56307435067538,20.705586263986667],[-98.64675591239236,20.67648748465757],[-98.64612196116724,20.697220364929553],[-98.66926118088443,20.705768131357473],[-98.65277844903109,20.748325096126276],[-98.58177591181668,20.76542062898212],[-98.56434225312564,20.789972724041043],[-98.58748147284284,20.812888012762706],[-98.51013942337714,20.868175693487988],[-98.5060187404138,20.88599869582706],[-98.43818595932503,20.860173529172485],[-98.42518995920989,20.84962522166569]]]}},{"type":"Feature","properties":{"cvegeo":"13071","cve_ent":"13","state_code":"HID","nom_mun":"Tlahuiltepa"},"geometry":{"type":"Polygon","coordinates":[[[-98.95834293954313,21.03185632721415],[-98.92791328073695,20.98511641291679],[-98.87688020711408,20.996210322536008],[-98.86008049964818,20.972021962218697],[-98.8439147434074,20.936921559652976],[-98.86293328016126,20.902184891828867],[-98.8981175731559,20.84089558786696],[-98.94217718330235,20.785971641883293],[-98.93520371982592,20.76305635316163],[-98.98591981783622,20.735594380169797],[-98.95580713464261,20.69103687432212],[-98.94534693942799,20.642478286316692],[-98.96404850056928,20.630838774585055],[-99.00271952530214,20.652662859081875],[-99.02395689134394,20.7197719189096],[-99.00462137897752,20.73886799284432],[-99.03631894023395,20.77578706911811],[-99.08354830650605,20.750871239317572],[-99.0803785503804,20.768694241656643],[-99.09210664804527,20.805067715818012],[-99.01730040348009,20.82816487191048],[-99.03885474513447,20.87144930616251],[-99.06769952587783,20.893091523288525],[-99.05787328188833,20.959291246262218],[-99.02395689134394,20.97293129907273],[-99.05058284279936,20.998756465727304],[-98.99067445202469,20.991845505636643],[-98.95834293954313,21.03185632721415]]]}},{"type":"Feature","properties":{"cvegeo":"13073","cve_ent":"13","state_code":"HID","nom_mun":"Tlanchinol"},"geometry":{"type":"Polygon","coordinates":[[[-98.69683805917754,21.161709629970236],[-98.69113249815138,21.16734751846525],[-98.67021210772214,21.157890415183292],[-98.65816703444469,21.120789471538696],[-98.61727718042388,21.09350936591767],[-98.57638732640308,21.057863361239527],[-98.53010888696869,21.042950236833367],[-98.50728664286406,21.05095240114887],[-98.53264469186921,21.021853621819773],[-98.53961815534562,20.982024667613075],[-98.54912742372255,20.975659309634835],[-98.54405581392152,20.97020328851063],[-98.54468976514664,20.969293951656596],[-98.54025210657075,20.967293410577717],[-98.54183698463358,20.965838471611264],[-98.5424709358587,20.963292328419968],[-98.54278791147127,20.958200042037376],[-98.53961815534562,20.932738610124417],[-98.55641786281153,20.94928854086784],[-98.55641786281153,20.950197877721877],[-98.57987405814129,20.95801817466657],[-98.63344293666466,20.942741315518795],[-98.64897474168032,20.920371628909553],[-98.70729825439216,20.914551873043735],[-98.73519210829782,21.048769992699185],[-98.7326563033973,21.14825144453053],[-98.71966030328217,21.183897449208672],[-98.71490566909371,21.18335184709625],[-98.69683805917754,21.161709629970236]]]}},{"type":"Feature","properties":{"cvegeo":"13077","cve_ent":"13","state_code":"HID","nom_mun":"Tulancingo de Bravo"},"geometry":{"type":"Polygon","coordinates":[[[-98.27621142130465,20.205450994267842],[-98.29301112877056,20.19344774779459],[-98.25750986016335,20.149981446171754],[-98.24768361617386,20.110516226706668],[-98.26480029925233,20.094875632817278],[-98.32375776318929,20.09596683704212],[-98.35545532444573,20.064685649263343],[-98.36401366598497,20.06595872085899],[-98.43279737391144,20.06541311874657],[-98.45942332536684,20.052500535419284],[-98.47970976457096,20.0768707631074],[-98.40490352000577,20.135977658619627],[-98.36971922701113,20.140524342889798],[-98.37922849538806,20.16234842738662],[-98.36433064159753,20.20890647431317],[-98.33421795840393,20.187991726670383],[-98.27621142130465,20.205450994267842]]]}},{"type":"Feature","properties":{"cvegeo":"13078","cve_ent":"13","state_code":"HID","nom_mun":"Xochiatipan"},"geometry":{"type":"Polygon","coordinates":[[[-98.23722342095922,20.930738069045542],[-98.22517834768179,20.90654970872823],[-98.26543425047745,20.86635701977992],[-98.25402312842515,20.82143577919063],[-98.22517834768179,20.817980299145297],[-98.24800059178642,20.789245254557816],[-98.30473922643544,20.78215242709635],[-98.29998459224697,20.800157296806226],[-98.34372722678086,20.797974888356546],[-98.31519942165006,20.809614400088183],[-98.35323649515779,20.83580330148437],[-98.34499512923111,20.864902080813465],[-98.29586390928364,20.915461209897767],[-98.3148824460375,20.935284753315713],[-98.31266361674955,20.946014928193318],[-98.23722342095922,20.930738069045542]]]}},{"type":"Feature","properties":{"cvegeo":"13079","cve_ent":"13","state_code":"HID","nom_mun":"Xochicoatlán"},"geometry":{"type":"Polygon","coordinates":[[[-98.58748147284284,20.812888012762706],[-98.56434225312564,20.789972724041043],[-98.58177591181668,20.76542062898212],[-98.65277844903109,20.748325096126276],[-98.66926118088443,20.705768131357473],[-98.71236986419319,20.692309945917767],[-98.72536586430833,20.72268179684251],[-98.69303435182677,20.76432942475728],[-98.72187913257012,20.793791938827987],[-98.7025436202037,20.824345657123537],[-98.65309542464365,20.84507853739552],[-98.58367776549207,20.851080160632144],[-98.5060187404138,20.88599869582706],[-98.51013942337714,20.868175693487988],[-98.58748147284284,20.812888012762706]]]}},{"type":"Feature","properties":{"cvegeo":"13080","cve_ent":"13","state_code":"HID","nom_mun":"Yahualica"},"geometry":{"type":"Polygon","coordinates":[[[-98.34499512923111,20.864902080813465],[-98.42518995920989,20.84962522166569],[-98.43818595932503,20.860173529172485],[-98.44040478861298,20.917825485718257],[-98.4242390323722,20.925463915292145],[-98.43026156901092,20.9614736547119],[-98.45023103260247,20.965838471611264],[-98.44325756912606,20.97820545282613],[-98.38017942222575,20.986935086624857],[-98.33928956820495,20.931283671157964],[-98.3148824460375,20.935284753315713],[-98.29586390928364,20.915461209897767],[-98.34499512923111,20.864902080813465]]]}},{"type":"Feature","properties":{"cvegeo":"13081","cve_ent":"13","state_code":"HID","nom_mun":"Zacualtipán de Ángeles"},"geometry":{"type":"Polygon","coordinates":[[[-98.53232771625665,20.713224693560555],[-98.55007835056024,20.68921820061405],[-98.52503727716766,20.681579771040163],[-98.46005727659197,20.715043367268624],[-98.42582391043501,20.748870698238697],[-98.42931064217322,20.716498306235078],[-98.44959708137735,20.700493977604076],[-98.46386098394274,20.667030381375618],[-98.49492459397405,20.64429696002476],[-98.48066069140864,20.588463677187057],[-98.5060187404138,20.596102106760945],[-98.51996566736663,20.62465528397762],[-98.55102927739793,20.605377342672096],[-98.6429522050416,20.586645003478992],[-98.6473898636175,20.555181948329405],[-98.68130625416188,20.56409344949894],[-98.68352508344984,20.61556191543728],[-98.71236986419319,20.692309945917767],[-98.66926118088443,20.705768131357473],[-98.64612196116724,20.697220364929553],[-98.64675591239236,20.67648748465757],[-98.56307435067538,20.705586263986667],[-98.55293113107332,20.734139441203343],[-98.53232771625665,20.71340656093136],[-98.53232771625665,20.713224693560555]]]}},{"type":"Feature","properties":{"cvegeo":"13084","cve_ent":"13","state_code":"HID","nom_mun":"Zimapán"},"geometry":{"type":"Polygon","coordinates":[[[-99.19892742947947,20.894364594884173],[-99.2030481124428,20.870721836679284],[-99.21097250275692,20.818344033886913],[-99.2350626493118,20.807431991638502],[-99.2252364053223,20.770876650106324],[-99.25249630800285,20.76269261842002],[-99.27436762526978,20.699039038637622],[-99.28355991803414,20.653935930677523],[-99.25630001535362,20.606104812155323],[-99.2724657715944,20.584462595029308],[-99.28324294242158,20.60919655745904],[-99.31208772316494,20.573004950668476],[-99.36343777240036,20.57736976756784],[-99.39386743120654,20.603558668964027],[-99.4537758219812,20.60865095534662],[-99.45028909024299,20.626292090314884],[-99.50227309070355,20.659028217060115],[-99.53048392022177,20.70485879450344],[-99.54855153013794,20.73723118650706],[-99.4902280174261,20.796701816760898],[-99.48262060272455,20.8392587815297],[-99.45599465126915,20.849443354294884],[-99.40432762642116,20.928919395337473],[-99.37104518710191,20.881088276815273],[-99.33395904043188,20.889817910614003],[-99.334592991657,20.86344714184701],[-99.25534908851591,20.899456881266765],[-99.22777221022282,20.948015469272192],[-99.20558391734332,20.93201114064119],[-99.19892742947947,20.894364594884173]]]}},{"type":"Feature","properties":{"cvegeo":"13072","cve_ent":"13","state_code":"HID","nom_mun":"Tlanalapa"},"geometry":{"type":"Polygon","coordinates":[[[-98.55546693597384,19.88900176906393],[-98.53739932605767,19.887364962726668],[-98.50063015500021,19.868632623533564],[-98.5148940575656,19.844080528474638],[-98.55673483842409,19.8537194991274],[-98.58811542406796,19.822983913461044],[-98.5789231313036,19.79552194046921],[-98.59699074121977,19.765695691656887],[-98.63978244891595,19.810798799616986],[-98.66101981495777,19.83462342519268],[-98.61252254623543,19.848445345374003],[-98.55546693597384,19.88900176906393]]]}},{"type":"Feature","properties":{"cvegeo":"13021","cve_ent":"13","state_code":"HID","nom_mun":"Emiliano Zapata"},"geometry":{"type":"Polygon","coordinates":[[[-98.60808488765952,19.724957400596153],[-98.56941386292667,19.720956318438404],[-98.56085552138744,19.692221273850922],[-98.52852400890586,19.660940086072145],[-98.53581444799485,19.63420558256354],[-98.5503953261728,19.61856498867415],[-98.57924010691616,19.637842929979676],[-98.61347347307311,19.601105721076692],[-98.66545747353366,19.606198007459284],[-98.66482352230854,19.660394483959724],[-98.6198129853244,19.660940086072145],[-98.63280898543954,19.72222939003405],[-98.60808488765952,19.724957400596153]]]}},{"type":"Feature","properties":{"cvegeo":"13059","cve_ent":"13","state_code":"HID","nom_mun":"Tecozautla"},"geometry":{"type":"Polygon","coordinates":[[[-99.4537758219812,20.60865095534662],[-99.48737523691302,20.569185735881533],[-99.46835670015916,20.49498384859234],[-99.50988050540509,20.474069100949553],[-99.54918548136307,20.47661524414085],[-99.53967621298614,20.51171564670657],[-99.58817348170848,20.509715105627695],[-99.62969728695441,20.450426342744663],[-99.66297972627368,20.47752458099488],[-99.72954460491219,20.460065313397426],[-99.76124216616861,20.42005449181992],[-99.78564928833607,20.4620658544763],[-99.83541445950868,20.480980061040214],[-99.8281240204197,20.542451232372926],[-99.73525016593834,20.564820918982168],[-99.63445192114288,20.6055592100429],[-99.62430870154083,20.593374096198843],[-99.57359260353053,20.634839856742804],[-99.50227309070355,20.659028217060115],[-99.45028909024299,20.626292090314884],[-99.4537758219812,20.60865095534662]]]}},{"type":"Feature","properties":{"cvegeo":"13020","cve_ent":"13","state_code":"HID","nom_mun":"Eloxochitlán"},"geometry":{"type":"Polygon","coordinates":[[[-98.77925171844427,20.799247959952194],[-98.77956869405683,20.799247959952194],[-98.77925171844427,20.799247959952194],[-98.753259718214,20.74068666655239],[-98.82806596277918,20.717771377830726],[-98.81475298705148,20.69612916070471],[-98.84232986534457,20.67648748465757],[-98.84423171901996,20.712497224077328],[-98.88955923161666,20.71577083675185],[-98.89019318284178,20.663211166588674],[-98.93171698808771,20.652662859081875],[-98.94439601259029,20.642842021058307],[-98.94534693942799,20.642478286316692],[-98.95580713464261,20.69103687432212],[-98.98591981783622,20.735594380169797],[-98.93520371982592,20.76305635316163],[-98.94217718330235,20.785971641883293],[-98.8981175731559,20.84089558786696],[-98.87561230466383,20.825254993977573],[-98.87751415833921,20.787062846108135],[-98.82743201155405,20.770876650106324],[-98.77925171844427,20.799247959952194]]]}},{"type":"Feature","properties":{"cvegeo":"13037","cve_ent":"13","state_code":"HID","nom_mun":"Metztitlán"},"geometry":{"type":"Polygon","coordinates":[[[-98.72536586430833,20.72268179684251],[-98.71236986419319,20.692309945917767],[-98.68352508344984,20.61556191543728],[-98.68130625416188,20.56409344949894],[-98.6936683030519,20.509169503515274],[-98.66228771740802,20.437695626788184],[-98.72283005940781,20.44933513851982],[-98.77291220619298,20.436422555192536],[-98.81570391388917,20.389318906153562],[-98.90445708540719,20.435876953080115],[-98.8927289877423,20.444606586878844],[-98.91523425623437,20.4966206549296],[-98.94915064677876,20.499166798120896],[-98.94915064677876,20.525901301629503],[-98.96341454934415,20.57282308329767],[-98.94598089065312,20.584462595029308],[-98.93171698808771,20.652662859081875],[-98.89019318284178,20.663211166588674],[-98.88955923161666,20.71577083675185],[-98.84423171901996,20.712497224077328],[-98.84232986534457,20.67648748465757],[-98.81475298705148,20.69612916070471],[-98.82806596277918,20.717771377830726],[-98.753259718214,20.74068666655239],[-98.72536586430833,20.72268179684251]]]}},{"type":"Feature","properties":{"cvegeo":"13029","cve_ent":"13","state_code":"HID","nom_mun":"Huichapan"},"geometry":{"type":"Polygon","coordinates":[[[-99.50988050540509,20.474069100949553],[-99.51209933469305,20.451881281711117],[-99.51938977378202,20.378406863905152],[-99.53682343247306,20.345852604530727],[-99.53111787144691,20.325665326371166],[-99.55710987167718,20.294747873334003],[-99.58690557925823,20.320209305246962],[-99.60877689652517,20.294566005963198],[-99.64966675054598,20.279652881557034],[-99.70228470223165,20.303841241874345],[-99.75775543443041,20.289473719580606],[-99.8316107521579,20.297112149154493],[-99.859187630451,20.26837710456701],[-99.83573143512125,20.477888315736497],[-99.83541445950868,20.480980061040214],[-99.78564928833607,20.4620658544763],[-99.76124216616861,20.42005449181992],[-99.72954460491219,20.460065313397426],[-99.66297972627368,20.47752458099488],[-99.62969728695441,20.450426342744663],[-99.58817348170848,20.509715105627695],[-99.53967621298614,20.51171564670657],[-99.54918548136307,20.47661524414085],[-99.50988050540509,20.474069100949553]]]}},{"type":"Feature","properties":{"cvegeo":"13061","cve_ent":"13","state_code":"HID","nom_mun":"Tepeapulco"},"geometry":{"type":"Polygon","coordinates":[[[-98.38208127590114,19.902096219762022],[-98.38556800763935,19.851718958048526],[-98.38556800763935,19.8377151704964],[-98.45403473995324,19.79970488999777],[-98.50094713061277,19.761694609499138],[-98.5335956187069,19.75223750621718],[-98.53486352115715,19.713863490976937],[-98.56085552138744,19.692221273850922],[-98.56941386292667,19.720956318438404],[-98.60808488765952,19.724957400596153],[-98.59699074121977,19.765695691656887],[-98.5789231313036,19.79552194046921],[-98.58811542406796,19.822983913461044],[-98.55673483842409,19.8537194991274],[-98.5148940575656,19.844080528474638],[-98.50063015500021,19.868632623533564],[-98.4410387398381,19.877180389961485],[-98.42202020308424,19.91610000731415],[-98.38208127590114,19.902096219762022]]]}},{"type":"Feature","properties":{"cvegeo":"13083","cve_ent":"13","state_code":"HID","nom_mun":"Zempoala"},"geometry":{"type":"Polygon","coordinates":[[[-98.77386313303067,20.02394735820261],[-98.77196127935528,19.98520960822075],[-98.71902635205704,19.990665629344956],[-98.66292166863315,19.98175412817542],[-98.65785005883212,19.954292155183587],[-98.58716449723028,19.99230243568222],[-98.57987405814129,19.98757388404124],[-98.59445493631925,19.956292696262462],[-98.52979191135613,19.91664560942657],[-98.53739932605767,19.887364962726668],[-98.55546693597384,19.88900176906393],[-98.61252254623543,19.848445345374003],[-98.66101981495777,19.83462342519268],[-98.6784534736488,19.81407241229151],[-98.69810596162779,19.83189541463058],[-98.67179698578495,19.853537631756595],[-98.7291695716591,19.864995276117426],[-98.75484459627681,19.876634787849063],[-98.7557955231145,19.92883072327063],[-98.80080606009864,19.972297024893464],[-98.79002888927145,19.98630081244559],[-98.82806596277918,20.02394735820261],[-98.8306017676797,20.029403379326816],[-98.77386313303067,20.02394735820261]]]}},{"type":"Feature","properties":{"cvegeo":"13069","cve_ent":"13","state_code":"HID","nom_mun":"Tizayuca"},"geometry":{"type":"Polygon","coordinates":[[[-98.91396635378412,19.87699852259068],[-98.94566391504056,19.803887839526325],[-98.97038801282056,19.808616391167305],[-99.02047015960574,19.867723286679528],[-98.98940654957443,19.881363339490044],[-98.95263737851697,19.906461036661387],[-98.91396635378412,19.87699852259068]]]}},{"type":"Feature","properties":{"cvegeo":"13075","cve_ent":"13","state_code":"HID","nom_mun":"Tolcayuca"},"geometry":{"type":"Polygon","coordinates":[[[-98.91491728062181,20.04686264692427],[-98.90287220734436,20.016127061257915],[-98.90572498785744,19.954292155183587],[-98.87624625588896,19.932649938057573],[-98.85500888984714,19.912826394639627],[-98.8705406948628,19.895003392300556],[-98.91396635378412,19.87699852259068],[-98.95263737851697,19.906461036661387],[-98.99574606182571,19.956838298374883],[-98.94502996381543,19.97484316808476],[-98.94661484187824,20.02722097087713],[-98.96151269566877,20.040861023687647],[-98.91491728062181,20.04686264692427]]]}},{"type":"Feature","properties":{"cvegeo":"13052","cve_ent":"13","state_code":"HID","nom_mun":"San Agustín Tlaxiaca"},"geometry":{"type":"Polygon","coordinates":[[[-98.94661484187824,20.18199010343376],[-98.83725825554355,20.152709456733856],[-98.78051962089452,20.173442337005838],[-98.78685913314581,20.142343016597867],[-98.83345454819278,20.138160067069308],[-98.85944654842305,20.1114255635607],[-98.84993728004612,20.034677533080213],[-98.91491728062181,20.04686264692427],[-98.96151269566877,20.040861023687647],[-98.99130840324982,20.067049925083833],[-99.0055723058152,20.05322800490251],[-99.01381367174189,19.981208526063],[-99.03441708655856,19.971569555410237],[-99.0315643060455,20.014853989662267],[-99.06769952587783,19.985027740849944],[-99.07086928200347,20.017945734965984],[-99.07118625761603,20.07286968094965],[-99.00684020826547,20.067959261937865],[-99.00271952530214,20.10742448140295],[-99.01254576929163,20.136705128102854],[-98.98021425681007,20.153800660958698],[-98.96848615914519,20.187809859299577],[-98.94661484187824,20.18199010343376]]]}},{"type":"Feature","properties":{"cvegeo":"13066","cve_ent":"13","state_code":"HID","nom_mun":"Villa de Tezontepec"},"geometry":{"type":"Polygon","coordinates":[[[-98.7557955231145,19.92883072327063],[-98.75484459627681,19.876634787849063],[-98.78051962089452,19.883545747939724],[-98.79541747468505,19.856265642318697],[-98.81475298705148,19.867723286679528],[-98.8705406948628,19.895003392300556],[-98.85500888984714,19.912826394639627],[-98.87624625588896,19.932649938057573],[-98.84328079218227,19.925738977966912],[-98.80080606009864,19.972297024893464],[-98.7557955231145,19.92883072327063]]]}},{"type":"Feature","properties":{"cvegeo":"13041","cve_ent":"13","state_code":"HID","nom_mun":"Mixquiahuala de Juárez"},"geometry":{"type":"Polygon","coordinates":[[[-99.11207611163684,20.291110525917865],[-99.13711718502942,20.22982122195596],[-99.11271006286196,20.199085636289603],[-99.13996996554249,20.19526642150266],[-99.17578820976227,20.150890783025787],[-99.19005211232766,20.153982528329504],[-99.21160645398204,20.160166018936938],[-99.22460245409718,20.197266962581534],[-99.30194450356288,20.248917295890678],[-99.21445923449512,20.2389145904963],[-99.20146323437999,20.2521909085652],[-99.1976595270292,20.230548691439186],[-99.16247523403456,20.246371152699382],[-99.17071659996124,20.288746250097375],[-99.12538908736454,20.316026355718403],[-99.11207611163684,20.291110525917865]]]}},{"type":"Feature","properties":{"cvegeo":"13067","cve_ent":"13","state_code":"HID","nom_mun":"Tezontepec de Aldama"},"geometry":{"type":"Polygon","coordinates":[[[-99.33681182094496,20.25273651067762],[-99.30194450356288,20.248917295890678],[-99.22460245409718,20.197266962581534],[-99.21160645398204,20.160166018936938],[-99.24203611278821,20.127793626933318],[-99.29180128396082,20.093420693850824],[-99.34093250390829,20.1432523534519],[-99.34251738197112,20.186354920333123],[-99.36185289433755,20.196721360469112],[-99.3399815770706,20.25400958227327],[-99.33681182094496,20.25273651067762]]]}},{"type":"Feature","properties":{"cvegeo":"13070","cve_ent":"13","state_code":"HID","nom_mun":"Tlahuelilpan"},"geometry":{"type":"Polygon","coordinates":[[[-99.19005211232766,20.153982528329504],[-99.16627894138534,20.13106723960784],[-99.19036908794023,20.108515685627793],[-99.24203611278821,20.127793626933318],[-99.21160645398204,20.160166018936938],[-99.19005211232766,20.153982528329504]]]}},{"type":"Feature","properties":{"cvegeo":"13074","cve_ent":"13","state_code":"HID","nom_mun":"Tlaxcoapan"},"geometry":{"type":"Polygon","coordinates":[[[-99.19036908794023,20.108515685627793],[-99.17864099027535,20.096148704412926],[-99.26073767392951,20.06414004715092],[-99.29180128396082,20.093420693850824],[-99.24203611278821,20.127793626933318],[-99.19036908794023,20.108515685627793]]]}},{"type":"Feature","properties":{"cvegeo":"13044","cve_ent":"13","state_code":"HID","nom_mun":"Nopala de Villagrán"},"geometry":{"type":"Polygon","coordinates":[[[-99.55710987167718,20.294747873334003],[-99.54950245697563,20.275106197286863],[-99.590709286609,20.27183258461234],[-99.59229416467183,20.236368447305004],[-99.56154753025308,20.2389145904963],[-99.56503426199129,20.209997678538013],[-99.52002372500715,20.192538410940557],[-99.51241631030561,20.175079143343098],[-99.62969728695441,20.145798496643195],[-99.65980997014803,20.18071703183811],[-99.69911494610601,20.1725330001518],[-99.72098626337295,20.167804448510825],[-99.78850206884916,20.222910261865298],[-99.84207094737253,20.28183529000672],[-99.85950460606357,20.26492162452168],[-99.859187630451,20.26837710456701],[-99.8316107521579,20.297112149154493],[-99.75775543443041,20.289473719580606],[-99.70228470223165,20.303841241874345],[-99.64966675054598,20.279652881557034],[-99.60877689652517,20.294566005963198],[-99.58690557925823,20.320209305246962],[-99.55710987167718,20.294747873334003]]]}},{"type":"Feature","properties":{"cvegeo":"13017","cve_ent":"13","state_code":"HID","nom_mun":"Chapantongo"},"geometry":{"type":"Polygon","coordinates":[[[-99.33966460145804,20.307114854548868],[-99.3586831382119,20.30638738506564],[-99.33681182094496,20.25273651067762],[-99.3399815770706,20.25400958227327],[-99.3453701624842,20.254737051756496],[-99.3906976750809,20.254737051756496],[-99.40749738254681,20.27583366677009],[-99.45155699269326,20.248917295890678],[-99.44838723656761,20.19126533934491],[-99.46930762699685,20.164167101094687],[-99.50512587121662,20.160347886307743],[-99.51241631030561,20.175079143343098],[-99.52002372500715,20.192538410940557],[-99.56503426199129,20.209997678538013],[-99.56154753025308,20.2389145904963],[-99.59229416467183,20.236368447305004],[-99.590709286609,20.27183258461234],[-99.54950245697563,20.275106197286863],[-99.55710987167718,20.294747873334003],[-99.53111787144691,20.325665326371166],[-99.49688450528996,20.334394960169895],[-99.38150538231653,20.327484000079235],[-99.34727201615958,20.335668031765543],[-99.33966460145804,20.307114854548868]]]}},{"type":"Feature","properties":{"cvegeo":"13063","cve_ent":"13","state_code":"HID","nom_mun":"Tepeji del Río de Ocampo"},"geometry":{"type":"Polygon","coordinates":[[[-99.41510479724835,20.012853448583392],[-99.36977728465165,20.002123273705788],[-99.36375474801292,19.97666184179283],[-99.34315133319625,19.944653184530825],[-99.32096304031674,19.96174871738667],[-99.31715933296597,19.956292696262462],[-99.29306918641107,19.940106500260654],[-99.26992996669388,19.965022330061192],[-99.25122840555258,19.932649938057573],[-99.27436762526978,19.918646150505445],[-99.23633055176207,19.87336117517454],[-99.27088089353157,19.858629918139187],[-99.34346830880881,19.780245081321436],[-99.38784489456782,19.77715333601772],[-99.37358099200242,19.85153709067772],[-99.41510479724835,19.850445886452878],[-99.43000265103888,19.870815031983245],[-99.4325384559394,19.87517984888261],[-99.4360251876776,19.903187423986864],[-99.48388850517482,19.90518796506574],[-99.47406226118532,19.954292155183587],[-99.4449005048294,19.985027740849944],[-99.44109679747862,20.013217183325004],[-99.41510479724835,20.012853448583392]]]}},{"type":"Feature","properties":{"cvegeo":"13076","cve_ent":"13","state_code":"HID","nom_mun":"Tula de Allende"},"geometry":{"type":"Polygon","coordinates":[[[-99.46930762699685,20.164167101094687],[-99.42746684613836,20.13979687340657],[-99.36882635781396,20.125793085854443],[-99.34093250390829,20.1432523534519],[-99.29180128396082,20.093420693850824],[-99.26073767392951,20.06414004715092],[-99.29053338151056,20.05959336288075],[-99.26073767392951,20.027039103506326],[-99.27626947894517,19.97538877019718],[-99.31018586948956,19.965204197431998],[-99.29306918641107,19.940106500260654],[-99.31715933296597,19.956292696262462],[-99.32096304031674,19.96174871738667],[-99.34315133319625,19.944653184530825],[-99.36375474801292,19.97666184179283],[-99.36977728465165,20.002123273705788],[-99.41510479724835,20.012853448583392],[-99.44109679747862,20.013217183325004],[-99.48705826130046,20.10506020558246],[-99.51907279816946,20.148162772463685],[-99.50512587121662,20.160347886307743],[-99.46930762699685,20.164167101094687]]]}},{"type":"Feature","properties":{"cvegeo":"13010","cve_ent":"13","state_code":"HID","nom_mun":"Atitalaquia"},"geometry":{"type":"Polygon","coordinates":[[[-99.17325240486176,20.08796467272662],[-99.18941816110254,20.07286968094965],[-99.14916225830686,20.03485940045102],[-99.18244469762612,20.041042891058453],[-99.21572713694538,20.025766031910678],[-99.26073767392951,20.027039103506326],[-99.29053338151056,20.05959336288075],[-99.26073767392951,20.06414004715092],[-99.17864099027535,20.096148704412926],[-99.17325240486176,20.08796467272662]]]}},{"type":"Feature","properties":{"cvegeo":"13013","cve_ent":"13","state_code":"HID","nom_mun":"Atotonilco de Tula"},"geometry":{"type":"Polygon","coordinates":[[[-99.18244469762612,20.041042891058453],[-99.14916225830686,20.03485940045102],[-99.14250577044301,20.027039103506326],[-99.18941816110254,19.99266617042383],[-99.21541016133281,19.954474022554393],[-99.2182629418459,19.88900176906393],[-99.23633055176207,19.87336117517454],[-99.27436762526978,19.918646150505445],[-99.25122840555258,19.932649938057573],[-99.26992996669388,19.965022330061192],[-99.29306918641107,19.940106500260654],[-99.31018586948956,19.965204197431998],[-99.27626947894517,19.97538877019718],[-99.26073767392951,20.027039103506326],[-99.21572713694538,20.025766031910678],[-99.18244469762612,20.041042891058453]]]}},{"type":"Feature","properties":{"cvegeo":"13064","cve_ent":"13","state_code":"HID","nom_mun":"Tepetitlán"},"geometry":{"type":"Polygon","coordinates":[[[-99.3453701624842,20.254737051756496],[-99.3399815770706,20.25400958227327],[-99.36185289433755,20.196721360469112],[-99.34251738197112,20.186354920333123],[-99.34093250390829,20.1432523534519],[-99.36882635781396,20.125793085854443],[-99.42746684613836,20.13979687340657],[-99.46930762699685,20.164167101094687],[-99.44838723656761,20.19126533934491],[-99.45155699269326,20.248917295890678],[-99.40749738254681,20.27583366677009],[-99.3906976750809,20.254737051756496],[-99.3453701624842,20.254737051756496]]]}},{"type":"Feature","properties":{"cvegeo":"13009","cve_ent":"13","state_code":"HID","nom_mun":"El Arenal"},"geometry":{"type":"Polygon","coordinates":[[[-98.81475298705148,20.24764422429503],[-98.83725825554355,20.152709456733856],[-98.94661484187824,20.18199010343376],[-98.938056500339,20.252918378048427],[-98.87751415833921,20.293838536479967],[-98.88226879252768,20.265649094004907],[-98.81475298705148,20.24764422429503]]]}},{"type":"Feature","properties":{"cvegeo":"13019","cve_ent":"13","state_code":"HID","nom_mun":"Chilcuautla"},"geometry":{"type":"Polygon","coordinates":[[[-99.16374313648483,20.410415521167156],[-99.16374313648483,20.372041505926912],[-99.18783328303971,20.35330916673381],[-99.23094196634847,20.352217962508966],[-99.20146323437999,20.2521909085652],[-99.21445923449512,20.2389145904963],[-99.30194450356288,20.248917295890678],[-99.33681182094496,20.25273651067762],[-99.3586831382119,20.30638738506564],[-99.33966460145804,20.307114854548868],[-99.29402011324878,20.338941644440066],[-99.28958245467287,20.406414439009406],[-99.16374313648483,20.410415521167156]]]}},{"type":"Feature","properties":{"cvegeo":"13023","cve_ent":"13","state_code":"HID","nom_mun":"Francisco I. Madero"},"geometry":{"type":"Polygon","coordinates":[[[-99.04075659880985,20.18890106352442],[-99.13996996554249,20.19526642150266],[-99.11271006286196,20.199085636289603],[-99.13711718502942,20.22982122195596],[-99.11207611163684,20.291110525917865],[-99.11112518479914,20.290746791176254],[-99.10827240428607,20.29092865854706],[-99.08925386753221,20.29838522075014],[-99.06136001362654,20.25037223485713],[-99.01349669612932,20.26437602240926],[-99.04075659880985,20.18890106352442]]]}},{"type":"Feature","properties":{"cvegeo":"13048","cve_ent":"13","state_code":"HID","nom_mun":"Pachuca de Soto"},"geometry":{"type":"Polygon","coordinates":[[[-98.70286059581626,20.17562474545552],[-98.69430225427702,20.140706210260603],[-98.74945601086321,20.08960147906388],[-98.77386313303067,20.02394735820261],[-98.8306017676797,20.029403379326816],[-98.84993728004612,20.034677533080213],[-98.85944654842305,20.1114255635607],[-98.83345454819278,20.138160067069308],[-98.78685913314581,20.142343016597867],[-98.74818810841296,20.14434355767674],[-98.7380448888109,20.181444501321337],[-98.70286059581626,20.17562474545552]]]}},{"type":"Feature","properties":{"cvegeo":"13050","cve_ent":"13","state_code":"HID","nom_mun":"Progreso de Obregón"},"geometry":{"type":"Polygon","coordinates":[[[-99.12538908736454,20.316026355718403],[-99.17071659996124,20.288746250097375],[-99.16247523403456,20.246371152699382],[-99.1976595270292,20.230548691439186],[-99.20146323437999,20.2521909085652],[-99.23094196634847,20.352217962508966],[-99.18783328303971,20.35330916673381],[-99.16374313648483,20.372041505926912],[-99.14504157534353,20.372041505926912],[-99.12538908736454,20.316026355718403]]]}},{"type":"Feature","properties":{"cvegeo":"13054","cve_ent":"13","state_code":"HID","nom_mun":"San Salvador"},"geometry":{"type":"Polygon","coordinates":[[[-99.11366098969965,20.38022553761322],[-99.10383474571016,20.36876789325239],[-99.09083874559502,20.347671278238796],[-99.05914118433859,20.356764646779137],[-99.01064391561624,20.342033389743783],[-98.95897689076826,20.352399829879772],[-98.95073552484158,20.31402581463953],[-98.9887725983493,20.3000220270874],[-98.97926332997237,20.19799443206476],[-98.99099142763725,20.18890106352442],[-99.04075659880985,20.18890106352442],[-99.01349669612932,20.26437602240926],[-99.06136001362654,20.25037223485713],[-99.08925386753221,20.29838522075014],[-99.10827240428607,20.29092865854706],[-99.11112518479914,20.290746791176254],[-99.11207611163684,20.291110525917865],[-99.12538908736454,20.316026355718403],[-99.14504157534353,20.372041505926912],[-99.16374313648483,20.372041505926912],[-99.16374313648483,20.410415521167156],[-99.12950977032787,20.407141908492633],[-99.11366098969965,20.38022553761322]]]}},{"type":"Feature","properties":{"cvegeo":"13082","cve_ent":"13","state_code":"HID","nom_mun":"Zapotlán de Juárez"},"geometry":{"type":"Polygon","coordinates":[[[-98.84993728004612,20.034677533080213],[-98.8306017676797,20.029403379326816],[-98.82806596277918,20.02394735820261],[-98.79002888927145,19.98630081244559],[-98.80080606009864,19.972297024893464],[-98.84328079218227,19.925738977966912],[-98.87624625588896,19.932649938057573],[-98.90572498785744,19.954292155183587],[-98.90287220734436,20.016127061257915],[-98.91491728062181,20.04686264692427],[-98.84993728004612,20.034677533080213]]]}},{"type":"Feature","properties":{"cvegeo":"13065","cve_ent":"13","state_code":"HID","nom_mun":"Tetepango"},"geometry":{"type":"Polygon","coordinates":[[[-99.17578820976227,20.150890783025787],[-99.10383474571016,20.141251812373024],[-99.1257060629771,20.123428810033953],[-99.14060391676763,20.07050540512916],[-99.17325240486176,20.08796467272662],[-99.17864099027535,20.096148704412926],[-99.19036908794023,20.108515685627793],[-99.16627894138534,20.13106723960784],[-99.19005211232766,20.153982528329504],[-99.17578820976227,20.150890783025787]]]}},{"type":"Feature","properties":{"cvegeo":"13005","cve_ent":"13","state_code":"HID","nom_mun":"Ajacuba"},"geometry":{"type":"Polygon","coordinates":[[[-99.04075659880985,20.18890106352442],[-98.99099142763725,20.18890106352442],[-98.96848615914519,20.187809859299577],[-98.98021425681007,20.153800660958698],[-99.01254576929163,20.136705128102854],[-99.00271952530214,20.10742448140295],[-99.00684020826547,20.067959261937865],[-99.07118625761603,20.07286968094965],[-99.07086928200347,20.017945734965984],[-99.11841562388813,20.0290396445852],[-99.14250577044301,20.027039103506326],[-99.14916225830686,20.03485940045102],[-99.18941816110254,20.07286968094965],[-99.17325240486176,20.08796467272662],[-99.14060391676763,20.07050540512916],[-99.1257060629771,20.123428810033953],[-99.10383474571016,20.141251812373024],[-99.17578820976227,20.150890783025787],[-99.13996996554249,20.19526642150266],[-99.04075659880985,20.18890106352442]]]}}]}