{"type":"FeatureCollection","features":[{"type":"Feature","properties":{"cvegeo":"15082","cve_ent":"15","state_code":"MEX","nom_mun":"Tejupilco"},"geometry":{"type":"Polygon","coordinates":[[[-100.53878334378896,18.843991856407794],[-100.47190148953788,18.845810530115862],[-100.44527553808248,18.826532588810338],[-100.39963104987322,18.82689632355195],[-100.37712578138115,18.877273585265446],[-100.31658343938136,18.858177511330727],[-100.29502909772698,18.83598969209229],[-100.2522373900308,18.86145112400525],[-100.23290187766437,18.939108491339773],[-100.26174665840773,19.00221646900975],[-100.28520285373749,19.015674654449455],[-100.24019231675335,19.014401582853807],[-100.17362743811483,18.978755578175665],[-100.14129592563327,19.012764776516548],[-100.0966023642617,19.012946643887354],[-100.07599894944502,18.97675503709679],[-100.11593787662812,18.936562348148477],[-100.07948568118323,18.910009712010677],[-100.0601501688168,18.930378857541044],[-100.01323777815728,18.94038156293542],[-99.99136646089033,18.90982784463987],[-100.00880011958138,18.87127196202882],[-100.0281356319478,18.865270338792193],[-100.0547615834032,18.818530424494835],[-100.1374922182825,18.789795379907353],[-100.16094841361226,18.79870688107689],[-100.27252382923491,18.79470579891914],[-100.29249329282646,18.813074403370628],[-100.31246275641803,18.77724653132168],[-100.42213631836529,18.763242743769553],[-100.43132861112966,18.783430021929114],[-100.48204470913996,18.79870688107689],[-100.5020141727315,18.830715538338893],[-100.53878334378896,18.843991856407794]]]}},{"type":"Feature","properties":{"cvegeo":"15104","cve_ent":"15","state_code":"MEX","nom_mun":"Tlalnepantla de Baz"},"geometry":{"type":"MultiPolygon","coordinates":[[[[-99.09052176998246,19.509262698819235],[-99.13077767277814,19.53599720232784],[-99.11271006286196,19.573098145972438],[-99.0803785503804,19.529449976978796],[-99.09052176998246,19.509262698819235]]],[[[-99.19132001477792,19.58564699455811],[-99.14377367289327,19.57237067648921],[-99.1764221609874,19.531996120170092],[-99.15740362423354,19.502897340840995],[-99.20463299050563,19.514900587314248],[-99.21382528326998,19.497077584975177],[-99.24742469820181,19.518356067359576],[-99.22777221022282,19.555275143633366],[-99.21160645398204,19.59564969995249],[-99.19132001477792,19.58564699455811]]]]}},{"type":"Feature","properties":{"cvegeo":"15075","cve_ent":"15","state_code":"MEX","nom_mun":"San Martín de las Pirámides"},"geometry":{"type":"Polygon","coordinates":[[[-98.81475298705148,19.660394483959724],[-98.80714557234992,19.686219650614298],[-98.89114410967949,19.720956318438404],[-98.88195181691512,19.743326005047646],[-98.88100089007743,19.750418832509112],[-98.86927279241254,19.772606651747548],[-98.79922118203582,19.73896118814828],[-98.78654215753325,19.72804914589987],[-98.78812703559608,19.706588796144665],[-98.7887609868212,19.70622506140305],[-98.81475298705148,19.660394483959724]]]}},{"type":"Feature","properties":{"cvegeo":"15065","cve_ent":"15","state_code":"MEX","nom_mun":"Otumba"},"geometry":{"type":"Polygon","coordinates":[[[-98.70983405929267,19.697859162345935],[-98.66482352230854,19.660394483959724],[-98.66545747353366,19.606198007459284],[-98.6705290833347,19.598559577885396],[-98.68130625416188,19.598195843143785],[-98.71997727889473,19.60237879267234],[-98.74755415718784,19.6278402245853],[-98.79224771855941,19.611290293841876],[-98.81633786511429,19.618201253932536],[-98.81475298705148,19.6438445532163],[-98.81475298705148,19.660394483959724],[-98.7887609868212,19.70622506140305],[-98.78812703559608,19.706588796144665],[-98.76213503536579,19.715682164685006],[-98.70983405929267,19.697859162345935]]]}},{"type":"Feature","properties":{"cvegeo":"15049","cve_ent":"15","state_code":"MEX","nom_mun":"Joquicingo"},"geometry":{"type":"Polygon","coordinates":[[[-99.53048392022177,19.12024839266339],[-99.48198665149943,19.087694133288966],[-99.48198665149943,19.08642106169332],[-99.49371474916431,19.032406452563684],[-99.55774382290231,19.02294934928173],[-99.526680212871,19.074417815220066],[-99.53048392022177,19.12024839266339]]]}},{"type":"Feature","properties":{"cvegeo":"15004","cve_ent":"15","state_code":"MEX","nom_mun":"Almoloya de Alquisiras"},"geometry":{"type":"MultiPolygon","coordinates":[[[[-99.79072089813711,18.814347474966276],[-99.8236863618438,18.80780024961723],[-99.85411602064997,18.829078732001634],[-99.86489319147717,18.783975624041535],[-99.95459728983288,18.84599239748667],[-99.93240899695337,18.879092258973515],[-99.95332938738261,18.88982243385112],[-99.89944353324668,18.91746627421376],[-99.8858135819064,18.907281701448575],[-99.8458746547233,18.900552608728724],[-99.78786811762403,18.853085224948135],[-99.79072089813711,18.814347474966276]]],[[[-99.84524070349818,18.775791592355226],[-99.82590519113175,18.752876303633563],[-99.83446353267098,18.696497418683443],[-99.8744024598541,18.715229757876546],[-99.86584411831485,18.77724653132168],[-99.84524070349818,18.775791592355226]]]]}},{"type":"Feature","properties":{"cvegeo":"15088","cve_ent":"15","state_code":"MEX","nom_mun":"Tenancingo"},"geometry":{"type":"MultiPolygon","coordinates":[[[[-99.55774382290231,19.02294934928173],[-99.49371474916431,19.032406452563684],[-99.49086196865123,19.03095151359723],[-99.51051445663022,18.996214845773125],[-99.51907279816946,18.942927706126717],[-99.55013640820077,18.888185627513856],[-99.56123055464052,18.909100375156644],[-99.62462567715339,18.918375611067795],[-99.61543338438902,18.95074800307141],[-99.64015748216904,18.969662209635324],[-99.63825562849365,19.030769646226425],[-99.60243738427388,19.039499280025154],[-99.60275435988645,19.014583450224613],[-99.55774382290231,19.02294934928173]]],[[[-99.52192557868254,18.818530424494835],[-99.55837777412744,18.854903898656204],[-99.55235523748871,18.88218400427723],[-99.51622001765638,18.8308974057097],[-99.52192557868254,18.818530424494835]]]]}},{"type":"Feature","properties":{"cvegeo":"15056","cve_ent":"15","state_code":"MEX","nom_mun":"Morelos"},"geometry":{"type":"MultiPolygon","coordinates":[[[[-99.70513748274473,19.74769082194701],[-99.74888011727862,19.795158205727596],[-99.74571036115297,19.81279934069586],[-99.71845045847243,19.839715711575273],[-99.67027016536265,19.84062504842931],[-99.59229416467183,19.77769893813014],[-99.61416548193877,19.74823642405943],[-99.5818339694572,19.733687034394883],[-99.5720077254677,19.706952530886277],[-99.52002372500715,19.71313602149371],[-99.54252899349922,19.676944414703147],[-99.57676235965617,19.67439827151185],[-99.60655806723722,19.696767958121093],[-99.63508587236801,19.689675130659626],[-99.6591760189229,19.698586631829162],[-99.70513748274473,19.74769082194701]]],[[[-99.64237631145699,19.660940086072145],[-99.59641484763516,19.66930598512926],[-99.5960978720226,19.66930598512926],[-99.56471728637872,19.641298410025005],[-99.5729586523054,19.609835354875422],[-99.62145592102775,19.631659439372243],[-99.64237631145699,19.660940086072145]]]]}},{"type":"Feature","properties":{"cvegeo":"15125","cve_ent":"15","state_code":"MEX","nom_mun":"Tonanitla"},"geometry":{"type":"Polygon","coordinates":[[[-99.07435601374168,19.68312790531058],[-99.04519425738576,19.69767729497513],[-99.06262791607679,19.659121412364076],[-99.06833347710295,19.67112465883733],[-99.07435601374168,19.68312790531058]]]}},{"type":"Feature","properties":{"cvegeo":"15124","cve_ent":"15","state_code":"MEX","nom_mun":"San José del Rincón"},"geometry":{"type":"Polygon","coordinates":[[[-100.07948568118323,19.764058885319628],[-100.06268597371732,19.725503002708574],[-100.0779008031204,19.678217486298795],[-100.05698041269116,19.650028043823735],[-100.07409709576963,19.59783210840217],[-100.00880011958138,19.581282177658746],[-100.0148226562201,19.554911408891755],[-100.05888226636654,19.525994496933464],[-100.07092733964399,19.489257288030483],[-100.09184773007324,19.514354985201827],[-100.13178665725634,19.51944727158442],[-100.15175612084789,19.486893012209993],[-100.17806509669074,19.492712768075812],[-100.20183826763306,19.499259993424857],[-100.19676665783204,19.531632385428477],[-100.22751329225078,19.557639419453857],[-100.2468488046172,19.597468373660554],[-100.26523339014594,19.662031290296987],[-100.25857690228209,19.700223438166425],[-100.19042714558076,19.699495968683195],[-100.14985426717251,19.72750354378745],[-100.14478265737148,19.764240752690434],[-100.11023231560196,19.740597994485544],[-100.07948568118323,19.764058885319628]]]}},{"type":"Feature","properties":{"cvegeo":"15123","cve_ent":"15","state_code":"MEX","nom_mun":"Luvianos"},"geometry":{"type":"Polygon","coordinates":[[[-100.30390441487879,19.04131795373322],[-100.28520285373749,19.015674654449455],[-100.26174665840773,19.00221646900975],[-100.23290187766437,18.939108491339773],[-100.2522373900308,18.86145112400525],[-100.29502909772698,18.83598969209229],[-100.31658343938136,18.858177511330727],[-100.37712578138115,18.877273585265446],[-100.39963104987322,18.82689632355195],[-100.44527553808248,18.826532588810338],[-100.47190148953788,18.845810530115862],[-100.53878334378896,18.843991856407794],[-100.5847448076108,18.858177511330727],[-100.6132726127416,18.886912555918208],[-100.54353797797744,18.9371079502609],[-100.52768919734922,19.010400500696058],[-100.47919192862688,19.032042717822073],[-100.41167612315067,19.06332390560085],[-100.40914031825015,19.074963417332487],[-100.35779026901473,19.074054080478454],[-100.32482480530804,19.038226208429506],[-100.30390441487879,19.04131795373322]]]}},{"type":"Feature","properties":{"cvegeo":"15122","cve_ent":"15","state_code":"MEX","nom_mun":"Valle de Chalco Solidaridad"},"geometry":{"type":"Polygon","coordinates":[[[-98.9523204029044,19.33321508387821],[-98.9523204029044,19.333033216507403],[-98.91364937817156,19.28993064962618],[-98.92791328073695,19.26501481982564],[-98.94598089065312,19.224822130877328],[-98.97672752507185,19.25301157335239],[-98.96056176883107,19.325394786933515],[-98.97450869578391,19.337034298665152],[-98.9523204029044,19.33321508387821]]]}},{"type":"Feature","properties":{"cvegeo":"15121","cve_ent":"15","state_code":"MEX","nom_mun":"Cuautitlán Izcalli"},"geometry":{"type":"Polygon","coordinates":[[[-99.19132001477792,19.58564699455811],[-99.21160645398204,19.59564969995249],[-99.23728147859975,19.61056282435865],[-99.26612625934311,19.607471079054932],[-99.27722040578286,19.627658357214493],[-99.27880528384568,19.662758759780214],[-99.25471513729079,19.692221273850922],[-99.19575767335382,19.714590960460164],[-99.17610518537484,19.727321676416643],[-99.18498050252663,19.64329895110388],[-99.19132001477792,19.58564699455811]]]}},{"type":"Feature","properties":{"cvegeo":"15120","cve_ent":"15","state_code":"MEX","nom_mun":"Zumpango"},"geometry":{"type":"Polygon","coordinates":[[[-98.97038801282056,19.808616391167305],[-99.01761737909266,19.77187918226432],[-98.97577659823416,19.758420996824615],[-98.98940654957443,19.72168378792163],[-99.03536801339627,19.72859474801229],[-99.03600196462139,19.771697314893515],[-99.08513318456886,19.74532654612652],[-99.09844616029656,19.764058885319628],[-99.130143721553,19.751510036733954],[-99.13838508747968,19.76551382428608],[-99.14377367289327,19.79552194046921],[-99.18022586833817,19.792975797277915],[-99.19353884406587,19.812071871212634],[-99.17356938047432,19.856811244431118],[-99.13489835574147,19.826803128247988],[-99.12253630685146,19.82371138294427],[-99.11302703847453,19.903187423986864],[-99.08861991630707,19.89936820919992],[-99.07403903812911,19.85662937706031],[-99.03441708655856,19.833168486226228],[-99.02807757430728,19.875907318365837],[-98.99194235447494,19.90300555661606],[-98.98940654957443,19.881363339490044],[-99.02047015960574,19.867723286679528],[-98.97038801282056,19.808616391167305]]]}},{"type":"Feature","properties":{"cvegeo":"15119","cve_ent":"15","state_code":"MEX","nom_mun":"Zumpahuacán"},"geometry":{"type":"Polygon","coordinates":[[[-99.55013640820077,18.888185627513856],[-99.55235523748871,18.88218400427723],[-99.55837777412744,18.854903898656204],[-99.52192557868254,18.818530424494835],[-99.49720148090252,18.808709586471267],[-99.48832616375071,18.763606478511168],[-99.46645484648377,18.75360377311679],[-99.49434870038944,18.720322044259138],[-99.53333670073485,18.694133142862952],[-99.57105679863001,18.706863858819432],[-99.5808830426195,18.730142882282706],[-99.5818339694572,18.775245990242805],[-99.61067875020055,18.812892535999822],[-99.6094108477503,18.816348016045154],[-99.62462567715339,18.918375611067795],[-99.56123055464052,18.909100375156644],[-99.55013640820077,18.888185627513856]]]}},{"type":"Feature","properties":{"cvegeo":"15118","cve_ent":"15","state_code":"MEX","nom_mun":"Zinacantepec"},"geometry":{"type":"Polygon","coordinates":[[[-99.72447299511116,19.335215624957083],[-99.69848099488088,19.28192848531068],[-99.72066928776039,19.2346429689009],[-99.77265328822094,19.160986683724126],[-99.78247953221043,19.112246228347892],[-99.7694835320953,19.076236488928135],[-99.78501533711095,19.071689804657964],[-99.83002587409509,19.07423594784926],[-99.84809348401126,19.076782091040556],[-99.83446353267098,19.124613209562757],[-99.8423879229851,19.15152958044217],[-99.8744024598541,19.15844054053283],[-99.84714255717356,19.185356911412242],[-99.88422870384359,19.204634852717767],[-99.87408548424153,19.23627977523816],[-99.90261328937233,19.23264242782202],[-99.90197933814719,19.25774012499337],[-99.86267436218921,19.24719181748657],[-99.85316509381228,19.31011792778574],[-99.80910548366583,19.319029428955275],[-99.81639592275482,19.28865757803053],[-99.7685326052576,19.284474628501975],[-99.76884958087017,19.311390999381388],[-99.7729702638335,19.3303052059453],[-99.72447299511116,19.335215624957083]]]}},{"type":"Feature","properties":{"cvegeo":"15117","cve_ent":"15","state_code":"MEX","nom_mun":"Zacualpan"},"geometry":{"type":"Polygon","coordinates":[[[-99.79072089813711,18.814347474966276],[-99.74285758063989,18.810528260179332],[-99.70925816570806,18.768880632264565],[-99.67217201903804,18.713411084168477],[-99.73873689767655,18.737417577114982],[-99.77201933699581,18.686494713289065],[-99.78596626394864,18.63939106425009],[-99.85855367922588,18.612656560741485],[-99.88803241119436,18.61884005134892],[-99.94286919216799,18.589741272019822],[-99.92892226521516,18.632298236788625],[-99.89056821609488,18.649575637015275],[-99.90610002111053,18.71050120623557],[-99.8744024598541,18.715229757876546],[-99.83446353267098,18.696497418683443],[-99.82590519113175,18.752876303633563],[-99.84524070349818,18.775791592355226],[-99.86489319147717,18.783975624041535],[-99.85411602064997,18.829078732001634],[-99.8236863618438,18.80780024961723],[-99.79072089813711,18.814347474966276]]]}},{"type":"Feature","properties":{"cvegeo":"15116","cve_ent":"15","state_code":"MEX","nom_mun":"Zacazonapan"},"geometry":{"type":"Polygon","coordinates":[[[-100.28520285373749,19.015674654449455],[-100.30390441487879,19.04131795373322],[-100.27854636587364,19.095332562862854],[-100.2148342677482,19.1178841168429],[-100.23670558501514,19.06514257930892],[-100.24019231675335,19.014401582853807],[-100.28520285373749,19.015674654449455]]]}},{"type":"Feature","properties":{"cvegeo":"15115","cve_ent":"15","state_code":"MEX","nom_mun":"Xonacatlán"},"geometry":{"type":"Polygon","coordinates":[[[-99.44204772431632,19.48762048169322],[-99.40876528499706,19.44797339485733],[-99.41415387041066,19.430150392518257],[-99.47437923679789,19.410872451212732],[-99.56566821321641,19.39541372469415],[-99.4848394320125,19.438334424204566],[-99.44204772431632,19.48762048169322]]]}},{"type":"Feature","properties":{"cvegeo":"15114","cve_ent":"15","state_code":"MEX","nom_mun":"Villa Victoria"},"geometry":{"type":"Polygon","coordinates":[[[-100.00372850978034,19.313937142572684],[-100.0611010956545,19.418692748157426],[-100.06331992494245,19.44670032326168],[-100.1454166085966,19.46397772348833],[-100.15175612084789,19.486893012209993],[-100.13178665725634,19.51944727158442],[-100.09184773007324,19.514354985201827],[-100.07092733964399,19.489257288030483],[-100.05888226636654,19.525994496933464],[-100.0148226562201,19.554911408891755],[-99.93019016766542,19.532905457024125],[-99.93811455797953,19.488529818547256],[-99.86140645973896,19.43760695472134],[-99.86742899637768,19.40578016483014],[-99.91117163091155,19.39832360262706],[-99.92543553347696,19.3383073702608],[-99.91941299683823,19.292476792817475],[-99.9828081193511,19.332669481765787],[-100.00372850978034,19.313937142572684]]]}},{"type":"Feature","properties":{"cvegeo":"15113","cve_ent":"15","state_code":"MEX","nom_mun":"Villa Guerrero"},"geometry":{"type":"Polygon","coordinates":[[[-99.63825562849365,19.030769646226425],[-99.64015748216904,18.969662209635324],[-99.61543338438902,18.95074800307141],[-99.62462567715339,18.918375611067795],[-99.6094108477503,18.816348016045154],[-99.63318401869262,18.867089012500262],[-99.67217201903804,18.90346248666163],[-99.72066928776039,18.899279537133076],[-99.74000480012681,18.941836501901875],[-99.72542392194885,18.95129360518383],[-99.76282704423144,18.997487917368773],[-99.77170236138325,19.06514257930892],[-99.65632323840983,19.057686017105837],[-99.63825562849365,19.030769646226425]]]}},{"type":"Feature","properties":{"cvegeo":"15112","cve_ent":"15","state_code":"MEX","nom_mun":"Villa del Carbón"},"geometry":{"type":"Polygon","coordinates":[[[-99.38784489456782,19.77715333601772],[-99.41225201673527,19.74532654612652],[-99.41985943143682,19.69985970342481],[-99.4261989436881,19.67621694521992],[-99.45187396830582,19.655665932318747],[-99.45884743178223,19.61510950862882],[-99.52509533480819,19.614927641258014],[-99.56471728637872,19.641298410025005],[-99.5960978720226,19.66930598512926],[-99.59641484763516,19.66930598512926],[-99.64237631145699,19.660940086072145],[-99.63508587236801,19.689675130659626],[-99.60655806723722,19.696767958121093],[-99.57676235965617,19.67439827151185],[-99.54252899349922,19.676944414703147],[-99.52002372500715,19.71313602149371],[-99.5720077254677,19.706952530886277],[-99.5818339694572,19.733687034394883],[-99.53397065195998,19.75587485363332],[-99.49244684671406,19.733141432282462],[-99.47469621241045,19.792066460423882],[-99.44616840727966,19.8377151704964],[-99.42081035827451,19.840806915800115],[-99.43000265103888,19.870815031983245],[-99.41510479724835,19.850445886452878],[-99.37358099200242,19.85153709067772],[-99.38784489456782,19.77715333601772]]]}},{"type":"Feature","properties":{"cvegeo":"15111","cve_ent":"15","state_code":"MEX","nom_mun":"Villa de Allende"},"geometry":{"type":"Polygon","coordinates":[[[-100.15175612084789,19.486893012209993],[-100.1454166085966,19.46397772348833],[-100.06331992494245,19.44670032326168],[-100.0611010956545,19.418692748157426],[-100.00372850978034,19.313937142572684],[-100.01196987570702,19.297569079200066],[-100.05064090043987,19.322303041629798],[-100.05539553462833,19.306480580369602],[-100.07663290067015,19.342672187160165],[-100.15239007207303,19.34285405453097],[-100.18250275526664,19.328122797495617],[-100.17711416985304,19.300115222391362],[-100.23607163379002,19.29629600760442],[-100.22656236541309,19.32557665430432],[-100.2522373900308,19.383046743479284],[-100.23733953624027,19.40341588900965],[-100.19549875538178,19.44615472114926],[-100.20088734079538,19.492712768075812],[-100.17806509669074,19.492712768075812],[-100.15175612084789,19.486893012209993]]]}},{"type":"Feature","properties":{"cvegeo":"15110","cve_ent":"15","state_code":"MEX","nom_mun":"Valle de Bravo"},"geometry":{"type":"Polygon","coordinates":[[[-100.2148342677482,19.1178841168429],[-100.20754382865923,19.14389115086828],[-100.24304509726643,19.197360157885495],[-100.2202228531618,19.26283241137596],[-100.1714086088269,19.287384506434883],[-100.11023231560196,19.280291678973416],[-100.1073795350889,19.246464348003343],[-100.07916870557067,19.24082645950833],[-100.05602948585347,19.181355829254493],[-100.01862636357087,19.192267871502903],[-99.97076304607366,19.186448115637084],[-99.9596688996339,19.175536073388674],[-100.0005587536547,19.111518758864662],[-100.05793133952885,19.12424947482114],[-100.05698041269116,19.08514799009767],[-100.11466997417787,19.08005570371508],[-100.16538607218817,19.08969467436784],[-100.2148342677482,19.1178841168429]]]}},{"type":"Feature","properties":{"cvegeo":"15109","cve_ent":"15","state_code":"MEX","nom_mun":"Tultitlán"},"geometry":{"type":"MultiPolygon","coordinates":[[[[-99.1203174775635,19.65311978912745],[-99.12380420930171,19.592739822019578],[-99.14377367289327,19.57237067648921],[-99.19132001477792,19.58564699455811],[-99.18498050252663,19.64329895110388],[-99.14916225830686,19.660394483959724],[-99.1203174775635,19.65311978912745]]],[[[-99.1203174775635,19.65311978912745],[-99.10668752622324,19.687856456951558],[-99.07435601374168,19.68312790531058],[-99.06833347710295,19.67112465883733],[-99.07245416006629,19.6571208712852],[-99.1203174775635,19.65311978912745]]]]}},{"type":"Feature","properties":{"cvegeo":"15108","cve_ent":"15","state_code":"MEX","nom_mun":"Tultepec"},"geometry":{"type":"Polygon","coordinates":[[[-99.1203174775635,19.65311978912745],[-99.14916225830686,19.660394483959724],[-99.13996996554249,19.69349434544657],[-99.10827240428607,19.703133316099333],[-99.10668752622324,19.687856456951558],[-99.1203174775635,19.65311978912745]]]}},{"type":"Feature","properties":{"cvegeo":"15107","cve_ent":"15","state_code":"MEX","nom_mun":"Tonatico"},"geometry":{"type":"Polygon","coordinates":[[[-99.61067875020055,18.812892535999822],[-99.5818339694572,18.775245990242805],[-99.5808830426195,18.730142882282706],[-99.62335777470312,18.73869064871063],[-99.63128216501724,18.720322044259138],[-99.66139484821085,18.771244908085055],[-99.69721309243062,18.786158032491215],[-99.71179397060858,18.812710668629016],[-99.64808187248315,18.83326168153019],[-99.61067875020055,18.812892535999822]]]}},{"type":"Feature","properties":{"cvegeo":"15106","cve_ent":"15","state_code":"MEX","nom_mun":"Toluca"},"geometry":{"type":"Polygon","coordinates":[[[-99.55584196922692,19.286111434839235],[-99.56376635954103,19.28592956746843],[-99.60592411601209,19.287202639064077],[-99.64586304319519,19.26446921771322],[-99.64713094564546,19.221002916090384],[-99.73461621471321,19.11752038210129],[-99.74602733676554,19.079146366861046],[-99.7694835320953,19.076236488928135],[-99.78247953221043,19.112246228347892],[-99.77265328822094,19.160986683724126],[-99.72066928776039,19.2346429689009],[-99.69848099488088,19.28192848531068],[-99.72447299511116,19.335215624957083],[-99.73239738542526,19.379045661321534],[-99.73239738542526,19.379591263433955],[-99.73144645858757,19.381773671883636],[-99.731129482975,19.384865417187353],[-99.70735631203269,19.42087515660711],[-99.66646645801188,19.463250254005104],[-99.64237631145699,19.474162296253514],[-99.64713094564546,19.43524267890085],[-99.63064821379211,19.40341588900965],[-99.58373582313259,19.375408313905396],[-99.5720077254677,19.395049989952536],[-99.54569874962486,19.365769343252634],[-99.52858206654639,19.319029428955275],[-99.56154753025308,19.30957232567332],[-99.55584196922692,19.286111434839235]]]}},{"type":"Feature","properties":{"cvegeo":"15105","cve_ent":"15","state_code":"MEX","nom_mun":"Tlatlaya"},"geometry":{"type":"Polygon","coordinates":[[[-100.0680745591309,18.59101434361547],[-100.07694987628271,18.548821113588282],[-100.08994587639785,18.522086610079675],[-100.15936353554945,18.491532891784125],[-100.18567251139228,18.45497755025195],[-100.22687934102565,18.43078918993464],[-100.25794295105696,18.42860678148496],[-100.26808617065902,18.3793207239963],[-100.29185934160134,18.38168499981679],[-100.30612324416674,18.36786307963547],[-100.35937514707754,18.423514495102367],[-100.38536714730782,18.426424373035275],[-100.36191095197806,18.496625178166717],[-100.39614431813501,18.540455214531168],[-100.42974373306683,18.51099270046046],[-100.44939622104582,18.553731532600068],[-100.42974373306683,18.59919837530178],[-100.4113591475381,18.62338673561909],[-100.35145075676344,18.631570767305398],[-100.32672665898342,18.65794153607239],[-100.27696148781082,18.63775425791283],[-100.13685826705738,18.67703761000711],[-100.0680745591309,18.602835722717916],[-100.0680745591309,18.59101434361547]]]}},{"type":"Feature","properties":{"cvegeo":"15103","cve_ent":"15","state_code":"MEX","nom_mun":"Tlalmanalco"},"geometry":{"type":"Polygon","coordinates":[[[-98.80175698693634,19.232460560451216],[-98.80144001132378,19.232460560451216],[-98.68320810783727,19.264832952454835],[-98.66197074179546,19.24664621537415],[-98.63217503421441,19.263741748229993],[-98.6277373756385,19.25774012499337],[-98.64390313187928,19.23864405105865],[-98.64041640014108,19.16717017433156],[-98.63914849769083,19.16353282691542],[-98.67148001017239,19.18317450296256],[-98.70000781530318,19.17117125648931],[-98.75769737678989,19.17808221657997],[-98.77639893793119,19.148983437250873],[-98.79002888927145,19.1762635428719],[-98.81792274317712,19.169170715410434],[-98.82553015787866,19.167897643814786],[-98.85152215810893,19.18262890085014],[-98.84359776779483,19.20572605694261],[-98.83250362135507,19.212273282291655],[-98.80175698693634,19.232460560451216]]]}},{"type":"Feature","properties":{"cvegeo":"15102","cve_ent":"15","state_code":"MEX","nom_mun":"Timilpan"},"geometry":{"type":"Polygon","coordinates":[[[-99.72098626337295,19.96629540165684],[-99.7000658729437,20.018855071820017],[-99.71718255602218,20.017036398111948],[-99.72352206827347,20.01812760233679],[-99.72352206827347,20.018309469707596],[-99.69372636069241,20.049408790115567],[-99.69467728753011,20.019400673932438],[-99.69372636069241,20.019400673932438],[-99.69309240946728,20.019400673932438],[-99.69372636069241,20.019400673932438],[-99.6956282143678,19.982117862917036],[-99.67470782393855,19.976116239680408],[-99.70862421448294,19.951927879363097],[-99.7330313366504,19.920464824213514],[-99.64776489687058,19.941561439227108],[-99.65505533595956,19.896276463896204],[-99.67027016536265,19.84062504842931],[-99.71845045847243,19.839715711575273],[-99.74571036115297,19.81279934069586],[-99.74888011727862,19.795158205727596],[-99.77962675169735,19.81279934069586],[-99.78945299568684,19.845899202182707],[-99.76821562964504,19.852992029644174],[-99.77804187363454,19.900823148166374],[-99.74602733676554,19.937196622327743],[-99.74063875135194,19.940106500260654],[-99.72098626337295,19.96629540165684]]]}},{"type":"Feature","properties":{"cvegeo":"15101","cve_ent":"15","state_code":"MEX","nom_mun":"Tianguistenco"},"geometry":{"type":"Polygon","coordinates":[[[-99.31367260122776,19.21900237501151],[-99.30701611336391,19.2108183433252],[-99.42049338266195,19.18390197244579],[-99.44109679747862,19.18717558512031],[-99.45757952933198,19.15025650884652],[-99.40971621183476,19.147710365655225],[-99.30701611336391,19.125158811675178],[-99.33554391849471,19.113883034685152],[-99.45092304146813,19.107335809336107],[-99.48198665149943,19.08642106169332],[-99.48198665149943,19.087694133288966],[-99.48800918813815,19.149529039363294],[-99.48040177343661,19.17117125648931],[-99.51526909081869,19.184083839816594],[-99.53682343247306,19.192267871502903],[-99.53682343247306,19.209545271729553],[-99.5133672371433,19.22318532454007],[-99.51495211520613,19.230096284630726],[-99.47723201731097,19.22191225294442],[-99.47723201731097,19.184083839816594],[-99.45631162688171,19.20445298534696],[-99.42936869981375,19.203179913751313],[-99.44902118779274,19.230096284630726],[-99.41447084602322,19.237734714204613],[-99.40876528499706,19.203725515863734],[-99.31367260122776,19.21900237501151]]]}},{"type":"Feature","properties":{"cvegeo":"15100","cve_ent":"15","state_code":"MEX","nom_mun":"Tezoyuca"},"geometry":{"type":"Polygon","coordinates":[[[-98.91079659765848,19.57691736075938],[-98.97260684210852,19.59655903680652],[-98.96943708598288,19.60874415065058],[-98.90192128050667,19.606016140088478],[-98.91079659765848,19.57691736075938]]]}},{"type":"Feature","properties":{"cvegeo":"15099","cve_ent":"15","state_code":"MEX","nom_mun":"Texcoco"},"geometry":{"type":"Polygon","coordinates":[[[-98.8927289877423,19.53672467181107],[-98.8838536705905,19.53599720232784],[-98.86420118261151,19.55454767415014],[-98.84676752392048,19.55327460255449],[-98.79890420642326,19.552547133071265],[-98.78305542579504,19.51817419998877],[-98.7513578645386,19.527631303270727],[-98.7291695716591,19.521629680034103],[-98.68415903467496,19.477072174186425],[-98.65309542464365,19.4657963971964],[-98.6350278147275,19.4312415967431],[-98.66038586373264,19.432150933597132],[-98.65753308321956,19.39705053103141],[-98.71300381541832,19.41159992069596],[-98.75167484015117,19.395049989952536],[-98.79922118203582,19.404870827976104],[-98.88543854865333,19.435970148384076],[-98.92442654899874,19.42760424932696],[-98.94027532962696,19.46343212137591],[-98.97831240313468,19.451610742273466],[-98.99067445202469,19.425967442989702],[-99.02712664746959,19.435424546271655],[-99.02902850114498,19.484346869018697],[-99.01444762296701,19.490166624884516],[-98.8927289877423,19.53672467181107]]]}},{"type":"Feature","properties":{"cvegeo":"15098","cve_ent":"15","state_code":"MEX","nom_mun":"Texcalyacac"},"geometry":{"type":"Polygon","coordinates":[[[-99.52604626164587,19.159168010016057],[-99.48800918813815,19.149529039363294],[-99.48198665149943,19.087694133288966],[-99.53048392022177,19.12024839266339],[-99.53777435931076,19.12024839266339],[-99.53460460318512,19.143163681385055],[-99.52604626164587,19.159168010016057]]]}},{"type":"Feature","properties":{"cvegeo":"15097","cve_ent":"15","state_code":"MEX","nom_mun":"Texcaltitlán"},"geometry":{"type":"Polygon","coordinates":[[[-99.95903494840877,18.997851652110384],[-99.90197933814719,18.98312039507503],[-99.88391172823103,19.005308214313466],[-99.88296080139334,18.980028649771313],[-99.85474997187511,18.971480883343393],[-99.8858135819064,18.907281701448575],[-99.89944353324668,18.91746627421376],[-99.95332938738261,18.88982243385112],[-99.9837590461888,18.862360460859286],[-100.00880011958138,18.87127196202882],[-99.99136646089033,18.90982784463987],[-100.01323777815728,18.94038156293542],[-99.95903494840877,18.997851652110384]]]}},{"type":"Feature","properties":{"cvegeo":"15096","cve_ent":"15","state_code":"MEX","nom_mun":"Tequixquiac"},"geometry":{"type":"Polygon","coordinates":[[[-99.14282274605557,19.958656972082952],[-99.12665698981479,19.94483505190163],[-99.05850723311346,19.93519608124887],[-99.0902047943699,19.915372537830923],[-99.08861991630707,19.89936820919992],[-99.11302703847453,19.903187423986864],[-99.12253630685146,19.82371138294427],[-99.13489835574147,19.826803128247988],[-99.17356938047432,19.856811244431118],[-99.19575767335382,19.893184718592487],[-99.2182629418459,19.88900176906393],[-99.21541016133281,19.954474022554393],[-99.19227094161562,19.941561439227108],[-99.17388635608688,19.96447672794877],[-99.16120733158431,19.93155873383273],[-99.14282274605557,19.958656972082952]]]}},{"type":"Feature","properties":{"cvegeo":"15095","cve_ent":"15","state_code":"MEX","nom_mun":"Tepotzotlán"},"geometry":{"type":"Polygon","coordinates":[[[-99.2084366978564,19.752055638846375],[-99.20019533192972,19.74714521983459],[-99.19575767335382,19.714590960460164],[-99.25471513729079,19.692221273850922],[-99.27880528384568,19.662758759780214],[-99.30511425968852,19.645845094295176],[-99.35900011382446,19.705497591919823],[-99.41985943143682,19.69985970342481],[-99.41225201673527,19.74532654612652],[-99.38784489456782,19.77715333601772],[-99.34346830880881,19.780245081321436],[-99.31208772316494,19.75169190410476],[-99.27531855210748,19.769878641185446],[-99.22840616144795,19.792066460423882],[-99.2084366978564,19.752055638846375]]]}},{"type":"Feature","properties":{"cvegeo":"15094","cve_ent":"15","state_code":"MEX","nom_mun":"Tepetlixpa"},"geometry":{"type":"Polygon","coordinates":[[[-98.84074498728175,18.955658422083197],[-98.86863884118742,18.999670325818453],[-98.87117464608792,19.025131757731412],[-98.84328079218227,19.040044882137572],[-98.83535640186815,19.07241727414119],[-98.82457923104097,19.04313662744129],[-98.80524371867455,19.023131216652537],[-98.84074498728175,18.955658422083197]]]}},{"type":"Feature","properties":{"cvegeo":"15093","cve_ent":"15","state_code":"MEX","nom_mun":"Tepetlaoxtoc"},"geometry":{"type":"Polygon","coordinates":[[[-98.82489620665353,19.63111383725982],[-98.81633786511429,19.618201253932536],[-98.79224771855941,19.611290293841876],[-98.74755415718784,19.6278402245853],[-98.71997727889473,19.60237879267234],[-98.68130625416188,19.598195843143785],[-98.70856615684242,19.55454767415014],[-98.65309542464365,19.4657963971964],[-98.68415903467496,19.477072174186425],[-98.7291695716591,19.521629680034103],[-98.7513578645386,19.527631303270727],[-98.78305542579504,19.51817419998877],[-98.79890420642326,19.552547133071265],[-98.84676752392048,19.55327460255449],[-98.86229932893613,19.56545971639855],[-98.87212557292563,19.598559577885396],[-98.84074498728175,19.635478654159186],[-98.82489620665353,19.63111383725982]]]}},{"type":"Feature","properties":{"cvegeo":"15092","cve_ent":"15","state_code":"MEX","nom_mun":"Teotihuacán"},"geometry":{"type":"Polygon","coordinates":[[[-98.81475298705148,19.660394483959724],[-98.81475298705148,19.6438445532163],[-98.82489620665353,19.63111383725982],[-98.84074498728175,19.635478654159186],[-98.86927279241254,19.65475659546471],[-98.90001942683128,19.662031290296987],[-98.93171698808771,19.690220732772048],[-98.91618518307207,19.72932221749552],[-98.88100089007743,19.750418832509112],[-98.88195181691512,19.743326005047646],[-98.89114410967949,19.720956318438404],[-98.80714557234992,19.686219650614298],[-98.81475298705148,19.660394483959724]]]}},{"type":"Feature","properties":{"cvegeo":"15091","cve_ent":"15","state_code":"MEX","nom_mun":"Teoloyucan"},"geometry":{"type":"Polygon","coordinates":[[[-99.20019533192972,19.74714521983459],[-99.2084366978564,19.752055638846375],[-99.20209718560511,19.750236965138306],[-99.18561445375177,19.76551382428608],[-99.18022586833817,19.792975797277915],[-99.14377367289327,19.79552194046921],[-99.13838508747968,19.76551382428608],[-99.15676967300841,19.720410716325983],[-99.20019533192972,19.74714521983459]]]}},{"type":"Feature","properties":{"cvegeo":"15090","cve_ent":"15","state_code":"MEX","nom_mun":"Tenango del Valle"},"geometry":{"type":"Polygon","coordinates":[[[-99.53777435931076,19.12024839266339],[-99.53048392022177,19.12024839266339],[-99.526680212871,19.074417815220066],[-99.55774382290231,19.02294934928173],[-99.60275435988645,19.014583450224613],[-99.60243738427388,19.039499280025154],[-99.63825562849365,19.030769646226425],[-99.65632323840983,19.057686017105837],[-99.77170236138325,19.06514257930892],[-99.78501533711095,19.071689804657964],[-99.7694835320953,19.076236488928135],[-99.74602733676554,19.079146366861046],[-99.73461621471321,19.11752038210129],[-99.64079143339417,19.122976403225493],[-99.63318401869262,19.140435670822953],[-99.60877689652517,19.13534338444036],[-99.53777435931076,19.12024839266339]]]}},{"type":"Feature","properties":{"cvegeo":"15089","cve_ent":"15","state_code":"MEX","nom_mun":"Tenango del Aire"},"geometry":{"type":"Polygon","coordinates":[[[-98.9247435246113,19.15844054053283],[-98.88512157304076,19.155348795229113],[-98.87751415833921,19.18390197244579],[-98.85152215810893,19.18262890085014],[-98.82553015787866,19.167897643814786],[-98.849303328821,19.124613209562757],[-98.85500888984714,19.114064902055958],[-98.91777006113489,19.14298181401425],[-98.9247435246113,19.15844054053283]]]}},{"type":"Feature","properties":{"cvegeo":"15087","cve_ent":"15","state_code":"MEX","nom_mun":"Temoaya"},"geometry":{"type":"Polygon","coordinates":[[[-99.48959406620098,19.51144510726892],[-99.50575982244176,19.5030792082118],[-99.51083143224278,19.501624269245347],[-99.51241631030561,19.50144240187454],[-99.57042284740488,19.45997664133058],[-99.57898118894413,19.39832360262706],[-99.63064821379211,19.40341588900965],[-99.64713094564546,19.43524267890085],[-99.64237631145699,19.474162296253514],[-99.66646645801188,19.463250254005104],[-99.70735631203269,19.42087515660711],[-99.71052606815833,19.462704651892683],[-99.731129482975,19.478708980523685],[-99.69467728753011,19.523266486371362],[-99.68802079966626,19.5030792082118],[-99.63730470165596,19.504716014549064],[-99.57422655475565,19.5241758232254],[-99.55457406677667,19.570370135410336],[-99.52572928603331,19.582009647141973],[-99.51653699326894,19.57364374808486],[-99.5222425542951,19.54127135608124],[-99.48959406620098,19.51144510726892]]]}},{"type":"Feature","properties":{"cvegeo":"15086","cve_ent":"15","state_code":"MEX","nom_mun":"Temascaltepec"},"geometry":{"type":"Polygon","coordinates":[[[-100.0966023642617,19.012946643887354],[-100.14129592563327,19.012764776516548],[-100.17362743811483,18.978755578175665],[-100.24019231675335,19.014401582853807],[-100.23670558501514,19.06514257930892],[-100.2148342677482,19.1178841168429],[-100.16538607218817,19.08969467436784],[-100.11466997417787,19.08005570371508],[-100.05698041269116,19.08514799009767],[-100.05793133952885,19.12424947482114],[-100.0005587536547,19.111518758864662],[-99.9596688996339,19.175536073388674],[-99.97076304607366,19.186448115637084],[-99.91465836264976,19.203725515863734],[-99.90261328937233,19.23264242782202],[-99.87408548424153,19.23627977523816],[-99.88422870384359,19.204634852717767],[-99.84714255717356,19.185356911412242],[-99.8744024598541,19.15844054053283],[-99.8423879229851,19.15152958044217],[-99.83446353267098,19.124613209562757],[-99.84809348401126,19.076782091040556],[-99.83002587409509,19.07423594784926],[-99.84555767911074,19.053866802318893],[-99.81671289836738,19.04131795373322],[-99.85284811819972,19.02986030937239],[-99.85221416697459,18.99530550891909],[-99.88391172823103,19.005308214313466],[-99.90197933814719,18.98312039507503],[-99.95903494840877,18.997851652110384],[-99.92797133837747,19.019312001865593],[-99.97361582658674,19.017493328157524],[-100.01260382693215,19.03458886101337],[-100.0966023642617,19.012946643887354]]]}},{"type":"Feature","properties":{"cvegeo":"15085","cve_ent":"15","state_code":"MEX","nom_mun":"Temascalcingo"},"geometry":{"type":"Polygon","coordinates":[[[-100.13780919389507,20.044316503732976],[-100.07694987628271,20.029403379326816],[-100.02655075388498,19.997030987323196],[-99.97424977781186,19.971023953297816],[-99.96791026556058,19.930285662237083],[-99.93209202134081,19.939197163406618],[-99.89088519170744,19.90573356717816],[-99.92606948470208,19.89063857540119],[-99.96537446066006,19.878453461557132],[-99.97361582658674,19.85790244865596],[-99.93019016766542,19.858629918139187],[-99.95871797279621,19.815345483887157],[-99.98217416812597,19.815345483887157],[-100.03447514419909,19.810798799616986],[-100.09184773007324,19.859902989734834],[-100.13051875480609,19.91610000731415],[-100.13146968164378,19.98175412817542],[-100.11593787662812,20.00594248849273],[-100.15524285258611,20.00721556008838],[-100.15302402329816,20.054319209127353],[-100.13780919389507,20.044316503732976]]]}},{"type":"Feature","properties":{"cvegeo":"15084","cve_ent":"15","state_code":"MEX","nom_mun":"Temascalapa"},"geometry":{"type":"Polygon","coordinates":[[[-98.81475298705148,19.867723286679528],[-98.83472245064303,19.79734061417728],[-98.809998352863,19.78406429610838],[-98.86927279241254,19.772606651747548],[-98.88100089007743,19.750418832509112],[-98.91618518307207,19.72932221749552],[-98.94154323207721,19.748418291430237],[-98.94566391504056,19.803887839526325],[-98.91396635378412,19.87699852259068],[-98.8705406948628,19.895003392300556],[-98.81475298705148,19.867723286679528]]]}},{"type":"Feature","properties":{"cvegeo":"15083","cve_ent":"15","state_code":"MEX","nom_mun":"Temamatla"},"geometry":{"type":"Polygon","coordinates":[[[-98.88163484130256,19.221002916090384],[-98.84359776779483,19.20572605694261],[-98.85152215810893,19.18262890085014],[-98.87751415833921,19.18390197244579],[-98.88512157304076,19.155348795229113],[-98.9247435246113,19.15844054053283],[-98.88163484130256,19.221002916090384]]]}},{"type":"Feature","properties":{"cvegeo":"15081","cve_ent":"15","state_code":"MEX","nom_mun":"Tecámac"},"geometry":{"type":"Polygon","coordinates":[[[-98.94566391504056,19.803887839526325],[-98.94154323207721,19.748418291430237],[-98.91618518307207,19.72932221749552],[-98.93171698808771,19.690220732772048],[-98.94281113452747,19.656939003914395],[-98.97577659823416,19.6438445532163],[-99.00430440336496,19.651846717531804],[-99.04012264758472,19.614018304403977],[-99.06262791607679,19.659121412364076],[-99.04519425738576,19.69767729497513],[-99.03536801339627,19.72859474801229],[-98.98940654957443,19.72168378792163],[-98.97577659823416,19.758420996824615],[-99.01761737909266,19.77187918226432],[-98.97038801282056,19.808616391167305],[-98.94566391504056,19.803887839526325]]]}},{"type":"Feature","properties":{"cvegeo":"15080","cve_ent":"15","state_code":"MEX","nom_mun":"Sultepec"},"geometry":{"type":"Polygon","coordinates":[[[-100.00880011958138,18.87127196202882],[-99.9837590461888,18.862360460859286],[-99.95332938738261,18.88982243385112],[-99.93240899695337,18.879092258973515],[-99.95459728983288,18.84599239748667],[-99.86489319147717,18.783975624041535],[-99.84524070349818,18.775791592355226],[-99.86584411831485,18.77724653132168],[-99.8744024598541,18.715229757876546],[-99.90610002111053,18.71050120623557],[-99.89056821609488,18.649575637015275],[-99.92892226521516,18.632298236788625],[-99.94286919216799,18.589741272019822],[-99.96157075330929,18.55282219574603],[-100.02179611969652,18.60374505957195],[-100.00563036345574,18.668126108837573],[-100.07409709576963,18.669217313062415],[-100.11942460836633,18.70231717454926],[-100.11466997417787,18.753421905745984],[-100.1374922182825,18.789795379907353],[-100.0547615834032,18.818530424494835],[-100.0281356319478,18.865270338792193],[-100.00880011958138,18.87127196202882]]]}},{"type":"Feature","properties":{"cvegeo":"15079","cve_ent":"15","state_code":"MEX","nom_mun":"Soyaniquilpan de Juárez"},"geometry":{"type":"Polygon","coordinates":[[[-99.48705826130046,20.10506020558246],[-99.44109679747862,20.013217183325004],[-99.4449005048294,19.985027740849944],[-99.56281543270335,20.012489713841777],[-99.58975835977131,20.104514603470044],[-99.54031016421126,20.10233219502036],[-99.53333670073485,20.12015519735943],[-99.48705826130046,20.10506020558246]]]}},{"type":"Feature","properties":{"cvegeo":"15078","cve_ent":"15","state_code":"MEX","nom_mun":"Santo Tomás"},"geometry":{"type":"Polygon","coordinates":[[[-100.3615939763655,19.154621325745886],[-100.37268812280524,19.19299534098613],[-100.33813778103574,19.227004539327012],[-100.24304509726643,19.197360157885495],[-100.20754382865923,19.14389115086828],[-100.29090841476365,19.14116314030618],[-100.33053036633419,19.159168010016057],[-100.3615939763655,19.154621325745886]]]}},{"type":"Feature","properties":{"cvegeo":"15077","cve_ent":"15","state_code":"MEX","nom_mun":"San Simón de Guerrero"},"geometry":{"type":"Polygon","coordinates":[[[-100.0966023642617,19.012946643887354],[-100.01260382693215,19.03458886101337],[-99.97361582658674,19.017493328157524],[-99.92797133837747,19.019312001865593],[-99.95903494840877,18.997851652110384],[-100.01323777815728,18.94038156293542],[-100.0601501688168,18.930378857541044],[-100.07948568118323,18.910009712010677],[-100.11593787662812,18.936562348148477],[-100.07599894944502,18.97675503709679],[-100.0966023642617,19.012946643887354]]]}},{"type":"Feature","properties":{"cvegeo":"15076","cve_ent":"15","state_code":"MEX","nom_mun":"San Mateo Atenco"},"geometry":{"type":"Polygon","coordinates":[[[-99.56376635954103,19.28592956746843],[-99.55584196922692,19.286111434839235],[-99.5222425542951,19.28592956746843],[-99.51970674939459,19.238825918429455],[-99.55235523748871,19.248283021711412],[-99.56376635954103,19.28592956746843]]]}},{"type":"Feature","properties":{"cvegeo":"15074","cve_ent":"15","state_code":"MEX","nom_mun":"San Felipe del Progreso"},"geometry":{"type":"Polygon","coordinates":[[[-100.07948568118323,19.764058885319628],[-100.01830938795831,19.75642045574574],[-100.0157735830578,19.734778238619725],[-100.00658129029343,19.75132816936315],[-99.88739845996923,19.719683246842756],[-99.90673397233566,19.685128446389456],[-99.86742899637768,19.63020450040579],[-99.91085465529899,19.58510139244569],[-99.90197933814719,19.545090570868183],[-99.93019016766542,19.532905457024125],[-100.0148226562201,19.554911408891755],[-100.00880011958138,19.581282177658746],[-100.07409709576963,19.59783210840217],[-100.05698041269116,19.650028043823735],[-100.0779008031204,19.678217486298795],[-100.06268597371732,19.725503002708574],[-100.07948568118323,19.764058885319628]]]}},{"type":"Feature","properties":{"cvegeo":"15073","cve_ent":"15","state_code":"MEX","nom_mun":"San Antonio la Isla"},"geometry":{"type":"Polygon","coordinates":[[[-99.52604626164587,19.159168010016057],[-99.53460460318512,19.143163681385055],[-99.59578089641003,19.157167468937182],[-99.53682343247306,19.192267871502903],[-99.51526909081869,19.184083839816594],[-99.51590304204382,19.166806439589944],[-99.52604626164587,19.159168010016057]]]}},{"type":"Feature","properties":{"cvegeo":"15072","cve_ent":"15","state_code":"MEX","nom_mun":"Rayón"},"geometry":{"type":"Polygon","coordinates":[[[-99.53777435931076,19.12024839266339],[-99.60877689652517,19.13534338444036],[-99.59578089641003,19.157167468937182],[-99.53460460318512,19.143163681385055],[-99.53777435931076,19.12024839266339]]]}},{"type":"Feature","properties":{"cvegeo":"15071","cve_ent":"15","state_code":"MEX","nom_mun":"Polotitlán"},"geometry":{"type":"Polygon","coordinates":[[[-99.859187630451,20.26837710456701],[-99.85950460606357,20.26492162452168],[-99.84207094737253,20.28183529000672],[-99.78850206884916,20.222910261865298],[-99.72098626337295,20.167804448510825],[-99.69911494610601,20.1725330001518],[-99.71686558040962,20.138160067069308],[-99.71464675112166,20.16107535579097],[-99.74951406850374,20.14507102715997],[-99.77328723944606,20.171805530668575],[-99.84872743523638,20.213816893324957],[-99.92258275296388,20.231094293551607],[-99.93431085062876,20.250190367486326],[-99.91339046019951,20.285836372164468],[-99.859187630451,20.26837710456701]]]}},{"type":"Feature","properties":{"cvegeo":"15070","cve_ent":"15","state_code":"MEX","nom_mun":"La Paz"},"geometry":{"type":"Polygon","coordinates":[[[-98.8981175731559,19.37340777282652],[-98.90762684153283,19.356675974712292],[-98.9523204029044,19.333033216507403],[-98.9523204029044,19.33321508387821],[-98.97450869578391,19.337034298665152],[-98.99194235447494,19.367588016960703],[-98.96595035424467,19.373225905455715],[-98.95549015903005,19.394504387840115],[-98.8981175731559,19.37340777282652]]]}},{"type":"Feature","properties":{"cvegeo":"15068","cve_ent":"15","state_code":"MEX","nom_mun":"Ozumba"},"geometry":{"type":"Polygon","coordinates":[[[-98.78749308437094,19.056594812880995],[-98.78242147456992,19.043864096924516],[-98.78273845018248,19.04368222955371],[-98.79097981610914,19.021312542944468],[-98.77259523058042,19.007854357504762],[-98.82426225542841,18.95493095259997],[-98.83599035309328,18.950020533588184],[-98.84074498728175,18.955658422083197],[-98.80524371867455,19.023131216652537],[-98.82457923104097,19.04313662744129],[-98.83535640186815,19.07241727414119],[-98.81506996266404,19.081874377423148],[-98.78749308437094,19.056594812880995]]]}},{"type":"Feature","properties":{"cvegeo":"15067","cve_ent":"15","state_code":"MEX","nom_mun":"Otzolotepec"},"geometry":{"type":"Polygon","coordinates":[[[-99.51241631030561,19.50144240187454],[-99.51083143224278,19.501624269245347],[-99.50575982244176,19.5030792082118],[-99.48959406620098,19.51144510726892],[-99.47501318802301,19.511081372527304],[-99.44204772431632,19.48762048169322],[-99.4848394320125,19.438334424204566],[-99.56566821321641,19.39541372469415],[-99.5720077254677,19.395049989952536],[-99.58373582313259,19.375408313905396],[-99.63064821379211,19.40341588900965],[-99.57898118894413,19.39832360262706],[-99.57042284740488,19.45997664133058],[-99.51241631030561,19.50144240187454]]]}},{"type":"Feature","properties":{"cvegeo":"15066","cve_ent":"15","state_code":"MEX","nom_mun":"Otzoloapan"},"geometry":{"type":"Polygon","coordinates":[[[-100.20754382865923,19.14389115086828],[-100.2148342677482,19.1178841168429],[-100.27854636587364,19.095332562862854],[-100.30390441487879,19.04131795373322],[-100.32482480530804,19.038226208429506],[-100.35779026901473,19.074054080478454],[-100.40914031825015,19.074963417332487],[-100.38980480588373,19.14298181401425],[-100.3615939763655,19.154621325745886],[-100.33053036633419,19.159168010016057],[-100.29090841476365,19.14116314030618],[-100.20754382865923,19.14389115086828]]]}},{"type":"Feature","properties":{"cvegeo":"15064","cve_ent":"15","state_code":"MEX","nom_mun":"El Oro"},"geometry":{"type":"Polygon","coordinates":[[[-100.09184773007324,19.859902989734834],[-100.03447514419909,19.810798799616986],[-99.98217416812597,19.815345483887157],[-99.99231738772804,19.77078797803948],[-100.0157735830578,19.734778238619725],[-100.01830938795831,19.75642045574574],[-100.07948568118323,19.764058885319628],[-100.11023231560196,19.740597994485544],[-100.14478265737148,19.764240752690434],[-100.13432246215686,19.845353600070286],[-100.09184773007324,19.859902989734834]]]}},{"type":"Feature","properties":{"cvegeo":"15063","cve_ent":"15","state_code":"MEX","nom_mun":"Ocuilan"},"geometry":{"type":"Polygon","coordinates":[[[-99.49086196865123,19.03095151359723],[-99.49371474916431,19.032406452563684],[-99.48198665149943,19.08642106169332],[-99.45092304146813,19.107335809336107],[-99.33554391849471,19.113883034685152],[-99.30701611336391,19.125158811675178],[-99.29528801569903,19.12261266848388],[-99.31398957684033,19.098242440795765],[-99.31177074755237,19.02458615561899],[-99.31303865000262,18.94801999250931],[-99.34188343074598,18.92255856059635],[-99.36502265046319,18.89891580239146],[-99.42936869981375,18.87763732000706],[-99.43475728522735,18.932015663878307],[-99.47564713924814,18.918375611067795],[-99.46138323668275,18.98948575305327],[-99.47501318802301,19.017493328157524],[-99.48452245639994,19.03331578941772],[-99.49086196865123,19.03095151359723]]]}},{"type":"Feature","properties":{"cvegeo":"15062","cve_ent":"15","state_code":"MEX","nom_mun":"Ocoyoacac"},"geometry":{"type":"Polygon","coordinates":[[[-99.3818223579291,19.305753110886375],[-99.35646430892395,19.30320696769508],[-99.36533962607575,19.27774553578212],[-99.33934762584548,19.267560963016937],[-99.32444977205495,19.232460560451216],[-99.32223094276699,19.232460560451216],[-99.3158914305157,19.227368274068624],[-99.31367260122776,19.21900237501151],[-99.40876528499706,19.203725515863734],[-99.41447084602322,19.237734714204613],[-99.44902118779274,19.230096284630726],[-99.46994157822198,19.227186406697818],[-99.49625055406483,19.24773741959899],[-99.49720148090252,19.28411089376036],[-99.40686343132168,19.31284593834784],[-99.3818223579291,19.305753110886375]]]}},{"type":"Feature","properties":{"cvegeo":"15061","cve_ent":"15","state_code":"MEX","nom_mun":"Nopaltepec"},"geometry":{"type":"Polygon","coordinates":[[[-98.6784534736488,19.81407241229151],[-98.66101981495777,19.83462342519268],[-98.63978244891595,19.810798799616986],[-98.68669483957548,19.802614767930677],[-98.73550908391039,19.736051310215373],[-98.7513578645386,19.74659961772217],[-98.72885259604654,19.78406429610838],[-98.7646708402663,19.798068083660507],[-98.7798856696694,19.840806915800115],[-98.75389366943912,19.83007674092251],[-98.7291695716591,19.864995276117426],[-98.67179698578495,19.853537631756595],[-98.69810596162779,19.83189541463058],[-98.6784534736488,19.81407241229151]]]}},{"type":"Feature","properties":{"cvegeo":"15060","cve_ent":"15","state_code":"MEX","nom_mun":"Nicolás Romero"},"geometry":{"type":"Polygon","coordinates":[[[-99.51653699326894,19.57364374808486],[-99.52572928603331,19.582009647141973],[-99.52509533480819,19.614927641258014],[-99.45884743178223,19.61510950862882],[-99.45187396830582,19.655665932318747],[-99.4261989436881,19.67621694521992],[-99.41985943143682,19.69985970342481],[-99.35900011382446,19.705497591919823],[-99.30511425968852,19.645845094295176],[-99.27880528384568,19.662758759780214],[-99.27722040578286,19.627658357214493],[-99.26612625934311,19.607471079054932],[-99.29053338151056,19.582009647141973],[-99.334592991657,19.579463503950677],[-99.36502265046319,19.588193137749407],[-99.46772274893404,19.56273170583645],[-99.51653699326894,19.57364374808486]]]}},{"type":"Feature","properties":{"cvegeo":"15059","cve_ent":"15","state_code":"MEX","nom_mun":"Nextlalpan"},"geometry":{"type":"Polygon","coordinates":[[[-99.12317025807658,19.724229931112927],[-99.130143721553,19.751510036733954],[-99.09844616029656,19.764058885319628],[-99.08513318456886,19.74532654612652],[-99.03600196462139,19.771697314893515],[-99.03536801339627,19.72859474801229],[-99.04519425738576,19.69767729497513],[-99.07435601374168,19.68312790531058],[-99.10668752622324,19.687856456951558],[-99.10827240428607,19.703133316099333],[-99.12317025807658,19.724229931112927]]]}},{"type":"Feature","properties":{"cvegeo":"15058","cve_ent":"15","state_code":"MEX","nom_mun":"Nezahualcóyotl"},"geometry":{"type":"Polygon","coordinates":[[[-98.99067445202469,19.425967442989702],[-98.96595035424467,19.373225905455715],[-98.99194235447494,19.367588016960703],[-99.0581902575009,19.40068787844755],[-99.05565445260038,19.422148228202758],[-99.05121679402448,19.449973935936203],[-99.06421279413962,19.49871439131244],[-99.02902850114498,19.484346869018697],[-99.02712664746959,19.435424546271655],[-98.99067445202469,19.425967442989702]]]}},{"type":"Feature","properties":{"cvegeo":"15057","cve_ent":"15","state_code":"MEX","nom_mun":"Naucalpan de Juárez"},"geometry":{"type":"Polygon","coordinates":[[[-99.24742469820181,19.518356067359576],[-99.21382528326998,19.497077584975177],[-99.20685181979357,19.471070550949797],[-99.20875367346896,19.46979747935415],[-99.23981728350027,19.41214552280838],[-99.26422440566772,19.434697076788428],[-99.36248684556267,19.43069599463068],[-99.39608626049449,19.419238350269847],[-99.41415387041066,19.430150392518257],[-99.40876528499706,19.44797339485733],[-99.38435816282961,19.438334424204566],[-99.33966460145804,19.498350656570825],[-99.32001211347905,19.516173658909896],[-99.3044803084634,19.520720343180066],[-99.28894850344774,19.53599720232784],[-99.24742469820181,19.518356067359576]]]}},{"type":"Feature","properties":{"cvegeo":"15055","cve_ent":"15","state_code":"MEX","nom_mun":"Mexicaltzingo"},"geometry":{"type":"Polygon","coordinates":[[[-99.55298918871384,19.221548518202805],[-99.57105679863001,19.20627165905503],[-99.60845992091261,19.215910629707793],[-99.55298918871384,19.221548518202805]]]}},{"type":"Feature","properties":{"cvegeo":"15054","cve_ent":"15","state_code":"MEX","nom_mun":"Metepec"},"geometry":{"type":"Polygon","coordinates":[[[-99.51970674939459,19.238825918429455],[-99.51495211520613,19.230096284630726],[-99.5133672371433,19.22318532454007],[-99.55298918871384,19.221548518202805],[-99.60845992091261,19.215910629707793],[-99.64713094564546,19.221002916090384],[-99.64586304319519,19.26446921771322],[-99.60592411601209,19.287202639064077],[-99.56376635954103,19.28592956746843],[-99.55235523748871,19.248283021711412],[-99.51970674939459,19.238825918429455]]]}},{"type":"Feature","properties":{"cvegeo":"15053","cve_ent":"15","state_code":"MEX","nom_mun":"Melchor Ocampo"},"geometry":{"type":"Polygon","coordinates":[[[-99.12317025807658,19.724229931112927],[-99.10827240428607,19.703133316099333],[-99.13996996554249,19.69349434544657],[-99.15264899004507,19.720592583696792],[-99.12317025807658,19.724229931112927]]]}},{"type":"Feature","properties":{"cvegeo":"15052","cve_ent":"15","state_code":"MEX","nom_mun":"Malinalco"},"geometry":{"type":"Polygon","coordinates":[[[-99.49086196865123,19.03095151359723],[-99.48452245639994,19.03331578941772],[-99.47501318802301,19.017493328157524],[-99.46138323668275,18.98948575305327],[-99.47564713924814,18.918375611067795],[-99.43475728522735,18.932015663878307],[-99.42936869981375,18.87763732000706],[-99.42683289491323,18.82453204773146],[-99.46550391964608,18.759241661611803],[-99.46645484648377,18.75360377311679],[-99.48832616375071,18.763606478511168],[-99.49720148090252,18.808709586471267],[-99.52192557868254,18.818530424494835],[-99.51622001765638,18.8308974057097],[-99.55235523748871,18.88218400427723],[-99.55013640820077,18.888185627513856],[-99.51907279816946,18.942927706126717],[-99.51051445663022,18.996214845773125],[-99.49086196865123,19.03095151359723]]]}},{"type":"Feature","properties":{"cvegeo":"15051","cve_ent":"15","state_code":"MEX","nom_mun":"Lerma"},"geometry":{"type":"Polygon","coordinates":[[[-99.46994157822198,19.227186406697818],[-99.47723201731097,19.22191225294442],[-99.51495211520613,19.230096284630726],[-99.51970674939459,19.238825918429455],[-99.5222425542951,19.28592956746843],[-99.55584196922692,19.286111434839235],[-99.56154753025308,19.30957232567332],[-99.52858206654639,19.319029428955275],[-99.54569874962486,19.365769343252634],[-99.5720077254677,19.395049989952536],[-99.56566821321641,19.39541372469415],[-99.47437923679789,19.410872451212732],[-99.41415387041066,19.430150392518257],[-99.39608626049449,19.419238350269847],[-99.4040106508086,19.353584229408575],[-99.3818223579291,19.305753110886375],[-99.40686343132168,19.31284593834784],[-99.49720148090252,19.28411089376036],[-99.49625055406483,19.24773741959899],[-99.46994157822198,19.227186406697818]]]}},{"type":"Feature","properties":{"cvegeo":"15050","cve_ent":"15","state_code":"MEX","nom_mun":"Juchitepec"},"geometry":{"type":"Polygon","coordinates":[[[-98.849303328821,19.124613209562757],[-98.83535640186815,19.07241727414119],[-98.84328079218227,19.040044882137572],[-98.87117464608792,19.025131757731412],[-98.90382313418206,19.038408075800312],[-98.91555123184693,19.064051375084077],[-98.9789463543598,19.07423594784926],[-98.95770898831799,19.122430801113076],[-98.95517318341749,19.17389926705141],[-98.9247435246113,19.15844054053283],[-98.91777006113489,19.14298181401425],[-98.85500888984714,19.114064902055958],[-98.849303328821,19.124613209562757]]]}},{"type":"Feature","properties":{"cvegeo":"15048","cve_ent":"15","state_code":"MEX","nom_mun":"Jocotitlán"},"geometry":{"type":"Polygon","coordinates":[[[-99.88739845996923,19.719683246842756],[-100.00658129029343,19.75132816936315],[-100.0157735830578,19.734778238619725],[-99.99231738772804,19.77078797803948],[-99.98217416812597,19.815345483887157],[-99.95871797279621,19.815345483887157],[-99.96125377769673,19.792430195165494],[-99.92923924082773,19.792066460423882],[-99.79135484936224,19.732413962799235],[-99.74571036115297,19.73041342172036],[-99.70513748274473,19.74769082194701],[-99.6591760189229,19.698586631829162],[-99.70165075100653,19.6703971893541],[-99.73588411716348,19.629840765664174],[-99.7640949466817,19.635478654159186],[-99.78786811762403,19.614927641258014],[-99.82622216674432,19.649482441711314],[-99.80339992263968,19.669669719870875],[-99.87186665495358,19.73441450387811],[-99.88739845996923,19.719683246842756]]]}},{"type":"Feature","properties":{"cvegeo":"15047","cve_ent":"15","state_code":"MEX","nom_mun":"Jiquipilco"},"geometry":{"type":"Polygon","coordinates":[[[-99.52572928603331,19.582009647141973],[-99.55457406677667,19.570370135410336],[-99.57422655475565,19.5241758232254],[-99.63730470165596,19.504716014549064],[-99.68802079966626,19.5030792082118],[-99.69467728753011,19.523266486371362],[-99.72732577562424,19.54418123401415],[-99.68485104354062,19.54236256030608],[-99.7409557269645,19.568915196443882],[-99.72130323898551,19.624748479281582],[-99.67914548251446,19.66294062715102],[-99.70165075100653,19.6703971893541],[-99.6591760189229,19.698586631829162],[-99.63508587236801,19.689675130659626],[-99.64237631145699,19.660940086072145],[-99.62145592102775,19.631659439372243],[-99.5729586523054,19.609835354875422],[-99.56471728637872,19.641298410025005],[-99.52509533480819,19.614927641258014],[-99.52572928603331,19.582009647141973]]]}},{"type":"Feature","properties":{"cvegeo":"15046","cve_ent":"15","state_code":"MEX","nom_mun":"Jilotzingo"},"geometry":{"type":"Polygon","coordinates":[[[-99.35456245524855,19.554365806779334],[-99.32635162573034,19.5481823161719],[-99.32001211347905,19.516173658909896],[-99.33966460145804,19.498350656570825],[-99.38435816282961,19.438334424204566],[-99.40876528499706,19.44797339485733],[-99.44204772431632,19.48762048169322],[-99.47501318802301,19.511081372527304],[-99.40020694345783,19.552547133071265],[-99.35456245524855,19.554365806779334]]]}},{"type":"Feature","properties":{"cvegeo":"15045","cve_ent":"15","state_code":"MEX","nom_mun":"Jilotepec"},"geometry":{"type":"Polygon","coordinates":[[[-99.51241631030561,20.175079143343098],[-99.50512587121662,20.160347886307743],[-99.51907279816946,20.148162772463685],[-99.48705826130046,20.10506020558246],[-99.53333670073485,20.12015519735943],[-99.54031016421126,20.10233219502036],[-99.58975835977131,20.104514603470044],[-99.56281543270335,20.012489713841777],[-99.4449005048294,19.985027740849944],[-99.47406226118532,19.954292155183587],[-99.48388850517482,19.90518796506574],[-99.4360251876776,19.903187423986864],[-99.4325384559394,19.87517984888261],[-99.50322401754124,19.891184177513612],[-99.54855153013794,19.889911105917964],[-99.54411387156205,19.8669958171963],[-99.5995846037608,19.895548994412977],[-99.65505533595956,19.896276463896204],[-99.64776489687058,19.941561439227108],[-99.7330313366504,19.920464824213514],[-99.70862421448294,19.951927879363097],[-99.67470782393855,19.976116239680408],[-99.6956282143678,19.982117862917036],[-99.69372636069241,20.019400673932438],[-99.69309240946728,20.019400673932438],[-99.69372636069241,20.019400673932438],[-99.69467728753011,20.019400673932438],[-99.69372636069241,20.049408790115567],[-99.67058714097521,20.077961967332243],[-99.72130323898551,20.103241531874396],[-99.71686558040962,20.138160067069308],[-99.69911494610601,20.1725330001518],[-99.65980997014803,20.18071703183811],[-99.62969728695441,20.145798496643195],[-99.51241631030561,20.175079143343098]]]}},{"type":"Feature","properties":{"cvegeo":"15043","cve_ent":"15","state_code":"MEX","nom_mun":"Xalatlaco"},"geometry":{"type":"Polygon","coordinates":[[[-99.30701611336391,19.2108183433252],[-99.27912225945825,19.131706037024223],[-99.29528801569903,19.12261266848388],[-99.30701611336391,19.125158811675178],[-99.40971621183476,19.147710365655225],[-99.45757952933198,19.15025650884652],[-99.44109679747862,19.18717558512031],[-99.42049338266195,19.18390197244579],[-99.30701611336391,19.2108183433252]]]}},{"type":"Feature","properties":{"cvegeo":"15042","cve_ent":"15","state_code":"MEX","nom_mun":"Ixtlahuaca"},"geometry":{"type":"Polygon","coordinates":[[[-99.69467728753011,19.523266486371362],[-99.731129482975,19.478708980523685],[-99.79230577619992,19.484346869018697],[-99.79389065426275,19.503442942953416],[-99.83573143512125,19.53836147814833],[-99.90197933814719,19.545090570868183],[-99.91085465529899,19.58510139244569],[-99.86742899637768,19.63020450040579],[-99.90673397233566,19.685128446389456],[-99.88739845996923,19.719683246842756],[-99.87186665495358,19.73441450387811],[-99.80339992263968,19.669669719870875],[-99.82622216674432,19.649482441711314],[-99.78786811762403,19.614927641258014],[-99.7640949466817,19.635478654159186],[-99.73588411716348,19.629840765664174],[-99.70165075100653,19.6703971893541],[-99.67914548251446,19.66294062715102],[-99.72130323898551,19.624748479281582],[-99.7409557269645,19.568915196443882],[-99.68485104354062,19.54236256030608],[-99.72732577562424,19.54418123401415],[-99.69467728753011,19.523266486371362]]]}},{"type":"Feature","properties":{"cvegeo":"15041","cve_ent":"15","state_code":"MEX","nom_mun":"Ixtapan del Oro"},"geometry":{"type":"Polygon","coordinates":[[[-100.33813778103574,19.227004539327012],[-100.319753195507,19.26174120715112],[-100.31785134183161,19.317938224730433],[-100.30675719539187,19.32684972589997],[-100.2202228531618,19.26283241137596],[-100.24304509726643,19.197360157885495],[-100.33813778103574,19.227004539327012]]]}},{"type":"Feature","properties":{"cvegeo":"15040","cve_ent":"15","state_code":"MEX","nom_mun":"Ixtapan de la Sal"},"geometry":{"type":"Polygon","coordinates":[[[-99.6094108477503,18.816348016045154],[-99.61067875020055,18.812892535999822],[-99.64808187248315,18.83326168153019],[-99.71179397060858,18.812710668629016],[-99.69721309243062,18.786158032491215],[-99.70925816570806,18.768880632264565],[-99.74285758063989,18.810528260179332],[-99.76187611739375,18.840900111104077],[-99.73398226348809,18.851266551240066],[-99.72066928776039,18.899279537133076],[-99.67217201903804,18.90346248666163],[-99.63318401869262,18.867089012500262],[-99.6094108477503,18.816348016045154]]]}},{"type":"Feature","properties":{"cvegeo":"15039","cve_ent":"15","state_code":"MEX","nom_mun":"Ixtapaluca"},"geometry":{"type":"Polygon","coordinates":[[[-98.65753308321956,19.39705053103141],[-98.64485405871699,19.351765555700506],[-98.66387259547085,19.324849184821094],[-98.63217503421441,19.263741748229993],[-98.66197074179546,19.24664621537415],[-98.68320810783727,19.264832952454835],[-98.69937386407805,19.30829925407767],[-98.76498781587887,19.31248220360623],[-98.81094927970071,19.285383965356008],[-98.81253415776352,19.30829925407767],[-98.8474014751456,19.28865757803053],[-98.91364937817156,19.28993064962618],[-98.9523204029044,19.333033216507403],[-98.9523204029044,19.33321508387821],[-98.9523204029044,19.333033216507403],[-98.90762684153283,19.356675974712292],[-98.8749783534387,19.391048907794787],[-98.79922118203582,19.404870827976104],[-98.75167484015117,19.395049989952536],[-98.71300381541832,19.41159992069596],[-98.65753308321956,19.39705053103141]]]}},{"type":"Feature","properties":{"cvegeo":"15038","cve_ent":"15","state_code":"MEX","nom_mun":"Isidro Fabela"},"geometry":{"type":"Polygon","coordinates":[[[-99.334592991657,19.579463503950677],[-99.35456245524855,19.554365806779334],[-99.40020694345783,19.552547133071265],[-99.47501318802301,19.511081372527304],[-99.48959406620098,19.51144510726892],[-99.5222425542951,19.54127135608124],[-99.51653699326894,19.57364374808486],[-99.46772274893404,19.56273170583645],[-99.36502265046319,19.588193137749407],[-99.334592991657,19.579463503950677]]]}},{"type":"Feature","properties":{"cvegeo":"15037","cve_ent":"15","state_code":"MEX","nom_mun":"Huixquilucan"},"geometry":{"type":"Polygon","coordinates":[[[-99.23981728350027,19.41214552280838],[-99.25598303974105,19.40341588900965],[-99.32920440624342,19.35212929044212],[-99.35646430892395,19.30320696769508],[-99.3818223579291,19.305753110886375],[-99.4040106508086,19.353584229408575],[-99.39608626049449,19.419238350269847],[-99.36248684556267,19.43069599463068],[-99.26422440566772,19.434697076788428],[-99.23981728350027,19.41214552280838]]]}},{"type":"Feature","properties":{"cvegeo":"15036","cve_ent":"15","state_code":"MEX","nom_mun":"Hueypoxtla"},"geometry":{"type":"Polygon","coordinates":[[[-98.96151269566877,20.040861023687647],[-98.94661484187824,20.02722097087713],[-98.94502996381543,19.97484316808476],[-98.99574606182571,19.956838298374883],[-98.95263737851697,19.906461036661387],[-98.98940654957443,19.881363339490044],[-98.99194235447494,19.90300555661606],[-99.02807757430728,19.875907318365837],[-99.03441708655856,19.833168486226228],[-99.07403903812911,19.85662937706031],[-99.08861991630707,19.89936820919992],[-99.0902047943699,19.915372537830923],[-99.05850723311346,19.93519608124887],[-99.12665698981479,19.94483505190163],[-99.14282274605557,19.958656972082952],[-99.11556284337505,19.971933290151853],[-99.11334401408709,19.972297024893464],[-99.08449923334373,20.01067104013371],[-99.11841562388813,20.0290396445852],[-99.07086928200347,20.017945734965984],[-99.06769952587783,19.985027740849944],[-99.0315643060455,20.014853989662267],[-99.03441708655856,19.971569555410237],[-99.01381367174189,19.981208526063],[-99.0055723058152,20.05322800490251],[-98.99130840324982,20.067049925083833],[-98.96151269566877,20.040861023687647]]]}},{"type":"Feature","properties":{"cvegeo":"15035","cve_ent":"15","state_code":"MEX","nom_mun":"Huehuetoca"},"geometry":{"type":"Polygon","coordinates":[[[-99.17356938047432,19.856811244431118],[-99.19353884406587,19.812071871212634],[-99.23442869808667,19.822983913461044],[-99.23854938105,19.80607024797601],[-99.28229201558389,19.798431818402122],[-99.27531855210748,19.769878641185446],[-99.31208772316494,19.75169190410476],[-99.34346830880881,19.780245081321436],[-99.27088089353157,19.858629918139187],[-99.23633055176207,19.87336117517454],[-99.2182629418459,19.88900176906393],[-99.19575767335382,19.893184718592487],[-99.17356938047432,19.856811244431118]]]}},{"type":"Feature","properties":{"cvegeo":"15034","cve_ent":"15","state_code":"MEX","nom_mun":"Ecatzingo"},"geometry":{"type":"Polygon","coordinates":[[[-98.72631679114602,18.944746379834786],[-98.79224771855941,18.93528927655283],[-98.79953815764839,18.94038156293542],[-98.76435386465374,18.994941774177477],[-98.721245181345,18.987485211974395],[-98.66672537598393,19.001307132155716],[-98.71522264470627,18.942563971385106],[-98.72631679114602,18.944746379834786]]]}},{"type":"Feature","properties":{"cvegeo":"15033","cve_ent":"15","state_code":"MEX","nom_mun":"Ecatepec de Morelos"},"geometry":{"type":"Polygon","coordinates":[[[-98.97577659823416,19.6438445532163],[-98.99733093988854,19.586374464041338],[-99.01349669612932,19.557639419453857],[-99.01444762296701,19.490166624884516],[-99.02902850114498,19.484346869018697],[-99.06421279413962,19.49871439131244],[-99.09052176998246,19.509262698819235],[-99.0803785503804,19.529449976978796],[-99.11271006286196,19.573098145972438],[-99.11809864827556,19.590557413569897],[-99.08861991630707,19.58928434197425],[-99.07340508690399,19.65075551330696],[-99.07245416006629,19.6571208712852],[-99.06262791607679,19.659121412364076],[-99.04012264758472,19.614018304403977],[-99.00430440336496,19.651846717531804],[-98.97577659823416,19.6438445532163]]]}},{"type":"Feature","properties":{"cvegeo":"15032","cve_ent":"15","state_code":"MEX","nom_mun":"Donato Guerra"},"geometry":{"type":"Polygon","coordinates":[[[-100.05539553462833,19.306480580369602],[-100.07916870557067,19.24082645950833],[-100.1073795350889,19.246464348003343],[-100.11023231560196,19.280291678973416],[-100.1714086088269,19.287384506434883],[-100.2202228531618,19.26283241137596],[-100.30675719539187,19.32684972589997],[-100.31277973203059,19.362313863207305],[-100.29344421966417,19.395049989952536],[-100.23733953624027,19.40341588900965],[-100.2522373900308,19.383046743479284],[-100.22656236541309,19.32557665430432],[-100.23607163379002,19.29629600760442],[-100.17711416985304,19.300115222391362],[-100.18250275526664,19.328122797495617],[-100.15239007207303,19.34285405453097],[-100.07663290067015,19.342672187160165],[-100.05539553462833,19.306480580369602]]]}},{"type":"Feature","properties":{"cvegeo":"15031","cve_ent":"15","state_code":"MEX","nom_mun":"Chimalhuacán"},"geometry":{"type":"Polygon","coordinates":[[[-98.96595035424467,19.373225905455715],[-98.99067445202469,19.425967442989702],[-98.97831240313468,19.451610742273466],[-98.94027532962696,19.46343212137591],[-98.92442654899874,19.42760424932696],[-98.92759630512438,19.4046889606053],[-98.89494781703026,19.397596133143832],[-98.8981175731559,19.37340777282652],[-98.95549015903005,19.394504387840115],[-98.96595035424467,19.373225905455715]]]}},{"type":"Feature","properties":{"cvegeo":"15030","cve_ent":"15","state_code":"MEX","nom_mun":"Chiconcuac"},"geometry":{"type":"Polygon","coordinates":[[[-98.8838536705905,19.53599720232784],[-98.8927289877423,19.53672467181107],[-98.91079659765848,19.57055200278114],[-98.88543854865333,19.56600531851097],[-98.8838536705905,19.53599720232784]]]}},{"type":"Feature","properties":{"cvegeo":"15029","cve_ent":"15","state_code":"MEX","nom_mun":"Chicoloapan"},"geometry":{"type":"Polygon","coordinates":[[[-98.79922118203582,19.404870827976104],[-98.8749783534387,19.391048907794787],[-98.90762684153283,19.356675974712292],[-98.8981175731559,19.37340777282652],[-98.89494781703026,19.397596133143832],[-98.92759630512438,19.4046889606053],[-98.92442654899874,19.42760424932696],[-98.88543854865333,19.435970148384076],[-98.79922118203582,19.404870827976104]]]}},{"type":"Feature","properties":{"cvegeo":"15028","cve_ent":"15","state_code":"MEX","nom_mun":"Chiautla"},"geometry":{"type":"Polygon","coordinates":[[[-98.86420118261151,19.55454767415014],[-98.8838536705905,19.53599720232784],[-98.88543854865333,19.56600531851097],[-98.91079659765848,19.57055200278114],[-98.91079659765848,19.57691736075938],[-98.90192128050667,19.606016140088478],[-98.87212557292563,19.598559577885396],[-98.86229932893613,19.56545971639855],[-98.86420118261151,19.55454767415014]]]}},{"type":"Feature","properties":{"cvegeo":"15027","cve_ent":"15","state_code":"MEX","nom_mun":"Chapultepec"},"geometry":{"type":"Polygon","coordinates":[[[-99.5133672371433,19.22318532454007],[-99.53682343247306,19.209545271729553],[-99.5773963108813,19.185175044041436],[-99.57105679863001,19.20627165905503],[-99.55298918871384,19.221548518202805],[-99.5133672371433,19.22318532454007]]]}},{"type":"Feature","properties":{"cvegeo":"15026","cve_ent":"15","state_code":"MEX","nom_mun":"Chapa de Mota"},"geometry":{"type":"Polygon","coordinates":[[[-99.4325384559394,19.87517984888261],[-99.43000265103888,19.870815031983245],[-99.42081035827451,19.840806915800115],[-99.44616840727966,19.8377151704964],[-99.47469621241045,19.792066460423882],[-99.49244684671406,19.733141432282462],[-99.53397065195998,19.75587485363332],[-99.5818339694572,19.733687034394883],[-99.61416548193877,19.74823642405943],[-99.59229416467183,19.77769893813014],[-99.67027016536265,19.84062504842931],[-99.65505533595956,19.896276463896204],[-99.5995846037608,19.895548994412977],[-99.54411387156205,19.8669958171963],[-99.54855153013794,19.889911105917964],[-99.50322401754124,19.891184177513612],[-99.4325384559394,19.87517984888261]]]}},{"type":"Feature","properties":{"cvegeo":"15025","cve_ent":"15","state_code":"MEX","nom_mun":"Chalco"},"geometry":{"type":"Polygon","coordinates":[[[-98.68320810783727,19.264832952454835],[-98.80144001132378,19.232460560451216],[-98.80175698693634,19.232460560451216],[-98.83250362135507,19.212273282291655],[-98.87180859731306,19.249737960677866],[-98.88163484130256,19.221002916090384],[-98.9247435246113,19.15844054053283],[-98.95517318341749,19.17389926705141],[-98.96848615914519,19.210636475954395],[-98.94598089065312,19.224822130877328],[-98.92791328073695,19.26501481982564],[-98.91364937817156,19.28993064962618],[-98.8474014751456,19.28865757803053],[-98.81253415776352,19.30829925407767],[-98.81094927970071,19.285383965356008],[-98.76498781587887,19.31248220360623],[-98.69937386407805,19.30829925407767],[-98.68320810783727,19.264832952454835]]]}},{"type":"Feature","properties":{"cvegeo":"15024","cve_ent":"15","state_code":"MEX","nom_mun":"Cuautitlán"},"geometry":{"type":"Polygon","coordinates":[[[-99.19575767335382,19.714590960460164],[-99.20019533192972,19.74714521983459],[-99.15676967300841,19.720410716325983],[-99.13838508747968,19.76551382428608],[-99.130143721553,19.751510036733954],[-99.12317025807658,19.724229931112927],[-99.15264899004507,19.720592583696792],[-99.13996996554249,19.69349434544657],[-99.14916225830686,19.660394483959724],[-99.18498050252663,19.64329895110388],[-99.17610518537484,19.727321676416643],[-99.19575767335382,19.714590960460164]]]}},{"type":"Feature","properties":{"cvegeo":"15023","cve_ent":"15","state_code":"MEX","nom_mun":"Coyotepec"},"geometry":{"type":"Polygon","coordinates":[[[-99.27531855210748,19.769878641185446],[-99.28229201558389,19.798431818402122],[-99.23854938105,19.80607024797601],[-99.23442869808667,19.822983913461044],[-99.19353884406587,19.812071871212634],[-99.18022586833817,19.792975797277915],[-99.18561445375177,19.76551382428608],[-99.20209718560511,19.750236965138306],[-99.2084366978564,19.752055638846375],[-99.22840616144795,19.792066460423882],[-99.27531855210748,19.769878641185446]]]}},{"type":"Feature","properties":{"cvegeo":"15022","cve_ent":"15","state_code":"MEX","nom_mun":"Cocotitlán"},"geometry":{"type":"Polygon","coordinates":[[[-98.83250362135507,19.212273282291655],[-98.84359776779483,19.20572605694261],[-98.88163484130256,19.221002916090384],[-98.87180859731306,19.249737960677866],[-98.83250362135507,19.212273282291655]]]}},{"type":"Feature","properties":{"cvegeo":"15021","cve_ent":"15","state_code":"MEX","nom_mun":"Coatepec Harinas"},"geometry":{"type":"Polygon","coordinates":[[[-99.83002587409509,19.07423594784926],[-99.78501533711095,19.071689804657964],[-99.77170236138325,19.06514257930892],[-99.76282704423144,18.997487917368773],[-99.72542392194885,18.95129360518383],[-99.74000480012681,18.941836501901875],[-99.72066928776039,18.899279537133076],[-99.73398226348809,18.851266551240066],[-99.76187611739375,18.840900111104077],[-99.74285758063989,18.810528260179332],[-99.79072089813711,18.814347474966276],[-99.78786811762403,18.853085224948135],[-99.8458746547233,18.900552608728724],[-99.8858135819064,18.907281701448575],[-99.85474997187511,18.971480883343393],[-99.88296080139334,18.980028649771313],[-99.88391172823103,19.005308214313466],[-99.85221416697459,18.99530550891909],[-99.85284811819972,19.02986030937239],[-99.81671289836738,19.04131795373322],[-99.84555767911074,19.053866802318893],[-99.83002587409509,19.07423594784926]]]}},{"type":"Feature","properties":{"cvegeo":"15020","cve_ent":"15","state_code":"MEX","nom_mun":"Coacalco de Berriozábal"},"geometry":{"type":"Polygon","coordinates":[[[-99.1203174775635,19.65311978912745],[-99.07245416006629,19.6571208712852],[-99.07340508690399,19.65075551330696],[-99.08861991630707,19.58928434197425],[-99.11809864827556,19.590557413569897],[-99.12380420930171,19.592739822019578],[-99.1203174775635,19.65311978912745]]]}},{"type":"Feature","properties":{"cvegeo":"15019","cve_ent":"15","state_code":"MEX","nom_mun":"Capulhuac"},"geometry":{"type":"Polygon","coordinates":[[[-99.46994157822198,19.227186406697818],[-99.44902118779274,19.230096284630726],[-99.42936869981375,19.203179913751313],[-99.45631162688171,19.20445298534696],[-99.47723201731097,19.184083839816594],[-99.47723201731097,19.22191225294442],[-99.46994157822198,19.227186406697818]]]}},{"type":"Feature","properties":{"cvegeo":"15018","cve_ent":"15","state_code":"MEX","nom_mun":"Calimaya"},"geometry":{"type":"Polygon","coordinates":[[[-99.60845992091261,19.215910629707793],[-99.57105679863001,19.20627165905503],[-99.5773963108813,19.185175044041436],[-99.53682343247306,19.209545271729553],[-99.53682343247306,19.192267871502903],[-99.59578089641003,19.157167468937182],[-99.60877689652517,19.13534338444036],[-99.63318401869262,19.140435670822953],[-99.64079143339417,19.122976403225493],[-99.73461621471321,19.11752038210129],[-99.64713094564546,19.221002916090384],[-99.60845992091261,19.215910629707793]]]}},{"type":"Feature","properties":{"cvegeo":"15017","cve_ent":"15","state_code":"MEX","nom_mun":"Ayapango"},"geometry":{"type":"Polygon","coordinates":[[[-98.81506996266404,19.081874377423148],[-98.83535640186815,19.07241727414119],[-98.849303328821,19.124613209562757],[-98.82553015787866,19.167897643814786],[-98.81792274317712,19.169170715410434],[-98.78907796243377,19.147164763542804],[-98.77322918180555,19.13025109805777],[-98.81506996266404,19.081874377423148]]]}},{"type":"Feature","properties":{"cvegeo":"15016","cve_ent":"15","state_code":"MEX","nom_mun":"Axapusco"},"geometry":{"type":"Polygon","coordinates":[[[-98.75484459627681,19.876634787849063],[-98.7291695716591,19.864995276117426],[-98.75389366943912,19.83007674092251],[-98.7798856696694,19.840806915800115],[-98.7646708402663,19.798068083660507],[-98.72885259604654,19.78406429610838],[-98.7513578645386,19.74659961772217],[-98.73550908391039,19.736051310215373],[-98.68669483957548,19.802614767930677],[-98.63978244891595,19.810798799616986],[-98.59699074121977,19.765695691656887],[-98.60808488765952,19.724957400596153],[-98.63280898543954,19.72222939003405],[-98.6198129853244,19.660940086072145],[-98.66482352230854,19.660394483959724],[-98.70983405929267,19.697859162345935],[-98.76213503536579,19.715682164685006],[-98.78812703559608,19.706588796144665],[-98.78654215753325,19.72804914589987],[-98.79922118203582,19.73896118814828],[-98.86927279241254,19.772606651747548],[-98.809998352863,19.78406429610838],[-98.83472245064303,19.79734061417728],[-98.81475298705148,19.867723286679528],[-98.79541747468505,19.856265642318697],[-98.78051962089452,19.883545747939724],[-98.75484459627681,19.876634787849063]]]}},{"type":"Feature","properties":{"cvegeo":"15015","cve_ent":"15","state_code":"MEX","nom_mun":"Atlautla"},"geometry":{"type":"Polygon","coordinates":[[[-98.63914849769083,19.077509560523783],[-98.62361669267517,19.066415650904567],[-98.6277373756385,19.0222218797985],[-98.63280898543954,19.01549278707865],[-98.66672537598393,19.001307132155716],[-98.721245181345,18.987485211974395],[-98.76435386465374,18.994941774177477],[-98.79953815764839,18.94038156293542],[-98.82426225542841,18.95493095259997],[-98.77259523058042,19.007854357504762],[-98.79097981610914,19.021312542944468],[-98.78273845018248,19.04368222955371],[-98.78242147456992,19.043864096924516],[-98.78749308437094,19.056594812880995],[-98.78464030385786,19.076236488928135],[-98.73170537655962,19.084420520614444],[-98.63914849769083,19.077509560523783]]]}},{"type":"Feature","properties":{"cvegeo":"15014","cve_ent":"15","state_code":"MEX","nom_mun":"Atlacomulco"},"geometry":{"type":"Polygon","coordinates":[[[-99.95871797279621,19.815345483887157],[-99.93019016766542,19.858629918139187],[-99.97361582658674,19.85790244865596],[-99.96537446066006,19.878453461557132],[-99.92606948470208,19.89063857540119],[-99.88454567945615,19.901368750278795],[-99.79927923967634,19.840261313687694],[-99.78945299568684,19.845899202182707],[-99.77962675169735,19.81279934069586],[-99.74888011727862,19.795158205727596],[-99.70513748274473,19.74769082194701],[-99.74571036115297,19.73041342172036],[-99.79135484936224,19.732413962799235],[-99.92923924082773,19.792066460423882],[-99.96125377769673,19.792430195165494],[-99.95871797279621,19.815345483887157]]]}},{"type":"Feature","properties":{"cvegeo":"15013","cve_ent":"15","state_code":"MEX","nom_mun":"Atizapán de Zaragoza"},"geometry":{"type":"Polygon","coordinates":[[[-99.3044803084634,19.520720343180066],[-99.32001211347905,19.516173658909896],[-99.32635162573034,19.5481823161719],[-99.35456245524855,19.554365806779334],[-99.334592991657,19.579463503950677],[-99.29053338151056,19.582009647141973],[-99.26612625934311,19.607471079054932],[-99.23728147859975,19.61056282435865],[-99.21160645398204,19.59564969995249],[-99.22777221022282,19.555275143633366],[-99.24742469820181,19.518356067359576],[-99.28894850344774,19.53599720232784],[-99.3044803084634,19.520720343180066]]]}},{"type":"Feature","properties":{"cvegeo":"15011","cve_ent":"15","state_code":"MEX","nom_mun":"Atenco"},"geometry":{"type":"Polygon","coordinates":[[[-99.01444762296701,19.490166624884516],[-99.01349669612932,19.557639419453857],[-98.99733093988854,19.586374464041338],[-98.97260684210852,19.59655903680652],[-98.91079659765848,19.57691736075938],[-98.91079659765848,19.57055200278114],[-98.8927289877423,19.53672467181107],[-99.01444762296701,19.490166624884516]]]}},{"type":"Feature","properties":{"cvegeo":"15010","cve_ent":"15","state_code":"MEX","nom_mun":"Apaxco"},"geometry":{"type":"Polygon","coordinates":[[[-99.11334401408709,19.972297024893464],[-99.11556284337505,19.971933290151853],[-99.14282274605557,19.958656972082952],[-99.16120733158431,19.93155873383273],[-99.17388635608688,19.96447672794877],[-99.19227094161562,19.941561439227108],[-99.21541016133281,19.954474022554393],[-99.18941816110254,19.99266617042383],[-99.14250577044301,20.027039103506326],[-99.11841562388813,20.0290396445852],[-99.08449923334373,20.01067104013371],[-99.11334401408709,19.972297024893464]]]}},{"type":"Feature","properties":{"cvegeo":"15009","cve_ent":"15","state_code":"MEX","nom_mun":"Amecameca"},"geometry":{"type":"Polygon","coordinates":[[[-98.78907796243377,19.147164763542804],[-98.81792274317712,19.169170715410434],[-98.79002888927145,19.1762635428719],[-98.77639893793119,19.148983437250873],[-98.75769737678989,19.17808221657997],[-98.70000781530318,19.17117125648931],[-98.67148001017239,19.18317450296256],[-98.63914849769083,19.16353282691542],[-98.63629571717775,19.153348254150238],[-98.62710342441338,19.124613209562757],[-98.63914849769083,19.077509560523783],[-98.73170537655962,19.084420520614444],[-98.78464030385786,19.076236488928135],[-98.78749308437094,19.056594812880995],[-98.81506996266404,19.081874377423148],[-98.77322918180555,19.13025109805777],[-98.78907796243377,19.147164763542804]]]}},{"type":"Feature","properties":{"cvegeo":"15008","cve_ent":"15","state_code":"MEX","nom_mun":"Amatepec"},"geometry":{"type":"Polygon","coordinates":[[[-100.1374922182825,18.789795379907353],[-100.11466997417787,18.753421905745984],[-100.11942460836633,18.70231717454926],[-100.07409709576963,18.669217313062415],[-100.00563036345574,18.668126108837573],[-100.02179611969652,18.60374505957195],[-100.0680745591309,18.59101434361547],[-100.0680745591309,18.602835722717916],[-100.13685826705738,18.67703761000711],[-100.27696148781082,18.63775425791283],[-100.32672665898342,18.65794153607239],[-100.35145075676344,18.631570767305398],[-100.4113591475381,18.62338673561909],[-100.42974373306683,18.59919837530178],[-100.47475427005097,18.619021918719724],[-100.48679934332841,18.639936666362512],[-100.47348636760071,18.69085953018843],[-100.44749436737044,18.701589705066034],[-100.42213631836529,18.763242743769553],[-100.31246275641803,18.77724653132168],[-100.29249329282646,18.813074403370628],[-100.27252382923491,18.79470579891914],[-100.16094841361226,18.79870688107689],[-100.1374922182825,18.789795379907353]]]}},{"type":"Feature","properties":{"cvegeo":"15007","cve_ent":"15","state_code":"MEX","nom_mun":"Amanalco"},"geometry":{"type":"Polygon","coordinates":[[[-99.90197933814719,19.25774012499337],[-99.90261328937233,19.23264242782202],[-99.91465836264976,19.203725515863734],[-99.97076304607366,19.186448115637084],[-100.01862636357087,19.192267871502903],[-100.05602948585347,19.181355829254493],[-100.07916870557067,19.24082645950833],[-100.05539553462833,19.306480580369602],[-100.05064090043987,19.322303041629798],[-100.01196987570702,19.297569079200066],[-100.00372850978034,19.313937142572684],[-99.9828081193511,19.332669481765787],[-99.91941299683823,19.292476792817475],[-99.90197933814719,19.25774012499337]]]}},{"type":"Feature","properties":{"cvegeo":"15006","cve_ent":"15","state_code":"MEX","nom_mun":"Almoloya del Río"},"geometry":{"type":"Polygon","coordinates":[[[-99.48800918813815,19.149529039363294],[-99.52604626164587,19.159168010016057],[-99.51590304204382,19.166806439589944],[-99.48040177343661,19.17117125648931],[-99.48800918813815,19.149529039363294]]]}},{"type":"Feature","properties":{"cvegeo":"15005","cve_ent":"15","state_code":"MEX","nom_mun":"Almoloya de Juárez"},"geometry":{"type":"Polygon","coordinates":[[[-99.90197933814719,19.25774012499337],[-99.91941299683823,19.292476792817475],[-99.92543553347696,19.3383073702608],[-99.91117163091155,19.39832360262706],[-99.86742899637768,19.40578016483014],[-99.86140645973896,19.43760695472134],[-99.93811455797953,19.488529818547256],[-99.93019016766542,19.532905457024125],[-99.90197933814719,19.545090570868183],[-99.83573143512125,19.53836147814833],[-99.79389065426275,19.503442942953416],[-99.79230577619992,19.484346869018697],[-99.731129482975,19.478708980523685],[-99.71052606815833,19.462704651892683],[-99.70735631203269,19.42087515660711],[-99.731129482975,19.384865417187353],[-99.73144645858757,19.381773671883636],[-99.73239738542526,19.379591263433955],[-99.73239738542526,19.379045661321534],[-99.72447299511116,19.335215624957083],[-99.7729702638335,19.3303052059453],[-99.76884958087017,19.311390999381388],[-99.7685326052576,19.284474628501975],[-99.81639592275482,19.28865757803053],[-99.80910548366583,19.319029428955275],[-99.85316509381228,19.31011792778574],[-99.86267436218921,19.24719181748657],[-99.90197933814719,19.25774012499337]]]}},{"type":"Feature","properties":{"cvegeo":"15003","cve_ent":"15","state_code":"MEX","nom_mun":"Aculco"},"geometry":{"type":"Polygon","coordinates":[[[-99.91941299683823,20.21709050599948],[-99.92258275296388,20.231094293551607],[-99.84872743523638,20.213816893324957],[-99.77328723944606,20.171805530668575],[-99.74951406850374,20.14507102715997],[-99.71464675112166,20.16107535579097],[-99.71686558040962,20.138160067069308],[-99.72130323898551,20.103241531874396],[-99.67058714097521,20.077961967332243],[-99.69372636069241,20.049408790115567],[-99.72352206827347,20.018309469707596],[-99.72352206827347,20.01812760233679],[-99.82051660571815,20.05450107649816],[-99.82653914235688,20.016127061257915],[-99.87947406965512,20.0050331516387],[-99.92638646031465,20.06414004715092],[-99.9419182653303,20.118882125763783],[-99.93240899695337,20.17380607174745],[-99.96600841188518,20.2016317794809],[-99.97773650955007,20.2389145904963],[-99.95808402157108,20.25164530645278],[-99.95111055809467,20.21581743440383],[-99.91941299683823,20.21709050599948]]]}},{"type":"Feature","properties":{"cvegeo":"15002","cve_ent":"15","state_code":"MEX","nom_mun":"Acolman"},"geometry":{"type":"Polygon","coordinates":[[[-98.86927279241254,19.65475659546471],[-98.84074498728175,19.635478654159186],[-98.87212557292563,19.598559577885396],[-98.90192128050667,19.606016140088478],[-98.96943708598288,19.60874415065058],[-98.97260684210852,19.59655903680652],[-98.99733093988854,19.586374464041338],[-98.97577659823416,19.6438445532163],[-98.94281113452747,19.656939003914395],[-98.93171698808771,19.690220732772048],[-98.90001942683128,19.662031290296987],[-98.86927279241254,19.65475659546471]]]}},{"type":"Feature","properties":{"cvegeo":"15001","cve_ent":"15","state_code":"MEX","nom_mun":"Acambay"},"geometry":{"type":"Polygon","coordinates":[[[-99.74063875135194,19.940106500260654],[-99.74602733676554,19.937196622327743],[-99.77804187363454,19.900823148166374],[-99.76821562964504,19.852992029644174],[-99.78945299568684,19.845899202182707],[-99.79927923967634,19.840261313687694],[-99.88454567945615,19.901368750278795],[-99.92606948470208,19.89063857540119],[-99.89088519170744,19.90573356717816],[-99.93209202134081,19.939197163406618],[-99.96791026556058,19.930285662237083],[-99.97424977781186,19.971023953297816],[-100.02655075388498,19.997030987323196],[-100.07694987628271,20.029403379326816],[-100.04398441257602,20.036496206788282],[-100.00024177804214,20.077416365219822],[-99.98027231445059,20.05904776076833],[-99.92638646031465,20.06414004715092],[-99.87947406965512,20.0050331516387],[-99.82653914235688,20.016127061257915],[-99.82051660571815,20.05450107649816],[-99.72352206827347,20.01812760233679],[-99.72352206827347,20.018309469707596],[-99.72352206827347,20.01812760233679],[-99.71718255602218,20.017036398111948],[-99.7000658729437,20.018855071820017],[-99.72098626337295,19.96629540165684],[-99.74063875135194,19.940106500260654]]]}}]}