{"type":"FeatureCollection","features":[{"type":"Feature","properties":{"cvegeo":"17029","cve_ent":"17","state_code":"MOR","nom_mun":"Yautepec"},"geometry":{"type":"Polygon","coordinates":[[[-98.95295435412953,18.927650846978942],[-98.94249415891491,18.890549903334346],[-99.02015318399317,18.854722031285398],[-99.01888528154292,18.813438138112243],[-99.0483640135114,18.830715538338893],[-99.04709611106114,18.804526636942708],[-99.08354830650605,18.771244908085055],[-99.09115572120758,18.806345310650777],[-99.11746469705042,18.829442466743245],[-99.14630947779378,18.827805660405986],[-99.14852830708173,18.835807824721485],[-99.12000050195094,18.880365330569163],[-99.13172859961583,18.896369659200165],[-99.10478567254785,18.905099292998894],[-99.02871152553242,18.925286571158452],[-99.0163494766424,18.95947763687014],[-98.98782167151161,18.898006465537428],[-98.97736147629699,18.936562348148477],[-98.95295435412953,18.927650846978942]]]}},{"type":"Feature","properties":{"cvegeo":"17014","cve_ent":"17","state_code":"MOR","nom_mun":"Mazatepec"},"geometry":{"type":"Polygon","coordinates":[[[-99.38404118721705,18.739418118193857],[-99.39101465069346,18.752330701521142],[-99.36502265046319,18.75596804893728],[-99.32793650379315,18.715775359988967],[-99.33332508920675,18.688313386997134],[-99.35266060157318,18.681220559535667],[-99.34917386983497,18.641937207441387],[-99.35583035769882,18.616112040786817],[-99.41066713867245,18.654667923397867],[-99.35583035769882,18.697952357649896],[-99.38404118721705,18.739418118193857]]]}},{"type":"Feature","properties":{"cvegeo":"17020","cve_ent":"17","state_code":"MOR","nom_mun":"Tepoztlán"},"geometry":{"type":"Polygon","coordinates":[[[-99.10478567254785,18.905099292998894],[-99.13172859961583,18.896369659200165],[-99.1843465513015,18.936562348148477],[-99.1932218684533,19.000761530043295],[-99.16532801454764,19.02349495139415],[-99.1355323069666,19.08933093962623],[-99.12538908736454,19.062050834005202],[-99.06199396485167,19.0487745159363],[-99.01825133031778,18.996214845773125],[-99.01444762296701,18.975300098130337],[-99.0163494766424,18.95947763687014],[-99.02871152553242,18.925286571158452],[-99.10478567254785,18.905099292998894]]]}},{"type":"Feature","properties":{"cvegeo":"17018","cve_ent":"17","state_code":"MOR","nom_mun":"Temixco"},"geometry":{"type":"Polygon","coordinates":[[[-99.22143269797154,18.86199672611767],[-99.20558391734332,18.84435559114941],[-99.21319133204486,18.807072780134003],[-99.24679074697669,18.82689632355195],[-99.26929601546875,18.809982658066914],[-99.25249630800285,18.782156950333466],[-99.28229201558389,18.773972918647157],[-99.28641269854722,18.780883878737818],[-99.35266060157318,18.842173182699725],[-99.32761952818059,18.867634614612683],[-99.31113679632725,18.854722031285398],[-99.27088089353157,18.849084142790385],[-99.29053338151056,18.921831091113123],[-99.25661699096618,18.890549903334346],[-99.23696450298719,18.898006465537428],[-99.22143269797154,18.86199672611767]]]}},{"type":"Feature","properties":{"cvegeo":"17007","cve_ent":"17","state_code":"MOR","nom_mun":"Cuernavaca"},"geometry":{"type":"Polygon","coordinates":[[[-99.1932218684533,19.000761530043295],[-99.1843465513015,18.936562348148477],[-99.2173120150082,18.878546656861094],[-99.20621786856844,18.875818646298992],[-99.22143269797154,18.86199672611767],[-99.23696450298719,18.898006465537428],[-99.25661699096618,18.890549903334346],[-99.29053338151056,18.921831091113123],[-99.27088089353157,18.849084142790385],[-99.31113679632725,18.854722031285398],[-99.32761952818059,18.867634614612683],[-99.34188343074598,18.92255856059635],[-99.31303865000262,18.94801999250931],[-99.31177074755237,19.02458615561899],[-99.26929601546875,19.00276207112217],[-99.2217496735841,19.007672490133956],[-99.22872313706051,18.981665456108576],[-99.1932218684533,19.000761530043295]]]}},{"type":"Feature","properties":{"cvegeo":"17028","cve_ent":"17","state_code":"MOR","nom_mun":"Xochitepec"},"geometry":{"type":"Polygon","coordinates":[[[-99.21319133204486,18.807072780134003],[-99.194172795291,18.79925248318931],[-99.19132001477792,18.76051473320745],[-99.19639162457895,18.707409460931853],[-99.28007318629594,18.724141259046082],[-99.29814079621211,18.739418118193857],[-99.28229201558389,18.773972918647157],[-99.25249630800285,18.782156950333466],[-99.26929601546875,18.809982658066914],[-99.24679074697669,18.82689632355195],[-99.21319133204486,18.807072780134003]]]}},{"type":"Feature","properties":{"cvegeo":"17005","cve_ent":"17","state_code":"MOR","nom_mun":"Coatlán del Río"},"geometry":{"type":"Polygon","coordinates":[[[-99.39101465069346,18.752330701521142],[-99.38404118721705,18.739418118193857],[-99.42081035827451,18.735053301294492],[-99.43919494380324,18.700680368211998],[-99.4680397245466,18.69595181657102],[-99.4360251876776,18.675037068928233],[-99.45314187075607,18.643210279037035],[-99.4645529928084,18.643755881149456],[-99.48071874904917,18.68449417221019],[-99.49434870038944,18.720322044259138],[-99.46645484648377,18.75360377311679],[-99.46550391964608,18.759241661611803],[-99.42683289491323,18.82453204773146],[-99.39101465069346,18.752330701521142]]]}},{"type":"Feature","properties":{"cvegeo":"17015","cve_ent":"17","state_code":"MOR","nom_mun":"Miacatlán"},"geometry":{"type":"Polygon","coordinates":[[[-99.32761952818059,18.867634614612683],[-99.35266060157318,18.842173182699725],[-99.28641269854722,18.780883878737818],[-99.28229201558389,18.773972918647157],[-99.29814079621211,18.739418118193857],[-99.28007318629594,18.724141259046082],[-99.27912225945825,18.699225429245544],[-99.33332508920675,18.688313386997134],[-99.32793650379315,18.715775359988967],[-99.36502265046319,18.75596804893728],[-99.39101465069346,18.752330701521142],[-99.42683289491323,18.82453204773146],[-99.42936869981375,18.87763732000706],[-99.36502265046319,18.89891580239146],[-99.34188343074598,18.92255856059635],[-99.32761952818059,18.867634614612683]]]}},{"type":"Feature","properties":{"cvegeo":"17009","cve_ent":"17","state_code":"MOR","nom_mun":"Huitzilac"},"geometry":{"type":"Polygon","coordinates":[[[-99.1932218684533,19.000761530043295],[-99.22872313706051,18.981665456108576],[-99.2217496735841,19.007672490133956],[-99.26929601546875,19.00276207112217],[-99.31177074755237,19.02458615561899],[-99.31398957684033,19.098242440795765],[-99.29528801569903,19.12261266848388],[-99.27912225945825,19.131706037024223],[-99.2271382589977,19.09606003234608],[-99.13648323380428,19.08933093962623],[-99.1355323069666,19.08933093962623],[-99.16532801454764,19.02349495139415],[-99.1932218684533,19.000761530043295]]]}},{"type":"Feature","properties":{"cvegeo":"17016","cve_ent":"17","state_code":"MOR","nom_mun":"Ocuituco"},"geometry":{"type":"Polygon","coordinates":[[[-98.72631679114602,18.944746379834786],[-98.75738040117733,18.921467356371508],[-98.7291695716591,18.875818646298992],[-98.77576498670606,18.832170477305347],[-98.8020739625489,18.82525951721469],[-98.82489620665353,18.87891039160271],[-98.8065116211248,18.898733935020655],[-98.79224771855941,18.93528927655283],[-98.72631679114602,18.944746379834786]]]}},{"type":"Feature","properties":{"cvegeo":"17030","cve_ent":"17","state_code":"MOR","nom_mun":"Yecapixtla"},"geometry":{"type":"Polygon","coordinates":[[[-98.82426225542841,18.95493095259997],[-98.79953815764839,18.94038156293542],[-98.79224771855941,18.93528927655283],[-98.8065116211248,18.898733935020655],[-98.82489620665353,18.87891039160271],[-98.8020739625489,18.82525951721469],[-98.80365884061172,18.791068451503],[-98.83662430431842,18.764333947994395],[-98.8882913291664,18.795615135773172],[-98.92696235389926,18.824350180360653],[-98.92886420757463,18.881820269535616],[-98.85120518249637,18.918375611067795],[-98.83599035309328,18.950020533588184],[-98.82426225542841,18.95493095259997]]]}},{"type":"Feature","properties":{"cvegeo":"17032","cve_ent":"17","state_code":"MOR","nom_mun":"Zacualpan"},"geometry":{"type":"Polygon","coordinates":[[[-98.69081552253881,18.855449500768625],[-98.69525318111472,18.844901193261826],[-98.72790166920885,18.80616344327997],[-98.74755415718784,18.75815045738696],[-98.78178752334479,18.78142948085024],[-98.78590820630812,18.783248154558308],[-98.80365884061172,18.791068451503],[-98.8020739625489,18.82525951721469],[-98.77576498670606,18.832170477305347],[-98.72251308379525,18.82053096557371],[-98.68891366886344,18.858177511330727],[-98.68891366886344,18.85799564395992],[-98.69081552253881,18.855449500768625]]]}},{"type":"Feature","properties":{"cvegeo":"17022","cve_ent":"17","state_code":"MOR","nom_mun":"Tetela del Volcán"},"geometry":{"type":"Polygon","coordinates":[[[-98.67211396139751,18.87981972845674],[-98.68891366886344,18.85799564395992],[-98.68891366886344,18.858177511330727],[-98.72251308379525,18.82053096557371],[-98.77576498670606,18.832170477305347],[-98.7291695716591,18.875818646298992],[-98.75738040117733,18.921467356371508],[-98.72631679114602,18.944746379834786],[-98.71522264470627,18.942563971385106],[-98.66672537598393,19.001307132155716],[-98.63280898543954,19.01549278707865],[-98.64865776606776,19.0009433974141],[-98.67781952242368,18.924013499562804],[-98.67211396139751,18.87981972845674]]]}},{"type":"Feature","properties":{"cvegeo":"17027","cve_ent":"17","state_code":"MOR","nom_mun":"Totolapan"},"geometry":{"type":"Polygon","coordinates":[[[-98.90382313418206,19.038408075800312],[-98.87117464608792,19.025131757731412],[-98.86863884118742,18.999670325818453],[-98.89843454876846,18.960205106353367],[-98.92189074409822,18.955112819970775],[-98.9808482080352,18.99239563098618],[-98.95580713464261,19.026768564068675],[-98.93266791492542,19.002943938492976],[-98.92696235389926,19.035861932609016],[-98.90382313418206,19.038408075800312]]]}},{"type":"Feature","properties":{"cvegeo":"17026","cve_ent":"17","state_code":"MOR","nom_mun":"Tlayacapan"},"geometry":{"type":"Polygon","coordinates":[[[-98.9808482080352,18.99239563098618],[-98.92189074409822,18.955112819970775],[-98.95295435412953,18.927650846978942],[-98.97736147629699,18.936562348148477],[-98.98782167151161,18.898006465537428],[-99.0163494766424,18.95947763687014],[-99.01444762296701,18.975300098130337],[-98.98687074467392,18.987485211974395],[-98.9808482080352,18.99239563098618]]]}},{"type":"Feature","properties":{"cvegeo":"17023","cve_ent":"17","state_code":"MOR","nom_mun":"Tlalnepantla"},"geometry":{"type":"Polygon","coordinates":[[[-98.90382313418206,19.038408075800312],[-98.92696235389926,19.035861932609016],[-98.93266791492542,19.002943938492976],[-98.95580713464261,19.026768564068675],[-98.9808482080352,18.99239563098618],[-98.98687074467392,18.987485211974395],[-99.01444762296701,18.975300098130337],[-99.01825133031778,18.996214845773125],[-99.06199396485167,19.0487745159363],[-99.02934547675754,19.08514799009767],[-98.9789463543598,19.07423594784926],[-98.91555123184693,19.064051375084077],[-98.90382313418206,19.038408075800312]]]}},{"type":"Feature","properties":{"cvegeo":"17006","cve_ent":"17","state_code":"MOR","nom_mun":"Cuautla"},"geometry":{"type":"Polygon","coordinates":[[[-98.92886420757463,18.881820269535616],[-98.92696235389926,18.824350180360653],[-98.8882913291664,18.795615135773172],[-98.92062284164797,18.75542244682486],[-98.95517318341749,18.801253024268185],[-99.01888528154292,18.813438138112243],[-99.02015318399317,18.854722031285398],[-98.94249415891491,18.890549903334346],[-98.92886420757463,18.881820269535616]]]}},{"type":"Feature","properties":{"cvegeo":"17002","cve_ent":"17","state_code":"MOR","nom_mun":"Atlatlahucan"},"geometry":{"type":"Polygon","coordinates":[[[-98.84074498728175,18.955658422083197],[-98.83599035309328,18.950020533588184],[-98.85120518249637,18.918375611067795],[-98.92886420757463,18.881820269535616],[-98.94249415891491,18.890549903334346],[-98.95295435412953,18.927650846978942],[-98.92189074409822,18.955112819970775],[-98.89843454876846,18.960205106353367],[-98.86863884118742,18.999670325818453],[-98.84074498728175,18.955658422083197]]]}},{"type":"Feature","properties":{"cvegeo":"17004","cve_ent":"17","state_code":"MOR","nom_mun":"Ayala"},"geometry":{"type":"Polygon","coordinates":[[[-98.8882913291664,18.795615135773172],[-98.83662430431842,18.764333947994395],[-98.83757523115611,18.752330701521142],[-98.85500888984714,18.721595115854786],[-98.8705406948628,18.7272330043498],[-98.87624625588896,18.671945323624517],[-98.92886420757463,18.676855742636302],[-98.94281113452747,18.65976020978046],[-98.9247435246113,18.620113122944566],[-98.95422225657978,18.626296613552],[-98.95041854922901,18.666125567758698],[-98.98021425681007,18.628115287260066],[-98.97197289088339,18.595924762627256],[-99.01698342786753,18.577010556063343],[-99.04519425738576,18.57882922977141],[-98.9985988423388,18.665579965646277],[-99.03219825727062,18.67631014052388],[-99.09115572120758,18.661033281376106],[-99.09305757488298,18.70577265459459],[-99.0670655746527,18.711228675718797],[-99.08354830650605,18.771244908085055],[-99.04709611106114,18.804526636942708],[-99.0483640135114,18.830715538338893],[-99.01888528154292,18.813438138112243],[-98.95517318341749,18.801253024268185],[-98.92062284164797,18.75542244682486],[-98.8882913291664,18.795615135773172]]]}},{"type":"Feature","properties":{"cvegeo":"17031","cve_ent":"17","state_code":"MOR","nom_mun":"Zacatepec"},"geometry":{"type":"Polygon","coordinates":[[[-99.17737308782509,18.669762915174836],[-99.18402957568894,18.646302024340752],[-99.22491942970974,18.624659807214737],[-99.23125894196103,18.631570767305398],[-99.22777221022282,18.672490925736938],[-99.1995613807046,18.683766702726963],[-99.17737308782509,18.669762915174836]]]}},{"type":"Feature","properties":{"cvegeo":"17008","cve_ent":"17","state_code":"MOR","nom_mun":"Emiliano Zapata"},"geometry":{"type":"Polygon","coordinates":[[[-99.20621786856844,18.875818646298992],[-99.14852830708173,18.835807824721485],[-99.14630947779378,18.827805660405986],[-99.16057338035918,18.793796462065103],[-99.14789435585661,18.759059794240997],[-99.19132001477792,18.76051473320745],[-99.194172795291,18.79925248318931],[-99.21319133204486,18.807072780134003],[-99.20558391734332,18.84435559114941],[-99.22143269797154,18.86199672611767],[-99.20621786856844,18.875818646298992]]]}},{"type":"Feature","properties":{"cvegeo":"17011","cve_ent":"17","state_code":"MOR","nom_mun":"Jiutepec"},"geometry":{"type":"Polygon","coordinates":[[[-99.20621786856844,18.875818646298992],[-99.2173120150082,18.878546656861094],[-99.1843465513015,18.936562348148477],[-99.13172859961583,18.896369659200165],[-99.12000050195094,18.880365330569163],[-99.14852830708173,18.835807824721485],[-99.20621786856844,18.875818646298992]]]}},{"type":"Feature","properties":{"cvegeo":"17012","cve_ent":"17","state_code":"MOR","nom_mun":"Jojutla"},"geometry":{"type":"Polygon","coordinates":[[[-99.15898850229635,18.661760750859333],[-99.17769006343765,18.62975209359733],[-99.15169806320738,18.59847090581855],[-99.1631091852597,18.531361845990826],[-99.20875367346896,18.52299594693371],[-99.22999103951078,18.551912858892],[-99.26295650321747,18.542455755610042],[-99.2911673327357,18.57555561709689],[-99.30194450356288,18.59519729314403],[-99.26961299108132,18.642482809553808],[-99.23125894196103,18.631570767305398],[-99.22491942970974,18.624659807214737],[-99.18402957568894,18.646302024340752],[-99.17737308782509,18.669762915174836],[-99.15898850229635,18.661760750859333]]]}},{"type":"Feature","properties":{"cvegeo":"17001","cve_ent":"17","state_code":"MOR","nom_mun":"Amacuzac"},"geometry":{"type":"Polygon","coordinates":[[[-99.41066713867245,18.654667923397867],[-99.35583035769882,18.616112040786817],[-99.34917386983497,18.641937207441387],[-99.33364206481932,18.622477398765056],[-99.34473621125906,18.52190474270887],[-99.37928655302858,18.520449803742416],[-99.42302918756246,18.562097431657183],[-99.41985943143682,18.590286874132243],[-99.4537758219812,18.609928550179383],[-99.4636020659707,18.642482809553808],[-99.4645529928084,18.643755881149456],[-99.45314187075607,18.643210279037035],[-99.41066713867245,18.654667923397867]]]}},{"type":"Feature","properties":{"cvegeo":"17021","cve_ent":"17","state_code":"MOR","nom_mun":"Tetecala"},"geometry":{"type":"Polygon","coordinates":[[[-99.38404118721705,18.739418118193857],[-99.35583035769882,18.697952357649896],[-99.41066713867245,18.654667923397867],[-99.45314187075607,18.643210279037035],[-99.4360251876776,18.675037068928233],[-99.4680397245466,18.69595181657102],[-99.43919494380324,18.700680368211998],[-99.42081035827451,18.735053301294492],[-99.38404118721705,18.739418118193857]]]}},{"type":"Feature","properties":{"cvegeo":"17017","cve_ent":"17","state_code":"MOR","nom_mun":"Puente de Ixtla"},"geometry":{"type":"Polygon","coordinates":[[[-99.19639162457895,18.707409460931853],[-99.1995613807046,18.683766702726963],[-99.22777221022282,18.672490925736938],[-99.23125894196103,18.631570767305398],[-99.26961299108132,18.642482809553808],[-99.30194450356288,18.59519729314403],[-99.2911673327357,18.57555561709689],[-99.26295650321747,18.542455755610042],[-99.22999103951078,18.551912858892],[-99.20875367346896,18.52299594693371],[-99.22904011267308,18.480620849535715],[-99.17610518537484,18.488259279109602],[-99.20463299050563,18.455159417622756],[-99.26897903985619,18.45315887654388],[-99.32825347940572,18.45952423452212],[-99.32825347940572,18.488804881222023],[-99.35741523576164,18.46770826620843],[-99.37928655302858,18.520449803742416],[-99.34473621125906,18.52190474270887],[-99.33364206481932,18.622477398765056],[-99.34917386983497,18.641937207441387],[-99.35266060157318,18.681220559535667],[-99.33332508920675,18.688313386997134],[-99.27912225945825,18.699225429245544],[-99.28007318629594,18.724141259046082],[-99.19639162457895,18.707409460931853]]]}},{"type":"Feature","properties":{"cvegeo":"17033","cve_ent":"17","state_code":"MOR","nom_mun":"Temoac"},"geometry":{"type":"Polygon","coordinates":[[[-98.78590820630812,18.783248154558308],[-98.78178752334479,18.78142948085024],[-98.74755415718784,18.75815045738696],[-98.75357669382656,18.74269173086838],[-98.7611841085281,18.728687943316253],[-98.83757523115611,18.752330701521142],[-98.83662430431842,18.764333947994395],[-98.80365884061172,18.791068451503],[-98.78590820630812,18.783248154558308]]]}},{"type":"Feature","properties":{"cvegeo":"17013","cve_ent":"17","state_code":"MOR","nom_mun":"Jonacatepec"},"geometry":{"type":"Polygon","coordinates":[[[-98.74818810841296,18.587740730940947],[-98.76055015730297,18.586285791974493],[-98.83472245064303,18.632298236788625],[-98.81823971878968,18.6475750959364],[-98.84232986534457,18.681220559535667],[-98.87624625588896,18.671945323624517],[-98.8705406948628,18.7272330043498],[-98.85500888984714,18.721595115854786],[-98.80714557234992,18.71322921679767],[-98.78400635263273,18.692860071267305],[-98.74818810841296,18.587740730940947]]]}},{"type":"Feature","properties":{"cvegeo":"17010","cve_ent":"17","state_code":"MOR","nom_mun":"Jantetelco"},"geometry":{"type":"Polygon","coordinates":[[[-98.85500888984714,18.721595115854786],[-98.83757523115611,18.752330701521142],[-98.7611841085281,18.728687943316253],[-98.75357669382656,18.74269173086838],[-98.7158565959314,18.739054383452242],[-98.74089766932399,18.703772113515715],[-98.72790166920885,18.66939918043322],[-98.7193433276696,18.605018131167597],[-98.74818810841296,18.587740730940947],[-98.78400635263273,18.692860071267305],[-98.80714557234992,18.71322921679767],[-98.85500888984714,18.721595115854786]]]}},{"type":"Feature","properties":{"cvegeo":"17024","cve_ent":"17","state_code":"MOR","nom_mun":"Tlaltizapán"},"geometry":{"type":"Polygon","coordinates":[[[-99.08354830650605,18.771244908085055],[-99.0670655746527,18.711228675718797],[-99.09305757488298,18.70577265459459],[-99.09115572120758,18.661033281376106],[-99.03219825727062,18.67631014052388],[-98.9985988423388,18.665579965646277],[-99.04519425738576,18.57882922977141],[-99.07403903812911,18.583921516154003],[-99.09083874559502,18.642119074812193],[-99.15898850229635,18.661760750859333],[-99.17737308782509,18.669762915174836],[-99.1995613807046,18.683766702726963],[-99.19639162457895,18.707409460931853],[-99.19132001477792,18.76051473320745],[-99.14789435585661,18.759059794240997],[-99.16057338035918,18.793796462065103],[-99.14630947779378,18.827805660405986],[-99.11746469705042,18.829442466743245],[-99.09115572120758,18.806345310650777],[-99.08354830650605,18.771244908085055]]]}},{"type":"Feature","properties":{"cvegeo":"17025","cve_ent":"17","state_code":"MOR","nom_mun":"Tlaquiltenango"},"geometry":{"type":"Polygon","coordinates":[[[-99.15898850229635,18.661760750859333],[-99.09083874559502,18.642119074812193],[-99.07403903812911,18.583921516154003],[-99.04519425738576,18.57882922977141],[-99.01698342786753,18.577010556063343],[-98.99574606182571,18.53918214293552],[-98.9675352323075,18.52372341641694],[-98.96848615914519,18.49644331079591],[-98.91523425623437,18.45715995870163],[-98.93964137840183,18.421877688765104],[-98.98560284222366,18.41987714768623],[-99.066114647815,18.332580809698943],[-99.07086928200347,18.334945085519433],[-99.06674859904014,18.368226814377085],[-99.12729094103992,18.425696903552048],[-99.13933601431737,18.46407091879229],[-99.20463299050563,18.455159417622756],[-99.17610518537484,18.488259279109602],[-99.22904011267308,18.480620849535715],[-99.20875367346896,18.52299594693371],[-99.1631091852597,18.531361845990826],[-99.15169806320738,18.59847090581855],[-99.17769006343765,18.62975209359733],[-99.15898850229635,18.661760750859333]]]}},{"type":"Feature","properties":{"cvegeo":"17019","cve_ent":"17","state_code":"MOR","nom_mun":"Tepalcingo"},"geometry":{"type":"Polygon","coordinates":[[[-98.76055015730297,18.586285791974493],[-98.81919064562737,18.571008932826718],[-98.81094927970071,18.519176732146768],[-98.84169591411944,18.507173485673516],[-98.85025425565868,18.47807470634442],[-98.91523425623437,18.45715995870163],[-98.96848615914519,18.49644331079591],[-98.9675352323075,18.52372341641694],[-98.99574606182571,18.53918214293552],[-99.01698342786753,18.577010556063343],[-98.97197289088339,18.595924762627256],[-98.98021425681007,18.628115287260066],[-98.95041854922901,18.666125567758698],[-98.95422225657978,18.626296613552],[-98.9247435246113,18.620113122944566],[-98.94281113452747,18.65976020978046],[-98.92886420757463,18.676855742636302],[-98.87624625588896,18.671945323624517],[-98.84232986534457,18.681220559535667],[-98.81823971878968,18.6475750959364],[-98.83472245064303,18.632298236788625],[-98.76055015730297,18.586285791974493]]]}},{"type":"Feature","properties":{"cvegeo":"17003","cve_ent":"17","state_code":"MOR","nom_mun":"Axochiapan"},"geometry":{"type":"Polygon","coordinates":[[[-98.7193433276696,18.605018131167597],[-98.71268683980576,18.58519458774965],[-98.70793220561728,18.4988075866164],[-98.70666430316703,18.444974844857573],[-98.72695074237114,18.43951882373337],[-98.75484459627681,18.456978091330825],[-98.81094927970071,18.519176732146768],[-98.81919064562737,18.571008932826718],[-98.76055015730297,18.586285791974493],[-98.74818810841296,18.587740730940947],[-98.7193433276696,18.605018131167597]]]}}]}