{"type":"FeatureCollection","features":[{"type":"Feature","properties":{"cvegeo":"18001","cve_ent":"18","state_code":"NAY","nom_mun":"Acaponeta"},"geometry":{"type":"Polygon","coordinates":[[[-105.07280250590942,22.656477550631703],[-105.00750552972116,22.58573114338784],[-104.98785304174217,22.498798540142168],[-105.05441792038069,22.427324663415078],[-105.03413148117657,22.416048886425052],[-105.03571635923939,22.35857879725009],[-105.11622816483073,22.347848622372485],[-105.1209827990192,22.284558777331704],[-105.15426523833845,22.2552781306318],[-105.23699587321775,22.275101674049747],[-105.25442953190878,22.26619017288021],[-105.26615762957367,22.307474066053366],[-105.2943684590919,22.304746055491265],[-105.29817216644267,22.343301938102314],[-105.3263829959609,22.37367378902706],[-105.35712963037963,22.351122235047008],[-105.40594387471455,22.370763911094148],[-105.40974758206532,22.438418573034294],[-105.53907363199157,22.46969976081307],[-105.52956436361464,22.426960928673463],[-105.56569958344699,22.45023995213674],[-105.56443168099672,22.487522763152143],[-105.65952436476603,22.51698527722285],[-105.68234660887066,22.571909223206518],[-105.66047529160372,22.58627674550026],[-105.60088387644163,22.558814772508427],[-105.59866504715367,22.53662695326999],[-105.54160943689209,22.53662695326999],[-105.53400202219055,22.514984736143976],[-105.50388933899693,22.526260513134],[-105.4668031923269,22.505345765491214],[-105.44176211893432,22.524441839425933],[-105.43890933842124,22.587913551837524],[-105.46426738742639,22.659205561193808],[-105.40594387471455,22.65593194851928],[-105.38375558183505,22.565361997857472],[-105.26869343447419,22.568635610532],[-105.24587119036956,22.587186082354293],[-105.20656621441157,22.539536831202902],[-105.1761365556054,22.538263759607254],[-105.15236338466308,22.564088926261824],[-105.09752660368943,22.58573114338784],[-105.11591118921817,22.61446618797532],[-105.08643245724969,22.614829922716936],[-105.07280250590942,22.656477550631703]]]}},{"type":"Feature","properties":{"cvegeo":"18002","cve_ent":"18","state_code":"NAY","nom_mun":"Ahuacatlán"},"geometry":{"type":"Polygon","coordinates":[[[-104.42902503679123,21.055135350677425],[-104.41032347564993,21.010577844829747],[-104.44582474425714,21.012942120650237],[-104.45565098824663,20.984934545545983],[-104.48227693970203,20.99311857723229],[-104.5012954764559,20.96711154320691],[-104.5402834768013,20.966929675836106],[-104.5421853304767,20.948561071384614],[-104.58117333082211,20.965838471611264],[-104.62903664831933,20.924190843696497],[-104.68102064877988,20.943832519743637],[-104.6791187951045,20.957108837812534],[-104.72951791750222,20.983115871837914],[-104.73173674679018,21.01221465116701],[-104.66010025835064,21.081142384702805],[-104.66453791692653,21.120243869426275],[-104.61889342871727,21.143159158147938],[-104.63505918495805,21.175895284893173],[-104.61572367259163,21.144432229743586],[-104.58339216011007,21.08823521216427],[-104.57610172102109,21.11187797036916],[-104.6008258188011,21.13733940228212],[-104.53489489138772,21.16152776259943],[-104.53901557435105,21.17825956071366],[-104.49368806175436,21.155344271991996],[-104.52380074494796,21.12915537059581],[-104.46991489081202,21.106240081874148],[-104.45977167120996,21.07004847508359],[-104.42902503679123,21.055135350677425]]]}},{"type":"Feature","properties":{"cvegeo":"18003","cve_ent":"18","state_code":"NAY","nom_mun":"Amatlán de Cañas"},"geometry":{"type":"Polygon","coordinates":[[[-104.45565098824663,20.984934545545983],[-104.44043615884354,20.942741315518795],[-104.40303303656094,20.94656053030574],[-104.39764445114736,20.969112084285786],[-104.34534347507423,20.964565400015616],[-104.29240854777599,20.848534017440848],[-104.36246015815271,20.840713720496154],[-104.35041508487527,20.811614941167058],[-104.37577313388041,20.784152968175224],[-104.32822679199576,20.79815675572735],[-104.29748015757701,20.770694782735518],[-104.28289927939906,20.783425498691997],[-104.24771498640442,20.726501011629455],[-104.24771498640442,20.68994567009728],[-104.25722425478135,20.603558668964027],[-104.28226532817393,20.62883823350618],[-104.28733693797496,20.687399526905985],[-104.35073206048783,20.725409807404613],[-104.39669352430965,20.7808793555007],[-104.4505793784456,20.80361277685156],[-104.50351430574385,20.841804924720996],[-104.54281928170182,20.91200572985244],[-104.59068259919904,20.934557283832486],[-104.61889342871727,20.92382710895488],[-104.62903664831933,20.924190843696497],[-104.58117333082211,20.965838471611264],[-104.5421853304767,20.948561071384614],[-104.5402834768013,20.966929675836106],[-104.5012954764559,20.96711154320691],[-104.48227693970203,20.99311857723229],[-104.45565098824663,20.984934545545983]]]}},{"type":"Feature","properties":{"cvegeo":"18005","cve_ent":"18","state_code":"NAY","nom_mun":"Huajicori"},"geometry":{"type":"Polygon","coordinates":[[[-105.07280250590942,22.656477550631703],[-105.08643245724969,22.614829922716936],[-105.11591118921817,22.61446618797532],[-105.09752660368943,22.58573114338784],[-105.15236338466308,22.564088926261824],[-105.1761365556054,22.538263759607254],[-105.20656621441157,22.539536831202902],[-105.24587119036956,22.587186082354293],[-105.26869343447419,22.568635610532],[-105.38375558183505,22.565361997857472],[-105.40594387471455,22.65593194851928],[-105.46426738742639,22.659205561193808],[-105.49850075358334,22.65138526424911],[-105.52290787575079,22.72431407994266],[-105.52322485136335,22.77305453531889],[-105.50230446093411,22.80997361159268],[-105.4953309974577,22.81070108107591],[-105.4712408509028,22.88308429465703],[-105.50167050970899,22.958377386171065],[-105.4534902165992,22.97729159273498],[-105.43256982616995,23.02403150703234],[-105.4091136308402,23.023667772290725],[-105.41291733819097,23.07404503400422],[-105.39231392337427,23.0840477393986],[-105.3583975328299,23.073863166633416],[-105.35427684986657,23.020212292245397],[-105.32353021544782,22.941281853315225],[-105.2978551908301,22.95419443664251],[-105.16345753110282,22.9538307019009],[-105.07628923764763,22.959468590395907],[-105.00338484675783,22.976927857993367],[-105.00972435900911,22.92127644252647],[-104.98912094419244,22.89072272423092],[-104.9875360661296,22.845074014158403],[-104.95900826099881,22.81361095900882],[-104.93269928515598,22.82725101181933],[-104.90607333370058,22.799970906198304],[-104.91589957769007,22.74832057288916],[-104.89276035797286,22.73740853064075],[-105.05758767650633,22.687940605781286],[-105.07280250590942,22.656477550631703]]]}},{"type":"Feature","properties":{"cvegeo":"18006","cve_ent":"18","state_code":"NAY","nom_mun":"Ixtlán del Río"},"geometry":{"type":"Polygon","coordinates":[[[-104.23788874241492,21.202266053660164],[-104.21950415688619,21.17644088700559],[-104.21062883973438,21.13042844219146],[-104.22774552281287,21.05077053377806],[-104.24105849854057,21.021671754448967],[-104.23345108383901,20.968566482173365],[-104.2052402543208,20.95965498100383],[-104.25976005968187,20.893818992771752],[-104.29018971848804,20.887999236905934],[-104.29240854777599,20.848534017440848],[-104.34534347507423,20.964565400015616],[-104.39764445114736,20.969112084285786],[-104.40303303656094,20.94656053030574],[-104.44043615884354,20.942741315518795],[-104.45565098824663,20.984934545545983],[-104.44582474425714,21.012942120650237],[-104.41032347564993,21.010577844829747],[-104.42902503679123,21.055135350677425],[-104.41317625616301,21.067866066633904],[-104.4106404512625,21.067866066633904],[-104.41159137810018,21.068411668746325],[-104.4106404512625,21.067866066633904],[-104.41159137810018,21.068411668746325],[-104.30857430401677,21.071321546679236],[-104.2905066941006,21.094782437513317],[-104.33520025547217,21.17080299851058],[-104.33710210914757,21.20481219685146],[-104.23788874241492,21.202266053660164]]]}},{"type":"Feature","properties":{"cvegeo":"18007","cve_ent":"18","state_code":"NAY","nom_mun":"Jala"},"geometry":{"type":"Polygon","coordinates":[[[-104.23788874241492,21.202266053660164],[-104.33710210914757,21.20481219685146],[-104.33520025547217,21.17080299851058],[-104.2905066941006,21.094782437513317],[-104.30857430401677,21.071321546679236],[-104.41159137810018,21.068411668746325],[-104.4106404512625,21.067866066633904],[-104.41159137810018,21.068411668746325],[-104.4106404512625,21.067866066633904],[-104.41317625616301,21.067866066633904],[-104.42902503679123,21.055135350677425],[-104.45977167120996,21.07004847508359],[-104.46991489081202,21.106240081874148],[-104.52380074494796,21.12915537059581],[-104.49368806175436,21.155344271991996],[-104.53901557435105,21.17825956071366],[-104.55771713549235,21.21463303487503],[-104.52031401320976,21.214996769616643],[-104.40937254881223,21.287379983197766],[-104.40049723166044,21.351033562980163],[-104.35897342641451,21.326845202662852],[-104.33551723108474,21.255371325935762],[-104.31111010891729,21.263191622880456],[-104.24739801079185,21.22609067923586],[-104.23788874241492,21.202266053660164]]]}},{"type":"Feature","properties":{"cvegeo":"18008","cve_ent":"18","state_code":"NAY","nom_mun":"Xalisco"},"geometry":{"type":"Polygon","coordinates":[[[-104.76406825927174,21.394863599344614],[-104.80464113767998,21.333028693270286],[-104.79703372297844,21.322116651021876],[-104.80242230839202,21.326117733179625],[-104.86771928458029,21.33630230594481],[-104.88134923592055,21.312841415110725],[-104.96059313906164,21.30574858764926],[-105.03064474943835,21.34321326603547],[-105.09911148175226,21.316478762526863],[-105.14982757976256,21.355762114621143],[-105.13746553087255,21.394317997232193],[-105.09720962807687,21.405230039480603],[-105.09277196950097,21.4476051368786],[-105.04712748129171,21.458699046497816],[-105.02240338351169,21.489434632164173],[-104.99767928573166,21.493253846951117],[-104.95457060242292,21.47106602771268],[-104.89846591899902,21.469065486633806],[-104.85218747956463,21.44123977890036],[-104.82144084514589,21.40141082469366],[-104.80432416206742,21.412686601683685],[-104.76406825927174,21.394863599344614]]]}},{"type":"Feature","properties":{"cvegeo":"18009","cve_ent":"18","state_code":"NAY","nom_mun":"Del Nayar"},"geometry":{"type":"Polygon","coordinates":[[[-104.36372806060297,21.97392930799361],[-104.39574259747197,21.939010772798696],[-104.44392289058175,21.928098730550285],[-104.41032347564993,21.855715516969163],[-104.44836054915766,21.748231900822315],[-104.43124386607917,21.7265896836963],[-104.45248123212099,21.66093556283503],[-104.4274401587284,21.655843276452437],[-104.43916825639329,21.602374269435224],[-104.47562045183818,21.610376433750726],[-104.47625440306331,21.572366153252094],[-104.44107011006867,21.5512695382385],[-104.47054884203716,21.541266832844123],[-104.43029293924148,21.52035208520134],[-104.47435254938793,21.470338558229454],[-104.54123440363901,21.465791873959283],[-104.52950630597412,21.516896605156006],[-104.56373967213108,21.52126142205537],[-104.56786035509441,21.573639224847742],[-104.59765606267545,21.608012157930236],[-104.6230141116806,21.674393748274735],[-104.6683416242773,21.736046786978257],[-104.66073420957576,21.74859563556393],[-104.71049938074836,21.811158011121485],[-104.72222747841325,21.844439739979137],[-104.75931362508328,21.85462431274432],[-104.82873128423486,21.8275260744941],[-104.86454952845465,21.773147730622853],[-104.92287304116648,21.790970732961924],[-104.92921255341777,21.7744208022185],[-104.94062367547008,21.812794817458744],[-104.89117547991005,21.857170455935616],[-104.86296465039182,21.847349617912045],[-104.861379772329,21.89554447117586],[-104.90385450441262,21.886087367893904],[-104.88388504082107,21.93464595589933],[-104.86296465039182,21.937192099090627],[-104.83158406474794,21.981749604938305],[-104.79227908878997,21.997753933569307],[-104.83285196719821,22.03449114247229],[-104.81098064993127,22.072865157712535],[-104.83221801597308,22.118877602526666],[-104.86106279671644,22.14288409547317],[-104.9742230904019,22.1568878830253],[-104.9875360661296,22.212903033233808],[-105.01352806635988,22.229634831348037],[-105.00813948094628,22.262370958093268],[-105.0515651398676,22.330207487404223],[-105.03571635923939,22.35857879725009],[-105.03413148117657,22.416048886425052],[-105.05441792038069,22.427324663415078],[-104.98785304174217,22.498798540142168],[-104.9609101146742,22.505345765491214],[-104.86264767477925,22.607009625772243],[-104.85884396742848,22.648111651574588],[-104.77928308867483,22.643019365191996],[-104.7618494299838,22.570090549498453],[-104.71525401493683,22.55590489457552],[-104.6702434779527,22.565180130486667],[-104.656930502225,22.539354963832096],[-104.65534562416217,22.462061331239184],[-104.60304464808905,22.460424524901924],[-104.59321840409956,22.411865936896497],[-104.55169459885363,22.388950648174834],[-104.50668406186949,22.345120611810383],[-104.49400503736692,22.376219932218355],[-104.37196942652965,22.421686774920065],[-104.34914718242501,22.409683528446813],[-104.3500981092627,22.38640450498354],[-104.29304249900112,22.365126022599135],[-104.29240854777599,22.344393142327156],[-104.29557830390164,22.276920347757816],[-104.32854376760832,22.24563915997904],[-104.36499596305323,22.112512244548427],[-104.36372806060297,21.97392930799361]]]}},{"type":"Feature","properties":{"cvegeo":"18011","cve_ent":"18","state_code":"NAY","nom_mun":"Ruíz"},"geometry":{"type":"Polygon","coordinates":[[[-104.90385450441262,21.886087367893904],[-104.97041938305114,21.888451643714394],[-105.06234231069479,21.903910370232975],[-105.05758767650633,21.881540683623733],[-105.09625870123918,21.892452725872143],[-105.09911148175226,21.87190171297097],[-105.15775197007666,21.877903336207595],[-105.16852914090386,21.903910370232975],[-105.20149460461055,21.889360980568426],[-105.21005294614979,21.945376130776935],[-105.23287519025442,21.94919534556388],[-105.18564582398233,21.95319642772163],[-105.13144299423382,21.977202920668134],[-105.12415255514485,21.955015101429698],[-105.08643245724969,21.94101131387757],[-105.05758767650633,21.97156503217312],[-105.04395772516607,21.941738783360798],[-104.97644191968986,21.949377212934685],[-104.94918201700932,21.99011550399542],[-104.96598172447523,22.006665434738842],[-104.93048045586802,22.056497094339917],[-104.9742230904019,22.1568878830253],[-104.86106279671644,22.14288409547317],[-104.83221801597308,22.118877602526666],[-104.81098064993127,22.072865157712535],[-104.83285196719821,22.03449114247229],[-104.79227908878997,21.997753933569307],[-104.83158406474794,21.981749604938305],[-104.86296465039182,21.937192099090627],[-104.88388504082107,21.93464595589933],[-104.90385450441262,21.886087367893904]]]}},{"type":"Feature","properties":{"cvegeo":"18013","cve_ent":"18","state_code":"NAY","nom_mun":"San Pedro Lagunillas"},"geometry":{"type":"Polygon","coordinates":[[[-104.63505918495805,21.175895284893173],[-104.61889342871727,21.143159158147938],[-104.66453791692653,21.120243869426275],[-104.66010025835064,21.081142384702805],[-104.73173674679018,21.01221465116701],[-104.79956952787894,21.01567013121234],[-104.7919621131774,21.03531180725948],[-104.83950845506206,21.085689068972975],[-104.8559911869154,21.15461680250877],[-104.80464113767998,21.165346977386374],[-104.84014240628719,21.204994064222266],[-104.81890504024537,21.23754832359669],[-104.80242230839202,21.326117733179625],[-104.79703372297844,21.322116651021876],[-104.75741177140789,21.327936406887694],[-104.720959575963,21.262646020768038],[-104.69718640502066,21.28319703366921],[-104.6737302096909,21.272466858791606],[-104.69623547818297,21.245914222653806],[-104.63505918495805,21.175895284893173]]]}},{"type":"Feature","properties":{"cvegeo":"18014","cve_ent":"18","state_code":"NAY","nom_mun":"Santa María del Oro"},"geometry":{"type":"Polygon","coordinates":[[[-104.47435254938793,21.470338558229454],[-104.46864698836177,21.43487442092212],[-104.42141762208968,21.412686601683685],[-104.42965898801636,21.375221923297474],[-104.40049723166044,21.351033562980163],[-104.40937254881223,21.287379983197766],[-104.52031401320976,21.214996769616643],[-104.55771713549235,21.21463303487503],[-104.53901557435105,21.17825956071366],[-104.53489489138772,21.16152776259943],[-104.6008258188011,21.13733940228212],[-104.57610172102109,21.11187797036916],[-104.58339216011007,21.08823521216427],[-104.61572367259163,21.144432229743586],[-104.63505918495805,21.175895284893173],[-104.69623547818297,21.245914222653806],[-104.6737302096909,21.272466858791606],[-104.69718640502066,21.28319703366921],[-104.720959575963,21.262646020768038],[-104.75741177140789,21.327936406887694],[-104.79703372297844,21.322116651021876],[-104.80464113767998,21.333028693270286],[-104.76406825927174,21.394863599344614],[-104.73585742975351,21.414869010133366],[-104.70637869778503,21.39686414042349],[-104.68926201470656,21.4237805113029],[-104.73078581995249,21.443058452608426],[-104.67658299020398,21.483614876298354],[-104.67341323407834,21.50125601126662],[-104.6284026970942,21.510531247177767],[-104.66453791692653,21.547450323451557],[-104.65407772171191,21.586733675545837],[-104.59765606267545,21.608012157930236],[-104.56786035509441,21.573639224847742],[-104.56373967213108,21.52126142205537],[-104.52950630597412,21.516896605156006],[-104.54123440363901,21.465791873959283],[-104.47435254938793,21.470338558229454]]]}},{"type":"Feature","properties":{"cvegeo":"18016","cve_ent":"18","state_code":"NAY","nom_mun":"Tecuala"},"geometry":{"type":"Polygon","coordinates":[[[-105.68234660887066,22.571909223206518],[-105.65952436476603,22.51698527722285],[-105.56443168099672,22.487522763152143],[-105.56569958344699,22.45023995213674],[-105.52956436361464,22.426960928673463],[-105.53907363199157,22.46969976081307],[-105.40974758206532,22.438418573034294],[-105.40594387471455,22.370763911094148],[-105.35712963037963,22.351122235047008],[-105.3263829959609,22.37367378902706],[-105.29817216644267,22.343301938102314],[-105.2943684590919,22.304746055491265],[-105.26615762957367,22.307474066053366],[-105.25442953190878,22.26619017288021],[-105.28390826387728,22.241092475708868],[-105.31814163003422,22.253823191665347],[-105.3583975328299,22.219813993324465],[-105.366321923144,22.257824273823097],[-105.41291733819097,22.238728199888378],[-105.40499294787685,22.211811829008965],[-105.48043314366717,22.199262980423292],[-105.51022885124821,22.23690952618031],[-105.51149675369848,22.17343781376872],[-105.5628468029339,22.176711426443244],[-105.5317831929026,22.13542753327009],[-105.57425792498621,22.160343363070627],[-105.57299002253596,22.136700604865737],[-105.58915577877674,22.134336329045247],[-105.59993294960393,22.145430238664467],[-105.63353236453575,22.258551743306324],[-105.63638514504883,22.292379074276397],[-105.66269412089167,22.29219720690559],[-105.68583334060887,22.37767487118481],[-105.75873773149867,22.537718157494833],[-105.70168212123708,22.467699219734197],[-105.67727499906962,22.468062954475812],[-105.67727499906962,22.5129841950651],[-105.7007311943994,22.558451037766815],[-105.68234660887066,22.571909223206518]]]}},{"type":"Feature","properties":{"cvegeo":"18017","cve_ent":"18","state_code":"NAY","nom_mun":"Tepic"},"geometry":{"type":"Polygon","coordinates":[[[-104.59765606267545,21.608012157930236],[-104.65407772171191,21.586733675545837],[-104.66453791692653,21.547450323451557],[-104.6284026970942,21.510531247177767],[-104.67341323407834,21.50125601126662],[-104.67658299020398,21.483614876298354],[-104.73078581995249,21.443058452608426],[-104.68926201470656,21.4237805113029],[-104.70637869778503,21.39686414042349],[-104.73585742975351,21.414869010133366],[-104.76406825927174,21.394863599344614],[-104.80432416206742,21.412686601683685],[-104.82144084514589,21.40141082469366],[-104.85218747956463,21.44123977890036],[-104.89846591899902,21.469065486633806],[-104.95457060242292,21.47106602771268],[-104.99767928573166,21.493253846951117],[-105.02240338351169,21.489434632164173],[-105.0648781155953,21.525626238954736],[-105.04744445690427,21.553451946688185],[-105.04966328619221,21.59509957460295],[-105.08262874989892,21.618560465437035],[-105.0800929449984,21.675666819870383],[-105.11083957941715,21.676212421982804],[-105.09118709143814,21.70421999708706],[-105.12288465269458,21.732591306932925],[-105.04047099342786,21.744958288147792],[-105.02652406647502,21.720951795201287],[-104.99419255399346,21.716405110931117],[-104.93174835831829,21.74623135974344],[-104.92921255341777,21.7744208022185],[-104.92287304116648,21.790970732961924],[-104.86454952845465,21.773147730622853],[-104.82873128423486,21.8275260744941],[-104.75931362508328,21.85462431274432],[-104.72222747841325,21.844439739979137],[-104.71049938074836,21.811158011121485],[-104.66073420957576,21.74859563556393],[-104.6683416242773,21.736046786978257],[-104.6230141116806,21.674393748274735],[-104.59765606267545,21.608012157930236]]]}},{"type":"Feature","properties":{"cvegeo":"18018","cve_ent":"18","state_code":"NAY","nom_mun":"Tuxpan"},"geometry":{"type":"Polygon","coordinates":[[[-105.23287519025442,21.94919534556388],[-105.21005294614979,21.945376130776935],[-105.20149460461055,21.889360980568426],[-105.20656621441157,21.877175866724368],[-105.29753821521754,21.883904959444223],[-105.35522777670425,21.84953202636173],[-105.36505402069375,21.940283844394344],[-105.41228338696584,21.910275728211214],[-105.42369450901815,21.944103059181288],[-105.47345968019076,21.956288173025346],[-105.55270358333185,22.07086461663366],[-105.58915577877674,22.134336329045247],[-105.57299002253596,22.136700604865737],[-105.56094494925851,22.10723809079503],[-105.48265197295513,22.07777557672432],[-105.48170104611742,22.023215365482265],[-105.44936953363586,21.995753392490432],[-105.35269197180374,22.003209954693514],[-105.29848914205523,21.963744735228428],[-105.29056475174113,21.942466252844028],[-105.23287519025442,21.94919534556388]]]}},{"type":"Feature","properties":{"cvegeo":"18019","cve_ent":"18","state_code":"NAY","nom_mun":"La Yesca"},"geometry":{"type":"Polygon","coordinates":[[[-104.21950415688619,21.17644088700559],[-104.23788874241492,21.202266053660164],[-104.24739801079185,21.22609067923586],[-104.31111010891729,21.263191622880456],[-104.33551723108474,21.255371325935762],[-104.35897342641451,21.326845202662852],[-104.40049723166044,21.351033562980163],[-104.42965898801636,21.375221923297474],[-104.42141762208968,21.412686601683685],[-104.46864698836177,21.43487442092212],[-104.47435254938793,21.470338558229454],[-104.43029293924148,21.52035208520134],[-104.47054884203716,21.541266832844123],[-104.44107011006867,21.5512695382385],[-104.47625440306331,21.572366153252094],[-104.47562045183818,21.610376433750726],[-104.43916825639329,21.602374269435224],[-104.4274401587284,21.655843276452437],[-104.45248123212099,21.66093556283503],[-104.43124386607917,21.7265896836963],[-104.44836054915766,21.748231900822315],[-104.41032347564993,21.855715516969163],[-104.44392289058175,21.928098730550285],[-104.39574259747197,21.939010772798696],[-104.36372806060297,21.97392930799361],[-104.32759284077063,21.975384246960065],[-104.2939934258388,22.0028462199519],[-104.2451791815039,21.966836480532145],[-104.19319518104335,21.985386952354443],[-104.17385966867693,21.970837562689894],[-104.1998516689072,21.894271399580212],[-104.19668191278156,21.85062323058657],[-104.1304340097556,21.790425130849503],[-104.05245800906478,21.79460808037806],[-103.98494220358857,21.77260212851043],[-103.92249800791339,21.770783454802363],[-103.93390912996571,21.7478681660807],[-103.89048347104439,21.699309578075272],[-103.9304223982275,21.641657621529504],[-103.90791712973544,21.61874233280784],[-103.9234489347511,21.589643553478744],[-103.8914343978821,21.568365071094345],[-103.85656708050001,21.552360742463343],[-103.85149547069898,21.515441666189552],[-103.80173029952638,21.489434632164173],[-103.780175957872,21.49998293967097],[-103.75006327467838,21.475430844612045],[-103.72121849393503,21.425962919752585],[-103.76432717724379,21.410322325863195],[-103.74562561610249,21.363036809453416],[-103.74942932345326,21.336666040686424],[-103.80363215320176,21.300110699154246],[-103.81853000699229,21.249005967957523],[-103.8619556659136,21.248824100586717],[-103.91774337372493,21.23081923087684],[-103.97543293521164,21.251188376407207],[-104.0175906916827,21.22609067923586],[-104.03565830159887,21.195900695681924],[-104.0717935214312,21.188444133478843],[-104.100321326562,21.2006292473229],[-104.16086366856179,21.1846249186919],[-104.20397235187053,21.192263348265787],[-104.21950415688619,21.17644088700559]]]}},{"type":"Feature","properties":{"cvegeo":"18020","cve_ent":"18","state_code":"NAY","nom_mun":"Bahía de Banderas"},"geometry":{"type":"Polygon","coordinates":[[[-104.96883450498831,20.909095851919528],[-104.98912094419244,20.921280965763586],[-105.0392030909776,20.91291506670647],[-105.04776143251684,20.93437541646168],[-105.08833431092508,20.923099639471655],[-105.13905040893536,20.8818157462985],[-105.17138192141692,20.821072044449014],[-105.17328377509232,20.76778490480261],[-105.19737392164721,20.777060140713758],[-105.23509401954236,20.747415759272243],[-105.24428631230673,20.703221988166177],[-105.28137245897676,20.6719408003874],[-105.31370397145832,20.729229022191557],[-105.36442006946862,20.761783281565982],[-105.3992873868507,20.735594380169797],[-105.51973811962515,20.770876650106324],[-105.49406309500743,20.789245254557816],[-105.45127138731125,20.876359725174296],[-105.42559636269354,20.886726165310286],[-105.40214016736378,20.93146553852877],[-105.35554475231682,20.96020058311625],[-105.32321323983525,20.931829273270385],[-105.37234445978272,20.870721836679284],[-105.35079011812834,20.85417190593586],[-105.30926631288243,20.872540510387353],[-105.2677425076365,20.92619138477537],[-105.23192426341672,20.94928854086784],[-105.20244553144823,20.943468785002022],[-105.09657567685174,20.97311316644354],[-105.04490865200376,20.969839553769013],[-105.001799968695,20.98620761714163],[-104.9929246515432,20.962201124195126],[-104.95774035854856,20.95292588828398],[-104.96883450498831,20.909095851919528]]]}},{"type":"Feature","properties":{"cvegeo":"18004","cve_ent":"18","state_code":"NAY","nom_mun":"Compostela"},"geometry":{"type":"Polygon","coordinates":[[[-105.14982757976256,21.355762114621143],[-105.09911148175226,21.316478762526863],[-105.03064474943835,21.34321326603547],[-104.96059313906164,21.30574858764926],[-104.88134923592055,21.312841415110725],[-104.86771928458029,21.33630230594481],[-104.80242230839202,21.326117733179625],[-104.81890504024537,21.23754832359669],[-104.84014240628719,21.204994064222266],[-104.80464113767998,21.165346977386374],[-104.8559911869154,21.15461680250877],[-104.83950845506206,21.085689068972975],[-104.7919621131774,21.03531180725948],[-104.79956952787894,21.01567013121234],[-104.83570474771129,21.019307478628477],[-104.96883450498831,20.909095851919528],[-104.95774035854856,20.95292588828398],[-104.9929246515432,20.962201124195126],[-105.001799968695,20.98620761714163],[-105.04490865200376,20.969839553769013],[-105.09657567685174,20.97311316644354],[-105.20244553144823,20.943468785002022],[-105.23192426341672,20.94928854086784],[-105.2677425076365,20.92619138477537],[-105.30926631288243,20.872540510387353],[-105.35079011812834,20.85417190593586],[-105.37234445978272,20.870721836679284],[-105.32321323983525,20.931829273270385],[-105.35554475231682,20.96020058311625],[-105.31814163003422,21.00639489530119],[-105.31370397145832,21.034766205147058],[-105.26805948324906,21.026400306089943],[-105.24111655618108,21.051861738002902],[-105.22843753167851,21.09641924385058],[-105.23350914147954,21.17825956071366],[-105.21670943401364,21.203720992626618],[-105.2392147025057,21.361945605228573],[-105.19008348255822,21.368492830577622],[-105.20783411686183,21.340121520731753],[-105.14982757976256,21.355762114621143]]]}},{"type":"Feature","properties":{"cvegeo":"18015","cve_ent":"18","state_code":"NAY","nom_mun":"Santiago Ixcuintla"},"geometry":{"type":"Polygon","coordinates":[[[-105.58915577877674,22.134336329045247],[-105.55270358333185,22.07086461663366],[-105.47345968019076,21.956288173025346],[-105.42369450901815,21.944103059181288],[-105.41228338696584,21.910275728211214],[-105.36505402069375,21.940283844394344],[-105.35522777670425,21.84953202636173],[-105.29753821521754,21.883904959444223],[-105.20656621441157,21.877175866724368],[-105.20149460461055,21.889360980568426],[-105.16852914090386,21.903910370232975],[-105.15775197007666,21.877903336207595],[-105.09911148175226,21.87190171297097],[-105.09625870123918,21.892452725872143],[-105.05758767650633,21.881540683623733],[-105.06234231069479,21.903910370232975],[-104.97041938305114,21.888451643714394],[-104.90385450441262,21.886087367893904],[-104.861379772329,21.89554447117586],[-104.86296465039182,21.847349617912045],[-104.89117547991005,21.857170455935616],[-104.94062367547008,21.812794817458744],[-104.92921255341777,21.7744208022185],[-104.93174835831829,21.74623135974344],[-104.99419255399346,21.716405110931117],[-105.02652406647502,21.720951795201287],[-105.04047099342786,21.744958288147792],[-105.12288465269458,21.732591306932925],[-105.09118709143814,21.70421999708706],[-105.11083957941715,21.676212421982804],[-105.1396843601605,21.704401864457864],[-105.21036992176235,21.699309578075272],[-105.30197587379344,21.735501184865836],[-105.28802894684061,21.711312824548525],[-105.3618842645681,21.696399700142365],[-105.36854075243195,21.673484411420702],[-105.41925685044225,21.662390501801482],[-105.4091136308402,21.624380221302854],[-105.44556582628509,21.6309274466519],[-105.53114924167747,21.807702531076153],[-105.60532153501752,21.918277892526717],[-105.63701909627396,21.974111175364417],[-105.65318485251474,22.028307651864857],[-105.64652836465089,22.169618598981778],[-105.66269412089167,22.29219720690559],[-105.63638514504883,22.292379074276397],[-105.63353236453575,22.258551743306324],[-105.59993294960393,22.145430238664467],[-105.58915577877674,22.134336329045247]]]}},{"type":"Feature","properties":{"cvegeo":"18012","cve_ent":"18","state_code":"NAY","nom_mun":"San Blas"},"geometry":{"type":"MultiPolygon","coordinates":[[[[-106.22817861370648,21.365764820015517],[-106.25163480903623,21.32466279421317],[-106.27889471171676,21.348123685047256],[-106.22817861370648,21.365764820015517]]],[[[-106.43484671309842,21.49434505117596],[-106.37715715161171,21.483069274185933],[-106.36004046853324,21.460517720205885],[-106.38634944437608,21.41977942914515],[-106.49443812826053,21.46597374133009],[-106.45893685965332,21.49525438802999],[-106.43484671309842,21.49434505117596]]],[[[-106.65324291015526,21.693489822209454],[-106.57494993385187,21.681850310477817],[-106.5356449578939,21.65693448067728],[-106.53849773840696,21.634201059326422],[-106.5071171527631,21.602374269435224],[-106.53406007983106,21.548723395047205],[-106.54610515310851,21.563272784711753],[-106.63073764166319,21.602010534693612],[-106.65609569066834,21.656570745935664],[-106.65324291015526,21.693489822209454]]],[[[-105.11083957941715,21.676212421982804],[-105.0800929449984,21.675666819870383],[-105.08262874989892,21.618560465437035],[-105.04966328619221,21.59509957460295],[-105.04744445690427,21.553451946688185],[-105.0648781155953,21.525626238954736],[-105.02240338351169,21.489434632164173],[-105.04712748129171,21.458699046497816],[-105.09277196950097,21.4476051368786],[-105.09720962807687,21.405230039480603],[-105.13746553087255,21.394317997232193],[-105.14982757976256,21.355762114621143],[-105.20783411686183,21.340121520731753],[-105.19008348255822,21.368492830577622],[-105.2392147025057,21.361945605228573],[-105.21829431207645,21.410322325863195],[-105.18849860449541,21.446150197912143],[-105.19769089725978,21.488161560568525],[-105.23446006831723,21.526717443179578],[-105.26552367834854,21.511804318773414],[-105.41069850890301,21.599828126243928],[-105.44556582628509,21.6309274466519],[-105.4091136308402,21.624380221302854],[-105.41925685044225,21.662390501801482],[-105.36854075243195,21.673484411420702],[-105.3618842645681,21.696399700142365],[-105.28802894684061,21.711312824548525],[-105.30197587379344,21.735501184865836],[-105.21036992176235,21.699309578075272],[-105.1396843601605,21.704401864457864],[-105.11083957941715,21.676212421982804]]],[[[-106.67352934935938,21.774602669589306],[-106.65926544679398,21.737319858573905],[-106.68747627631221,21.745867625001825],[-106.67352934935938,21.774602669589306]]]]}},{"type":"Feature","properties":{"cvegeo":"18010","cve_ent":"18","state_code":"NAY","nom_mun":"Rosamorada"},"geometry":{"type":"Polygon","coordinates":[[[-105.03571635923939,22.35857879725009],[-105.0515651398676,22.330207487404223],[-105.00813948094628,22.262370958093268],[-105.01352806635988,22.229634831348037],[-104.9875360661296,22.212903033233808],[-104.9742230904019,22.1568878830253],[-104.93048045586802,22.056497094339917],[-104.96598172447523,22.006665434738842],[-104.94918201700932,21.99011550399542],[-104.97644191968986,21.949377212934685],[-105.04395772516607,21.941738783360798],[-105.05758767650633,21.97156503217312],[-105.08643245724969,21.94101131387757],[-105.12415255514485,21.955015101429698],[-105.13144299423382,21.977202920668134],[-105.18564582398233,21.95319642772163],[-105.23287519025442,21.94919534556388],[-105.29056475174113,21.942466252844028],[-105.29848914205523,21.963744735228428],[-105.35269197180374,22.003209954693514],[-105.44936953363586,21.995753392490432],[-105.48170104611742,22.023215365482265],[-105.48265197295513,22.07777557672432],[-105.56094494925851,22.10723809079503],[-105.57299002253596,22.136700604865737],[-105.57425792498621,22.160343363070627],[-105.5317831929026,22.13542753327009],[-105.5628468029339,22.176711426443244],[-105.51149675369848,22.17343781376872],[-105.51022885124821,22.23690952618031],[-105.48043314366717,22.199262980423292],[-105.40499294787685,22.211811829008965],[-105.41291733819097,22.238728199888378],[-105.366321923144,22.257824273823097],[-105.3583975328299,22.219813993324465],[-105.31814163003422,22.253823191665347],[-105.28390826387728,22.241092475708868],[-105.25442953190878,22.26619017288021],[-105.23699587321775,22.275101674049747],[-105.15426523833845,22.2552781306318],[-105.1209827990192,22.284558777331704],[-105.11622816483073,22.347848622372485],[-105.03571635923939,22.35857879725009]]]}}]}