{"type":"FeatureCollection","features":[{"type":"Feature","properties":{"cvegeo":"19026","cve_ent":"19","state_code":"NLE","nom_mun":"Guadalupe"},"geometry":{"type":"Polygon","coordinates":[[[-100.2424111460413,25.624734909570236],[-100.26935407310927,25.621279429524904],[-100.27632753658568,25.67620337550857],[-100.26174665840773,25.701301072679918],[-100.20405709692102,25.718032870794147],[-100.20722685304666,25.73185479097547],[-100.18345368210433,25.709485104366223],[-100.11720577907839,25.696572521038938],[-100.12734899868045,25.67111108912598],[-100.2094456823346,25.623098103232973],[-100.2424111460413,25.624734909570236]]]}},{"type":"Feature","properties":{"cvegeo":"19031","cve_ent":"19","state_code":"NLE","nom_mun":"Juárez"},"geometry":{"type":"Polygon","coordinates":[[[-99.99009855844008,25.682386866116005],[-100.00911709519394,25.65201501519126],[-100.05634646146603,25.66129025110241],[-100.04049768083782,25.63764749289752],[-100.08645914465964,25.60600257037713],[-100.11118324243967,25.564900544574783],[-100.07219524209425,25.525617192480503],[-100.08836099833503,25.512886476524024],[-100.13559036460711,25.536529234728913],[-100.17869904791587,25.530345744121483],[-100.2424111460413,25.624734909570236],[-100.2094456823346,25.623098103232973],[-100.12734899868045,25.67111108912598],[-100.11720577907839,25.696572521038938],[-100.10674558386376,25.701482940050724],[-99.99865689997932,25.69075276517312],[-99.99009855844008,25.682386866116005]]]}},{"type":"Feature","properties":{"cvegeo":"19041","cve_ent":"19","state_code":"NLE","nom_mun":"Pesquería"},"geometry":{"type":"Polygon","coordinates":[[[-100.11466997417787,25.836428529189405],[-100.10452675457582,25.83151811017762],[-100.06617270545553,25.816059383659038],[-100.03162236368601,25.82387968060373],[-99.99231738772804,25.79787264657835],[-99.99009855844008,25.774411755744268],[-99.93209202134081,25.752223936505835],[-99.8823268501682,25.74767725223566],[-99.8281240204197,25.739311353178547],[-99.76663075158221,25.695117582072484],[-99.78216255659787,25.671292956496785],[-99.82051660571815,25.65910784265273],[-99.8557008987128,25.6849330093073],[-99.92797133837747,25.694571979960063],[-99.99009855844008,25.682386866116005],[-99.99865689997932,25.69075276517312],[-100.10674558386376,25.701482940050724],[-100.1241792425548,25.73458280153757],[-100.10135699845017,25.800418789769648],[-100.13083573041865,25.817332455254686],[-100.11466997417787,25.836428529189405]]]}},{"type":"Feature","properties":{"cvegeo":"19049","cve_ent":"19","state_code":"NLE","nom_mun":"Santiago"},"geometry":{"type":"Polygon","coordinates":[[[-100.18408763332947,25.519797436614684],[-100.16792187708869,25.516705691310968],[-100.13146968164378,25.470329511755224],[-100.09691933987426,25.50324750587126],[-100.03764490032474,25.447777957775173],[-100.07599894944502,25.39430895075796],[-100.05824831514141,25.36157282401273],[-100.07631592505759,25.33611139209977],[-100.14002802318302,25.300101652680013],[-100.08709309588477,25.23826674660569],[-100.13337153531917,25.259727096360894],[-100.1714086088269,25.22353548957033],[-100.2103966091723,25.269366067013657],[-100.24367904849156,25.269729801755272],[-100.25445621931875,25.306830745399868],[-100.32545875653317,25.34029434162833],[-100.41484587927631,25.32683615618862],[-100.46999963586251,25.337748198437033],[-100.45161505033377,25.41049514675977],[-100.52261758754818,25.434319772335467],[-100.53085895347486,25.463236684293754],[-100.4256230501035,25.43577471130192],[-100.40375173283655,25.469056440159576],[-100.29629700017725,25.41340502469268],[-100.2389244143031,25.42959122069449],[-100.25794295105696,25.482150890857667],[-100.18408763332947,25.519797436614684]]]}},{"type":"Feature","properties":{"cvegeo":"19018","cve_ent":"19","state_code":"NLE","nom_mun":"García"},"geometry":{"type":"Polygon","coordinates":[[[-100.41547983050144,25.789506747521237],[-100.44369066001967,25.720579013985443],[-100.50708578253253,25.75004152805615],[-100.56572627085694,25.701301072679918],[-100.59203524669978,25.722033952951897],[-100.64687202767341,25.692025836768767],[-100.66937729616548,25.662199587956444],[-100.7093162233486,25.658198505798694],[-100.72991963816527,25.633828278110578],[-100.7812696874007,25.638556829751554],[-100.80599378518072,25.72421636140158],[-100.86178149299204,25.818423659479524],[-100.82279349264662,25.91681390708603],[-100.83483856592407,25.94500334956109],[-100.75432676033273,25.960462076079672],[-100.73784402847939,25.98355923217214],[-100.72041036978834,25.944639614819476],[-100.61739329570493,25.967009301428718],[-100.61168773467877,25.862617430585587],[-100.52388548999845,25.90571999746681],[-100.49821046538074,25.902810119533903],[-100.46841475779968,25.898081567892923],[-100.41547983050144,25.789506747521237]]]}},{"type":"Feature","properties":{"cvegeo":"19048","cve_ent":"19","state_code":"NLE","nom_mun":"Santa Catarina"},"geometry":{"type":"Polygon","coordinates":[[[-100.44369066001967,25.720579013985443],[-100.42784187939145,25.715668594973657],[-100.41611378172657,25.69129836728554],[-100.4256230501035,25.638374962380748],[-100.34447729328703,25.58963450700451],[-100.31848529305675,25.547259409606518],[-100.27822939026107,25.519251834502263],[-100.25794295105696,25.482150890857667],[-100.2389244143031,25.42959122069449],[-100.29629700017725,25.41340502469268],[-100.40375173283655,25.469056440159576],[-100.4256230501035,25.43577471130192],[-100.53085895347486,25.463236684293754],[-100.58506178322337,25.470875113867642],[-100.5793562221972,25.494336004701726],[-100.60851797855312,25.513432078636445],[-100.5295910510246,25.51415954811967],[-100.53878334378896,25.531800683087937],[-100.59647290527568,25.544531399044416],[-100.63324207633315,25.571265902553023],[-100.6906146622073,25.567082953024464],[-100.72991963816527,25.633828278110578],[-100.7093162233486,25.658198505798694],[-100.66937729616548,25.662199587956444],[-100.64687202767341,25.692025836768767],[-100.59203524669978,25.722033952951897],[-100.56572627085694,25.701301072679918],[-100.50708578253253,25.75004152805615],[-100.44369066001967,25.720579013985443]]]}},{"type":"Feature","properties":{"cvegeo":"19039","cve_ent":"19","state_code":"NLE","nom_mun":"Monterrey"},"geometry":{"type":"Polygon","coordinates":[[[-100.33686987858547,25.762590376641825],[-100.31690041499392,25.722579555064318],[-100.26174665840773,25.701301072679918],[-100.27632753658568,25.67620337550857],[-100.26935407310927,25.621279429524904],[-100.2424111460413,25.624734909570236],[-100.17869904791587,25.530345744121483],[-100.16792187708869,25.516705691310968],[-100.18408763332947,25.519797436614684],[-100.25794295105696,25.482150890857667],[-100.27822939026107,25.519251834502263],[-100.31848529305675,25.547259409606518],[-100.34447729328703,25.58963450700451],[-100.31277973203059,25.64619525932544],[-100.34669612257497,25.662745190068865],[-100.34923192747549,25.664200129035322],[-100.39804617181039,25.67456656917131],[-100.42784187939145,25.715668594973657],[-100.44369066001967,25.720579013985443],[-100.41547983050144,25.789506747521237],[-100.36286187881575,25.79278036019576],[-100.33686987858547,25.762590376641825]]]}},{"type":"Feature","properties":{"cvegeo":"19019","cve_ent":"19","state_code":"NLE","nom_mun":"San Pedro Garza García"},"geometry":{"type":"Polygon","coordinates":[[[-100.42784187939145,25.715668594973657],[-100.39804617181039,25.67456656917131],[-100.34923192747549,25.664200129035322],[-100.34669612257497,25.662745190068865],[-100.31277973203059,25.64619525932544],[-100.34447729328703,25.58963450700451],[-100.4256230501035,25.638374962380748],[-100.41611378172657,25.69129836728554],[-100.42784187939145,25.715668594973657]]]}},{"type":"Feature","properties":{"cvegeo":"19010","cve_ent":"19","state_code":"NLE","nom_mun":"Carmen"},"geometry":{"type":"Polygon","coordinates":[[[-100.4256230501035,25.893534883622753],[-100.38346529363244,25.926089142997178],[-100.37142022035499,25.982286160576493],[-100.36983534229218,25.982104293205687],[-100.31594948815624,25.94718575801077],[-100.33211524439702,25.927362214592826],[-100.3010516343657,25.848977377775075],[-100.39741222058527,25.853524062045246],[-100.4256230501035,25.893534883622753]]]}},{"type":"Feature","properties":{"cvegeo":"19021","cve_ent":"19","state_code":"NLE","nom_mun":"Gral. Escobedo"},"geometry":{"type":"Polygon","coordinates":[[[-100.42784187939145,25.895535424701627],[-100.4256230501035,25.893534883622753],[-100.39741222058527,25.853524062045246],[-100.3010516343657,25.848977377775075],[-100.27284080484748,25.84934111251669],[-100.26745221943389,25.770592540957324],[-100.33686987858547,25.762590376641825],[-100.36286187881575,25.79278036019576],[-100.41547983050144,25.789506747521237],[-100.46841475779968,25.898081567892923],[-100.42784187939145,25.895535424701627]]]}},{"type":"Feature","properties":{"cvegeo":"19045","cve_ent":"19","state_code":"NLE","nom_mun":"Salinas Victoria"},"geometry":{"type":"Polygon","coordinates":[[[-100.3010516343657,25.848977377775075],[-100.33211524439702,25.927362214592826],[-100.31594948815624,25.94718575801077],[-100.36983534229218,25.982104293205687],[-100.37458997648064,26.01247614413043],[-100.45288295278404,26.077584662879282],[-100.53022500224974,26.113048800186615],[-100.53973427062667,26.107774646433217],[-100.56477534401924,26.123415240322608],[-100.52198363632306,26.210529710939085],[-100.49979534344355,26.212348384647154],[-100.45193202594633,26.28054864869972],[-100.48109378230225,26.346020902190183],[-100.43418139164274,26.393670153341578],[-100.39329153762193,26.395125092308035],[-100.3882199278209,26.36075215922554],[-100.35652236656446,26.36438950664168],[-100.33972265909856,26.325288021918205],[-100.30960997590495,26.312193571220114],[-100.29027446353852,26.272000882271797],[-100.2202228531618,26.272728351755028],[-100.1847215845546,26.289460149869257],[-100.18789134068024,26.3278341651095],[-100.10294187651299,26.319650133423192],[-100.05761436391629,26.301645263713315],[-100.0227470465342,26.25235920622466],[-99.95554821667056,26.238719153414145],[-99.91941299683823,26.24526637876319],[-99.92797133837747,26.195980321274536],[-99.9704460704611,26.198890199207447],[-99.96791026556058,26.162880459787694],[-100.02306402214677,26.15196841753928],[-100.10484373018838,26.117231749715174],[-100.07504802260733,26.062489671102313],[-100.11815670591608,26.038119443414196],[-100.14414870614635,26.01411295046769],[-100.15809563309918,26.043939199280015],[-100.2300490971513,26.001927836623633],[-100.27791241464851,26.01011186830994],[-100.25318831686849,26.00320090821928],[-100.2300490971513,25.951732442280942],[-100.23638860940258,25.914631498636346],[-100.25382226809361,25.87916736132901],[-100.27284080484748,25.84934111251669],[-100.3010516343657,25.848977377775075]]]}},{"type":"Feature","properties":{"cvegeo":"19025","cve_ent":"19","state_code":"NLE","nom_mun":"Gral. Zuazua"},"geometry":{"type":"Polygon","coordinates":[[[-100.10484373018838,25.99628994812862],[-100.0779008031204,26.01938710422109],[-100.05190880289013,25.96446315823742],[-100.08424031537169,25.952096177022558],[-100.06522177861783,25.91808697868168],[-100.06902548596861,25.880804167666273],[-100.10452675457582,25.83151811017762],[-100.11466997417787,25.836428529189405],[-100.15746168187405,25.856615807348962],[-100.23575465817746,25.86316303269801],[-100.25382226809361,25.87916736132901],[-100.23638860940258,25.914631498636346],[-100.21071358478487,25.898627170005344],[-100.17426138933996,25.90972107962456],[-100.12639807184276,25.98483230376779],[-100.10484373018838,25.99628994812862]]]}},{"type":"Feature","properties":{"cvegeo":"19006","cve_ent":"19","state_code":"NLE","nom_mun":"Apodaca"},"geometry":{"type":"Polygon","coordinates":[[[-100.10674558386376,25.701482940050724],[-100.11720577907839,25.696572521038938],[-100.18345368210433,25.709485104366223],[-100.20722685304666,25.73185479097547],[-100.26745221943389,25.770592540957324],[-100.27284080484748,25.84934111251669],[-100.25382226809361,25.87916736132901],[-100.23575465817746,25.86316303269801],[-100.15746168187405,25.856615807348962],[-100.11466997417787,25.836428529189405],[-100.13083573041865,25.817332455254686],[-100.10135699845017,25.800418789769648],[-100.1241792425548,25.73458280153757],[-100.10674558386376,25.701482940050724]]]}},{"type":"Feature","properties":{"cvegeo":"19012","cve_ent":"19","state_code":"NLE","nom_mun":"Ciénega de Flores"},"geometry":{"type":"Polygon","coordinates":[[[-100.23638860940258,25.914631498636346],[-100.2300490971513,25.951732442280942],[-100.25318831686849,26.00320090821928],[-100.27791241464851,26.01011186830994],[-100.2300490971513,26.001927836623633],[-100.15809563309918,26.043939199280015],[-100.14414870614635,26.01411295046769],[-100.11815670591608,26.038119443414196],[-100.10484373018838,25.99628994812862],[-100.12639807184276,25.98483230376779],[-100.17426138933996,25.90972107962456],[-100.21071358478487,25.898627170005344],[-100.23638860940258,25.914631498636346]]]}},{"type":"Feature","properties":{"cvegeo":"19047","cve_ent":"19","state_code":"NLE","nom_mun":"Hidalgo"},"geometry":{"type":"Polygon","coordinates":[[[-100.53973427062667,26.107774646433217],[-100.53022500224974,26.113048800186615],[-100.45288295278404,26.077584662879282],[-100.37458997648064,26.01247614413043],[-100.36983534229218,25.982104293205687],[-100.37142022035499,25.982286160576493],[-100.39994802548578,25.989197120667153],[-100.45098109910865,25.93118142937977],[-100.42784187939145,25.895535424701627],[-100.46841475779968,25.898081567892923],[-100.49821046538074,25.902810119533903],[-100.5029650995692,25.951550574910137],[-100.4753882212761,26.024297523232875],[-100.45827153819762,26.032117820177568],[-100.53973427062667,26.107774646433217]]]}},{"type":"Feature","properties":{"cvegeo":"19001","cve_ent":"19","state_code":"NLE","nom_mun":"Abasolo"},"geometry":{"type":"Polygon","coordinates":[[[-100.37142022035499,25.982286160576493],[-100.38346529363244,25.926089142997178],[-100.4256230501035,25.893534883622753],[-100.42784187939145,25.895535424701627],[-100.45098109910865,25.93118142937977],[-100.39994802548578,25.989197120667153],[-100.37142022035499,25.982286160576493]]]}},{"type":"Feature","properties":{"cvegeo":"19013","cve_ent":"19","state_code":"NLE","nom_mun":"China"},"geometry":{"type":"Polygon","coordinates":[[[-99.18941816110254,25.9053562627252],[-99.18593142936433,25.86843718645141],[-99.18276167323869,25.800782524511263],[-99.21509318572025,25.787688073813168],[-99.15835455107123,25.680022590295515],[-99.01888528154292,25.624007440087006],[-98.99099142763725,25.651287545708033],[-98.93647162227619,25.600910283994537],[-98.89019318284178,25.60873058093923],[-98.87878206078948,25.630372798065245],[-98.83757523115611,25.627099185390723],[-98.81633786511429,25.651833147820454],[-98.78115357211965,25.652924352045297],[-98.7557955231145,25.6238255727162],[-98.69049854692625,25.655288627865787],[-98.69113249815138,25.7194878097606],[-98.64802381484263,25.70221040953395],[-98.63914849769083,25.71894220764818],[-98.58145893620411,25.706029624320895],[-98.58177591181668,25.489425585689943],[-98.43374830074913,25.489425585689943],[-98.42360508114707,25.44741422303356],[-98.86388420699895,25.127145783042703],[-98.93425279298823,25.072767439171457],[-98.9478827443285,25.074040510767105],[-99.02268898889369,25.073494908654684],[-99.01825133031778,25.08695309409439],[-99.03600196462139,25.120052955581237],[-99.0696013795532,25.172794493115223],[-99.04931494034909,25.180796657430726],[-99.07245416006629,25.214078386288378],[-99.02268898889369,25.21444212102999],[-99.03568498900883,25.266274321709943],[-99.05692235505063,25.259908963731704],[-99.08164645283065,25.323562543514097],[-99.11302703847453,25.328109227784267],[-99.16691289261047,25.38285130639713],[-99.22396850287205,25.377759020014537],[-99.22365152725949,25.401947380331848],[-99.25883582025413,25.4244989343119],[-99.27943923507081,25.400856176107006],[-99.31113679632725,25.401583645590236],[-99.35741523576164,25.477967941329112],[-99.38689396773013,25.496518413151406],[-99.42429709001271,25.47687673710427],[-99.41161806551014,25.499792025825933],[-99.4325384559394,25.53289188731278],[-99.4138368947981,25.62327997060378],[-99.46138323668275,25.688206621981823],[-99.4192254802117,25.714577390748815],[-99.44173074870376,25.742948700594685],[-99.40179182152065,25.77150187781136],[-99.45853045616967,25.83879280500989],[-99.41668967531118,25.847704306179427],[-99.36026801627472,25.782777654801386],[-99.27563552772004,25.838065335526665],[-99.28197503997133,25.904446925871163],[-99.28197503997133,25.90462879324197],[-99.26612625934311,25.9160864376028],[-99.24108518595052,25.887715127756934],[-99.18941816110254,25.9053562627252]]]}},{"type":"Feature","properties":{"cvegeo":"19020","cve_ent":"19","state_code":"NLE","nom_mun":"Gral. Bravo"},"geometry":{"type":"Polygon","coordinates":[[[-98.73677698636064,26.036846371818548],[-98.58526264355488,26.017932165254635],[-98.58145893620411,25.706029624320895],[-98.63914849769083,25.71894220764818],[-98.64802381484263,25.70221040953395],[-98.69113249815138,25.7194878097606],[-98.69049854692625,25.655288627865787],[-98.7557955231145,25.6238255727162],[-98.78115357211965,25.652924352045297],[-98.81633786511429,25.651833147820454],[-98.83757523115611,25.627099185390723],[-98.87878206078948,25.630372798065245],[-98.89019318284178,25.60873058093923],[-98.93647162227619,25.600910283994537],[-98.99099142763725,25.651287545708033],[-99.01888528154292,25.624007440087006],[-99.15835455107123,25.680022590295515],[-99.21509318572025,25.787688073813168],[-99.18276167323869,25.800782524511263],[-99.18593142936433,25.86843718645141],[-99.00715718387804,25.83824720289747],[-98.79193074294685,25.975193333115026],[-98.79224771855941,26.031935952806762],[-98.84613357269535,26.024297523232875],[-98.82362830420328,26.047394679325343],[-98.73677698636064,26.036846371818548]]]}},{"type":"Feature","properties":{"cvegeo":"19003","cve_ent":"19","state_code":"NLE","nom_mun":"Los Aldamas"},"geometry":{"type":"Polygon","coordinates":[[[-99.1976595270292,26.258542696832095],[-99.16691289261047,26.075402254429598],[-99.19227094161562,26.071583039642654],[-99.18941816110254,25.9053562627252],[-99.24108518595052,25.887715127756934],[-99.26612625934311,25.9160864376028],[-99.28197503997133,25.90462879324197],[-99.28197503997133,25.904446925871163],[-99.31398957684033,25.92536167351395],[-99.33269113798163,25.91444963126554],[-99.33427601604444,25.99356193756652],[-99.38055445547884,26.09377085888109],[-99.40115787029552,26.1392377015828],[-99.33269113798163,26.252722940966272],[-99.33364206481932,26.306191947983486],[-99.26010372270439,26.252722940966272],[-99.1976595270292,26.258542696832095]]]}},{"type":"Feature","properties":{"cvegeo":"19015","cve_ent":"19","state_code":"NLE","nom_mun":"Dr. Coss"},"geometry":{"type":"Polygon","coordinates":[[[-98.84613357269535,26.024297523232875],[-98.79224771855941,26.031935952806762],[-98.79193074294685,25.975193333115026],[-99.00715718387804,25.83824720289747],[-99.18593142936433,25.86843718645141],[-99.18941816110254,25.9053562627252],[-99.19227094161562,26.071583039642654],[-99.16691289261047,26.075402254429598],[-99.16057338035918,26.061216599506665],[-99.0955933797835,26.08049454081219],[-99.09305757488298,26.0701281006762],[-99.02395689134394,26.10413729901708],[-98.90097035366898,25.968282373024365],[-98.84613357269535,26.024297523232875]]]}},{"type":"Feature","properties":{"cvegeo":"19051","cve_ent":"19","state_code":"NLE","nom_mun":"Villaldama"},"geometry":{"type":"Polygon","coordinates":[[[-100.18789134068024,26.3278341651095],[-100.1847215845546,26.289460149869257],[-100.2202228531618,26.272728351755028],[-100.29027446353852,26.272000882271797],[-100.30960997590495,26.312193571220114],[-100.33972265909856,26.325288021918205],[-100.35652236656446,26.36438950664168],[-100.3882199278209,26.36075215922554],[-100.39329153762193,26.395125092308035],[-100.43418139164274,26.393670153341578],[-100.48109378230225,26.346020902190183],[-100.50359905079432,26.36875432354104],[-100.51469319723408,26.433317240177473],[-100.50169719711894,26.486058777711456],[-100.43861905021863,26.514248220186516],[-100.48267866036508,26.573718850440358],[-100.44115485511915,26.584812760059574],[-100.46714685534943,26.64100977763889],[-100.39075573272142,26.673200302271702],[-100.33591895174779,26.66974482222637],[-100.34479426889959,26.69338758043126],[-100.319753195507,26.664288801102167],[-100.33053036633419,26.6306433375029],[-100.29090841476365,26.623004907929012],[-100.24970158513028,26.504063647421333],[-100.2246605117377,26.482057695553706],[-100.24272812165387,26.457323733123975],[-100.19771758466973,26.392760816487545],[-100.18789134068024,26.3278341651095]]]}},{"type":"Feature","properties":{"cvegeo":"19044","cve_ent":"19","state_code":"NLE","nom_mun":"Sabinas Hidalgo"},"geometry":{"type":"Polygon","coordinates":[[[-99.9286052896026,26.387122927992532],[-99.92163182612619,26.35365933176407],[-99.95554821667056,26.238719153414145],[-100.0227470465342,26.25235920622466],[-100.05761436391629,26.301645263713315],[-100.10294187651299,26.319650133423192],[-100.18789134068024,26.3278341651095],[-100.19771758466973,26.392760816487545],[-100.24272812165387,26.457323733123975],[-100.2246605117377,26.482057695553706],[-100.24970158513028,26.504063647421333],[-100.29090841476365,26.623004907929012],[-100.33053036633419,26.6306433375029],[-100.319753195507,26.664288801102167],[-100.34479426889959,26.69338758043126],[-100.36634861055396,26.788322347992434],[-100.30517231732904,26.790141021700503],[-100.32704363459598,26.853430866741284],[-100.30041768314058,26.847065508763045],[-100.27220685362235,26.912901496995126],[-100.25096948758053,26.882347778699575],[-100.17014070637663,26.871981338563582],[-100.1374922182825,26.81051016723087],[-100.14922031594739,26.797415716532775],[-100.08836099833503,26.799234390240844],[-100.0877270471099,26.76668013086642],[-100.05888226636654,26.742128035807497],[-100.03764490032474,26.673564037013314],[-100.10167397406273,26.635553756514682],[-100.03764490032474,26.588086372734097],[-100.0468371930891,26.55735078706774],[-100.01545660744523,26.541710193178353],[-100.03098841246089,26.46969071433884],[-99.98122324128828,26.448775966696054],[-99.98914763160239,26.418222248400504],[-99.96981211923597,26.393124551229157],[-99.9286052896026,26.387122927992532]]]}},{"type":"Feature","properties":{"cvegeo":"19046","cve_ent":"19","state_code":"NLE","nom_mun":"San Nicolás de los Garza"},"geometry":{"type":"Polygon","coordinates":[[[-100.33686987858547,25.762590376641825],[-100.26745221943389,25.770592540957324],[-100.20722685304666,25.73185479097547],[-100.20405709692102,25.718032870794147],[-100.26174665840773,25.701301072679918],[-100.31690041499392,25.722579555064318],[-100.33686987858547,25.762590376641825]]]}},{"type":"Feature","properties":{"cvegeo":"19008","cve_ent":"19","state_code":"NLE","nom_mun":"Bustamante"},"geometry":{"type":"Polygon","coordinates":[[[-100.51469319723408,26.433317240177473],[-100.62373280795622,26.431862301211016],[-100.61010285661595,26.524069058210088],[-100.63672880807135,26.521341047647986],[-100.65543036921265,26.567535359832924],[-100.69632022323346,26.623368642670627],[-100.69124861343242,26.61372967201786],[-100.61454051519185,26.685567283486566],[-100.607884027328,26.71066498065791],[-100.49092002629175,26.67156349593444],[-100.48743329455354,26.632098276469353],[-100.46714685534943,26.64100977763889],[-100.44115485511915,26.584812760059574],[-100.48267866036508,26.573718850440358],[-100.43861905021863,26.514248220186516],[-100.50169719711894,26.486058777711456],[-100.51469319723408,26.433317240177473]]]}},{"type":"Feature","properties":{"cvegeo":"19033","cve_ent":"19","state_code":"NLE","nom_mun":"Linares"},"geometry":{"type":"Polygon","coordinates":[[[-99.16691289261047,25.04657853777527],[-99.1799088927256,25.005294644602117],[-99.15898850229635,24.916543367648377],[-99.20526694173076,24.864165564856005],[-99.18244469762612,24.775778022643877],[-99.2128743564323,24.77159507311532],[-99.29497104008647,24.803967465118937],[-99.36597357730088,24.77050386889048],[-99.40496157764629,24.734857864212337],[-99.45092304146813,24.731038649425393],[-99.5000542614156,24.678842714003828],[-99.49973728580304,24.64119616824681],[-99.57264167669284,24.620099553233217],[-99.60972782336286,24.622463829053707],[-99.70482050713217,24.575905782127155],[-99.73334831226296,24.553899830259525],[-99.77233631260837,24.586272222263144],[-99.81259221540405,24.64938019993312],[-99.81132431295379,24.67411416236285],[-99.83953514247202,24.741950691673804],[-99.87123270372845,24.775414287902265],[-99.89120216732,24.823063539053656],[-99.85411602064997,24.850161777303878],[-99.88169289894307,24.868166647013755],[-99.88422870384359,24.89799289582608],[-99.94096733849261,24.858527676360993],[-99.96188772892185,24.89435554840994],[-99.93716363114183,24.913633489715465],[-99.87852314281743,24.929274083604856],[-99.79642645916326,24.998565551882265],[-99.74507640992783,24.990199652825147],[-99.65061767738366,24.95673605659669],[-99.65854206769777,24.976013997902214],[-99.61511640877646,24.96582942513703],[-99.56725309127924,25.000202358219525],[-99.51526909081869,24.98674417277982],[-99.48420548078738,25.002930368781627],[-99.45028909024299,24.981106284284806],[-99.41605572408605,24.98728977489224],[-99.40971621183476,25.02184457534554],[-99.37358099200242,25.010205063613903],[-99.36914333342652,25.037667036605736],[-99.41098411428501,25.04603293566285],[-99.39450138243167,25.10368489220862],[-99.41510479724835,25.107322239624757],[-99.3685093822014,25.130419395717226],[-99.36438869923806,25.151879745472435],[-99.31081982071468,25.144423183269353],[-99.31303865000262,25.10659477014153],[-99.17927494150048,25.090226706768917],[-99.20209718560511,25.043123057729943],[-99.16691289261047,25.04657853777527]],[[-99.73239738542526,24.9330932983918],[-99.74127270257706,24.8374310613474],[-99.63476889675545,24.834884918156103],[-99.61606733561415,24.84306894984241],[-99.61606733561415,24.92891034886324],[-99.73239738542526,24.9330932983918]]]}},{"type":"Feature","properties":{"cvegeo":"19050","cve_ent":"19","state_code":"NLE","nom_mun":"Vallecillo"},"geometry":{"type":"Polygon","coordinates":[[[-99.67914548251446,26.895624096768472],[-99.7143297755091,26.84215508975126],[-99.68326616547779,26.824695822153803],[-99.71496372673423,26.79996185972407],[-99.74951406850374,26.734307738862803],[-99.7783588492471,26.744674178998793],[-99.80149806896429,26.690659569869158],[-99.73429923910065,26.671927230676054],[-99.70799026325781,26.59827094549928],[-99.72700880001167,26.413493696759524],[-99.7675816784199,26.385304254284463],[-99.77518909312145,26.407855808264515],[-99.81417709346687,26.366753782462165],[-99.9286052896026,26.387122927992532],[-99.96981211923597,26.393124551229157],[-99.98914763160239,26.418222248400504],[-99.98122324128828,26.448775966696054],[-100.03098841246089,26.46969071433884],[-100.01545660744523,26.541710193178353],[-100.0468371930891,26.55735078706774],[-100.03764490032474,26.588086372734097],[-100.10167397406273,26.635553756514682],[-100.03764490032474,26.673564037013314],[-100.05888226636654,26.742128035807497],[-100.0877270471099,26.76668013086642],[-100.08836099833503,26.799234390240844],[-100.09818724232453,26.83688093599786],[-100.06744060790578,26.839608946559963],[-100.02433192459704,26.868343991147448],[-100.04968997360218,26.905808669533656],[-100.0024606073301,26.913992701219964],[-99.9685442167857,26.846338039279818],[-99.84936138646151,26.8883494019362],[-99.76663075158221,26.889804340902653],[-99.74729523921579,26.91017348643302],[-99.67914548251446,26.895624096768472]]]}},{"type":"Feature","properties":{"cvegeo":"19043","cve_ent":"19","state_code":"NLE","nom_mun":"Rayones"},"geometry":{"type":"Polygon","coordinates":[[[-100.33211524439702,25.18625267855493],[-100.32577573214573,25.222080550603877],[-100.26174665840773,25.206803691456102],[-100.22973212153873,25.21789760107532],[-100.26238060963286,25.253907340495076],[-100.24367904849156,25.269729801755272],[-100.2103966091723,25.269366067013657],[-100.1714086088269,25.22353548957033],[-100.0966023642617,25.096592064747156],[-100.07029338841886,25.114233199715418],[-100.02021124163369,25.05639937579884],[-100.0005587536547,25.079314664520503],[-99.94698987513134,24.9198169803229],[-99.93716363114183,24.913633489715465],[-99.96188772892185,24.89435554840994],[-99.96822724117314,24.880169893487007],[-99.98978158282752,24.903994519062707],[-100.06617270545553,24.88999073151058],[-100.12988480358096,24.94400534064021],[-100.15968051116201,25.013478676288425],[-100.20057036518281,25.020571503749892],[-100.27220685362235,25.109868382816053],[-100.25350529248105,25.130419395717226],[-100.29788187824006,25.152607214955662],[-100.33211524439702,25.18625267855493]]]}},{"type":"Feature","properties":{"cvegeo":"19042","cve_ent":"19","state_code":"NLE","nom_mun":"Los Ramones"},"geometry":{"type":"Polygon","coordinates":[[[-99.78533231272351,25.429954955436102],[-99.71623162918448,25.500701362679965],[-99.68802079966626,25.516341956569356],[-99.73525016593834,25.550351154910235],[-99.74032177573937,25.626007981165884],[-99.78216255659787,25.671292956496785],[-99.76663075158221,25.695117582072484],[-99.75838938565555,25.735674005762412],[-99.71749953163474,25.72585316773884],[-99.66202879943597,25.780777113722507],[-99.68294918986523,25.793689697049793],[-99.66678343362445,25.8469768366962],[-99.70799026325781,25.88789699512774],[-99.67819455567677,25.92990835778412],[-99.62779543327903,25.86370863481043],[-99.53872528614845,25.901537047938255],[-99.53872528614845,25.858798215798643],[-99.56059660341539,25.831154375436004],[-99.50385796876637,25.8469768366962],[-99.49054499303867,25.81642311840065],[-99.45853045616967,25.83879280500989],[-99.40179182152065,25.77150187781136],[-99.44173074870376,25.742948700594685],[-99.4192254802117,25.714577390748815],[-99.46138323668275,25.688206621981823],[-99.4138368947981,25.62327997060378],[-99.4325384559394,25.53289188731278],[-99.41161806551014,25.499792025825933],[-99.42429709001271,25.47687673710427],[-99.46582089525864,25.48487890141977],[-99.4582134805571,25.46069054110246],[-99.49656752967739,25.468874572788767],[-99.53048392022177,25.453961448382607],[-99.54950245697563,25.488152514094295],[-99.63191611624237,25.49760961737625],[-99.62969728695441,25.471056981238448],[-99.67122109220034,25.47487619602539],[-99.66424762872393,25.39612762446603],[-99.70291865345678,25.423407730087057],[-99.69879797049344,25.37885022423938],[-99.78533231272351,25.429954955436102]]]}},{"type":"Feature","properties":{"cvegeo":"19040","cve_ent":"19","state_code":"NLE","nom_mun":"Parás"},"geometry":{"type":"Polygon","coordinates":[[[-99.6271614820539,26.87052639959713],[-99.58975835977131,26.861069296315172],[-99.5808830426195,26.829060639053168],[-99.622723823478,26.770499345653363],[-99.6182861649021,26.72685117665972],[-99.65727416524751,26.69520625413933],[-99.65949299453547,26.67029042433879],[-99.53840831053589,26.66465253584378],[-99.39703718733219,26.59663413916202],[-99.4005239190704,26.54989422486466],[-99.41605572408605,26.438227659189256],[-99.46518694403352,26.441319404492972],[-99.47564713924814,26.388577866958986],[-99.57834723771899,26.413311829388718],[-99.59926762814824,26.38839599958818],[-99.65347045789674,26.388577866958986],[-99.64364421390725,26.35093132120197],[-99.72162021459808,26.36311643504603],[-99.72700880001167,26.413493696759524],[-99.70799026325781,26.59827094549928],[-99.73429923910065,26.671927230676054],[-99.80149806896429,26.690659569869158],[-99.7783588492471,26.744674178998793],[-99.74951406850374,26.734307738862803],[-99.71496372673423,26.79996185972407],[-99.68326616547779,26.824695822153803],[-99.7143297755091,26.84215508975126],[-99.67914548251446,26.895624096768472],[-99.6271614820539,26.87052639959713]]]}},{"type":"Feature","properties":{"cvegeo":"19038","cve_ent":"19","state_code":"NLE","nom_mun":"Montemorelos"},"geometry":{"type":"Polygon","coordinates":[[[-99.93716363114183,24.913633489715465],[-99.94698987513134,24.9198169803229],[-100.0005587536547,25.079314664520503],[-100.02021124163369,25.05639937579884],[-100.07029338841886,25.114233199715418],[-100.0966023642617,25.096592064747156],[-100.1714086088269,25.22353548957033],[-100.13337153531917,25.259727096360894],[-100.08709309588477,25.23826674660569],[-100.06965943719374,25.22480856116598],[-100.03225631491114,25.250633727820553],[-99.97012909484853,25.26645618908075],[-99.93082411889054,25.308649419107937],[-99.94255221655543,25.373394203115176],[-99.93209202134081,25.42031598478334],[-99.827173093582,25.3395668721451],[-99.8005471421266,25.36848378410339],[-99.78247953221043,25.3395668721451],[-99.795158556713,25.283369854565784],[-99.76536284913196,25.28027810926207],[-99.74063875135194,25.239721685572142],[-99.75046499534143,25.208258630422556],[-99.7232050926609,25.218079468446128],[-99.69626216559293,25.18334280062202],[-99.62779543327903,25.13423861050417],[-99.58310187190746,25.090772308881334],[-99.56566821321641,25.1111414544117],[-99.52255952990767,25.118961751356395],[-99.47754899292353,25.1589725729339],[-99.44553445605453,25.14169517270725],[-99.45219094391838,25.099320075309258],[-99.41510479724835,25.107322239624757],[-99.39450138243167,25.10368489220862],[-99.41098411428501,25.04603293566285],[-99.36914333342652,25.037667036605736],[-99.37358099200242,25.010205063613903],[-99.40971621183476,25.02184457534554],[-99.41605572408605,24.98728977489224],[-99.45028909024299,24.981106284284806],[-99.48420548078738,25.002930368781627],[-99.51526909081869,24.98674417277982],[-99.56725309127924,25.000202358219525],[-99.61511640877646,24.96582942513703],[-99.65854206769777,24.976013997902214],[-99.65061767738366,24.95673605659669],[-99.74507640992783,24.990199652825147],[-99.79642645916326,24.998565551882265],[-99.87852314281743,24.929274083604856],[-99.93716363114183,24.913633489715465]]]}},{"type":"Feature","properties":{"cvegeo":"19037","cve_ent":"19","state_code":"NLE","nom_mun":"Mina"},"geometry":{"type":"Polygon","coordinates":[[[-100.51469319723408,26.433317240177473],[-100.50359905079432,26.36875432354104],[-100.48109378230225,26.346020902190183],[-100.45193202594633,26.28054864869972],[-100.49979534344355,26.212348384647154],[-100.52198363632306,26.210529710939085],[-100.56477534401924,26.123415240322608],[-100.53973427062667,26.107774646433217],[-100.45827153819762,26.032117820177568],[-100.4753882212761,26.024297523232875],[-100.5029650995692,25.951550574910137],[-100.49821046538074,25.902810119533903],[-100.52388548999845,25.90571999746681],[-100.61168773467877,25.862617430585587],[-100.61739329570493,25.967009301428718],[-100.72041036978834,25.944639614819476],[-100.73784402847939,25.98355923217214],[-100.75432676033273,25.960462076079672],[-100.83483856592407,25.94500334956109],[-100.90552412752592,25.956824728663534],[-100.91661827396567,26.075402254429598],[-100.94324422542108,26.08685989879043],[-100.97620968912777,26.132690476233755],[-101.04752920195475,26.16979141987835],[-101.07510608024785,26.198890199207447],[-101.10426783660377,26.261270707394196],[-101.20665095946205,26.369845527765882],[-100.98413407944187,26.545529407965297],[-100.75337583349503,26.735035208346027],[-100.69632022323346,26.623368642670627],[-100.65543036921265,26.567535359832924],[-100.63672880807135,26.521341047647986],[-100.61010285661595,26.524069058210088],[-100.62373280795622,26.431862301211016],[-100.51469319723408,26.433317240177473]]]}},{"type":"Feature","properties":{"cvegeo":"19036","cve_ent":"19","state_code":"NLE","nom_mun":"Mier y Noriega"},"geometry":{"type":"Polygon","coordinates":[[[-99.94794080196903,23.497250405871753],[-99.92163182612619,23.3790366148473],[-99.9828081193511,23.3923129329162],[-100.08011963240835,23.395586545590724],[-100.1454166085966,23.339571395382215],[-100.0779008031204,23.30592593178295],[-100.10420977896325,23.23154217712295],[-100.22846421908847,23.250274516316054],[-100.2202228531618,23.29792376746745],[-100.27854636587364,23.310108881311507],[-100.3064402197793,23.26100469119366],[-100.33211524439702,23.259004150114784],[-100.34162451277395,23.29155840948921],[-100.33686987858547,23.359758673541776],[-100.32323992724521,23.377763543251653],[-100.35779026901473,23.387948116016837],[-100.32609270775829,23.43632483665146],[-100.32133807356982,23.49379492582642],[-100.29978373191545,23.48924824155625],[-100.287738658638,23.55853970983366],[-100.23290187766437,23.546900198102023],[-100.18947621874305,23.553993025563486],[-100.14351475492123,23.541989779090237],[-100.16189934044996,23.5729072321274],[-100.03732792471217,23.527076654684073],[-100.02021124163369,23.559812781429308],[-99.9793213876129,23.53671562533684],[-99.98344207057623,23.51234539764872],[-99.94794080196903,23.497250405871753]]]}},{"type":"Feature","properties":{"cvegeo":"19035","cve_ent":"19","state_code":"NLE","nom_mun":"Melchor Ocampo"},"geometry":{"type":"Polygon","coordinates":[[[-99.47628109047326,26.099226880005297],[-99.39608626049449,26.094680195735123],[-99.40432762642116,26.005201449298156],[-99.44331562676658,25.992470733341676],[-99.54221201788665,26.003382775590087],[-99.56091357902795,25.99392567230813],[-99.60655806723722,26.072856111238302],[-99.55806079851487,26.097044471555613],[-99.47628109047326,26.099226880005297]]]}},{"type":"Feature","properties":{"cvegeo":"19034","cve_ent":"19","state_code":"NLE","nom_mun":"Marín"},"geometry":{"type":"Polygon","coordinates":[[[-100.10452675457582,25.83151811017762],[-100.06902548596861,25.880804167666273],[-100.06522177861783,25.91808697868168],[-100.00024177804214,25.919723785018938],[-99.95142753370723,25.90517439535439],[-99.88042499649282,25.994289407049745],[-99.89056821609488,26.01411295046769],[-99.81671289836738,26.018477767367056],[-99.80276597141454,25.995562478645393],[-99.94445407023082,25.891534342543878],[-99.9828081193511,25.90171891530906],[-99.9694951436234,25.838065335526665],[-99.9010284113095,25.80332866770256],[-99.8823268501682,25.74767725223566],[-99.93209202134081,25.752223936505835],[-99.99009855844008,25.774411755744268],[-99.99231738772804,25.79787264657835],[-100.03162236368601,25.82387968060373],[-100.06617270545553,25.816059383659038],[-100.10452675457582,25.83151811017762]]]}},{"type":"Feature","properties":{"cvegeo":"19032","cve_ent":"19","state_code":"NLE","nom_mun":"Lampazos de Naranjo"},"geometry":{"type":"Polygon","coordinates":[[[-100.0024606073301,26.913992701219964],[-100.04968997360218,26.905808669533656],[-100.02433192459704,26.868343991147448],[-100.06744060790578,26.839608946559963],[-100.09818724232453,26.83688093599786],[-100.08836099833503,26.799234390240844],[-100.14922031594739,26.797415716532775],[-100.1374922182825,26.81051016723087],[-100.17014070637663,26.871981338563582],[-100.25096948758053,26.882347778699575],[-100.27220685362235,26.912901496995126],[-100.30041768314058,26.847065508763045],[-100.32704363459598,26.853430866741284],[-100.30517231732904,26.790141021700503],[-100.36634861055396,26.788322347992434],[-100.34479426889959,26.69338758043126],[-100.33591895174779,26.66974482222637],[-100.39075573272142,26.673200302271702],[-100.46714685534943,26.64100977763889],[-100.48743329455354,26.632098276469353],[-100.49092002629175,26.67156349593444],[-100.607884027328,26.71066498065791],[-100.59013339302439,26.759587303404953],[-100.53814939256384,26.808509626151995],[-100.55146236829154,26.858705020494682],[-100.54068519746436,26.880892839733118],[-100.54512285604025,26.97982868945204],[-100.54005124623923,27.047301484021382],[-100.65352851553726,27.075490926496443],[-100.69758812568371,27.10859078798329],[-100.72516500397681,27.077855202316933],[-100.74862119930657,27.081310682362265],[-100.79965427292943,27.04584654505493],[-100.8310348585733,27.073854120159183],[-100.83452159031151,27.19515965648735],[-100.67793563770472,27.334833797267006],[-100.42277026959042,27.392485753812778],[-100.42181934275273,27.392667621183584],[-100.38600109853296,27.37102540405757],[-100.39994802548578,27.340653553132825],[-100.28330100006211,27.24517318345923],[-100.25287134125593,27.245536918200845],[-100.25287134125593,27.218256812579817],[-100.18186880404151,27.218256812579817],[-100.17204256005202,27.137143965199964],[-100.12132646204172,27.137143965199964],[-100.10135699845017,27.064942618989647],[-100.12132646204172,27.028932879569894],[-100.09121377884811,27.008745601410332],[-100.01196987570702,27.02438619529972],[-99.96030285085904,27.006926927702263],[-99.99992480242958,26.985648445317864],[-100.019260314796,26.956185931247152],[-100.0024606073301,26.913992701219964]]]}},{"type":"Feature","properties":{"cvegeo":"19030","cve_ent":"19","state_code":"NLE","nom_mun":"Iturbide"},"geometry":{"type":"Polygon","coordinates":[[[-99.85506694748767,24.500976425354736],[-99.87947406965512,24.50916045704104],[-99.84175397175997,24.56481187250794],[-99.86679504515254,24.618644614266763],[-99.99643807069137,24.730311179942166],[-99.95840099718365,24.76286543931659],[-99.9837590461888,24.825427814874146],[-99.92828831399004,24.825973416986567],[-99.96822724117314,24.880169893487007],[-99.96188772892185,24.89435554840994],[-99.94096733849261,24.858527676360993],[-99.88422870384359,24.89799289582608],[-99.88169289894307,24.868166647013755],[-99.85411602064997,24.850161777303878],[-99.89120216732,24.823063539053656],[-99.87123270372845,24.775414287902265],[-99.83953514247202,24.741950691673804],[-99.81132431295379,24.67411416236285],[-99.81259221540405,24.64938019993312],[-99.77233631260837,24.586272222263144],[-99.73334831226296,24.553899830259525],[-99.72003533653526,24.483517157757277],[-99.71052606815833,24.442051397213316],[-99.74317455625246,24.419317975862462],[-99.74412548309014,24.39167413549982],[-99.79230577619992,24.40676912727679],[-99.8084715324407,24.44641621411268],[-99.85506694748767,24.500976425354736]]]}},{"type":"Feature","properties":{"cvegeo":"19029","cve_ent":"19","state_code":"NLE","nom_mun":"Hualahuises"},"geometry":{"type":"Polygon","coordinates":[[[-99.73239738542526,24.9330932983918],[-99.61606733561415,24.92891034886324],[-99.61606733561415,24.84306894984241],[-99.63476889675545,24.834884918156103],[-99.74127270257706,24.8374310613474],[-99.73239738542526,24.9330932983918]]]}},{"type":"Feature","properties":{"cvegeo":"19028","cve_ent":"19","state_code":"NLE","nom_mun":"Higueras"},"geometry":{"type":"Polygon","coordinates":[[[-99.89056821609488,26.01411295046769],[-99.88042499649282,25.994289407049745],[-99.95142753370723,25.90517439535439],[-100.00024177804214,25.919723785018938],[-100.06522177861783,25.91808697868168],[-100.08424031537169,25.952096177022558],[-100.05190880289013,25.96446315823742],[-100.0779008031204,26.01938710422109],[-100.10484373018838,25.99628994812862],[-100.11815670591608,26.038119443414196],[-100.07504802260733,26.062489671102313],[-100.10484373018838,26.117231749715174],[-100.02306402214677,26.15196841753928],[-99.96791026556058,26.162880459787694],[-99.9286052896026,26.114140004411457],[-99.91909602122567,26.04939522040422],[-99.89056821609488,26.01411295046769]]]}},{"type":"Feature","properties":{"cvegeo":"19027","cve_ent":"19","state_code":"NLE","nom_mun":"Los Herreras"},"geometry":{"type":"Polygon","coordinates":[[[-99.53872528614845,25.901537047938255],[-99.5222425542951,25.922815530322655],[-99.56091357902795,25.99392567230813],[-99.54221201788665,26.003382775590087],[-99.44331562676658,25.992470733341676],[-99.40432762642116,26.005201449298156],[-99.39608626049449,26.094680195735123],[-99.38055445547884,26.09377085888109],[-99.33427601604444,25.99356193756652],[-99.33269113798163,25.91444963126554],[-99.31398957684033,25.92536167351395],[-99.28197503997133,25.904446925871163],[-99.28197503997133,25.90462879324197],[-99.28197503997133,25.904446925871163],[-99.27563552772004,25.838065335526665],[-99.36026801627472,25.782777654801386],[-99.41668967531118,25.847704306179427],[-99.45853045616967,25.83879280500989],[-99.49054499303867,25.81642311840065],[-99.50385796876637,25.8469768366962],[-99.56059660341539,25.831154375436004],[-99.53872528614845,25.858798215798643],[-99.53872528614845,25.901537047938255]]]}},{"type":"Feature","properties":{"cvegeo":"19024","cve_ent":"19","state_code":"NLE","nom_mun":"Gral. Zaragoza"},"geometry":{"type":"Polygon","coordinates":[[[-99.57105679863001,24.03939703824696],[-99.54189504227409,24.033395415010332],[-99.54126109104897,23.997203808219773],[-99.48705826130046,23.96046659931679],[-99.45726255371942,23.866077433868035],[-99.46772274893404,23.869532913913364],[-99.49371474916431,23.87862628245371],[-99.57676235965617,23.775507483206226],[-99.61955406735235,23.75968502194603],[-99.65980997014803,23.77059706419444],[-99.80561875192762,23.784237117004956],[-99.8610894841264,23.774416278981384],[-99.8832777770059,23.723493415155467],[-99.90831885039847,23.789875005499965],[-99.94508802145594,23.78787446442109],[-99.94223524094286,23.83806985876378],[-100.03067143684832,23.885173507802755],[-100.01799241234575,23.942097994865296],[-99.97298187536161,24.005024105164466],[-99.91814509438797,24.00247796197317],[-99.87820616720487,24.017027351637715],[-99.88010802088026,23.989565378645885],[-99.78089465414762,24.010116391547058],[-99.76663075158221,23.984473092263293],[-99.74317455625246,24.02884873074016],[-99.67597572638881,24.03866956876373],[-99.57105679863001,24.03939703824696]]]}},{"type":"Feature","properties":{"cvegeo":"19023","cve_ent":"19","state_code":"NLE","nom_mun":"Gral. Treviño"},"geometry":{"type":"Polygon","coordinates":[[[-99.33364206481932,26.306191947983486],[-99.33269113798163,26.252722940966272],[-99.40115787029552,26.1392377015828],[-99.38055445547884,26.09377085888109],[-99.39608626049449,26.094680195735123],[-99.47628109047326,26.099226880005297],[-99.52509533480819,26.161971122933657],[-99.5542570911641,26.1843408095429],[-99.58912440854618,26.183977074801284],[-99.58944138415875,26.235263673368816],[-99.54506479839974,26.235991142852043],[-99.49656752967739,26.272364617013412],[-99.462651139133,26.266181126405982],[-99.46518694403352,26.313102908074146],[-99.41003318744733,26.31692212286109],[-99.36375474801292,26.32910723670515],[-99.33364206481932,26.306191947983486]]]}},{"type":"Feature","properties":{"cvegeo":"19022","cve_ent":"19","state_code":"NLE","nom_mun":"Gral. Terán"},"geometry":{"type":"Polygon","coordinates":[[[-99.42429709001271,25.47687673710427],[-99.38689396773013,25.496518413151406],[-99.35741523576164,25.477967941329112],[-99.31113679632725,25.401583645590236],[-99.27943923507081,25.400856176107006],[-99.25883582025413,25.4244989343119],[-99.22365152725949,25.401947380331848],[-99.22396850287205,25.377759020014537],[-99.16691289261047,25.38285130639713],[-99.11302703847453,25.328109227784267],[-99.08164645283065,25.323562543514097],[-99.05692235505063,25.259908963731704],[-99.03568498900883,25.266274321709943],[-99.02268898889369,25.21444212102999],[-99.07245416006629,25.214078386288378],[-99.04931494034909,25.180796657430726],[-99.0696013795532,25.172794493115223],[-99.03600196462139,25.120052955581237],[-99.07340508690399,25.108231576478794],[-99.08228040405578,25.073676776025493],[-99.16691289261047,25.04657853777527],[-99.20209718560511,25.043123057729943],[-99.17927494150048,25.090226706768917],[-99.31303865000262,25.10659477014153],[-99.31081982071468,25.144423183269353],[-99.36438869923806,25.151879745472435],[-99.3685093822014,25.130419395717226],[-99.41510479724835,25.107322239624757],[-99.45219094391838,25.099320075309258],[-99.44553445605453,25.14169517270725],[-99.47754899292353,25.1589725729339],[-99.52255952990767,25.118961751356395],[-99.56566821321641,25.1111414544117],[-99.58310187190746,25.090772308881334],[-99.62779543327903,25.13423861050417],[-99.69626216559293,25.18334280062202],[-99.7232050926609,25.218079468446128],[-99.75046499534143,25.208258630422556],[-99.74063875135194,25.239721685572142],[-99.76536284913196,25.28027810926207],[-99.795158556713,25.283369854565784],[-99.78247953221043,25.3395668721451],[-99.8005471421266,25.36848378410339],[-99.78533231272351,25.429954955436102],[-99.69879797049344,25.37885022423938],[-99.70291865345678,25.423407730087057],[-99.66424762872393,25.39612762446603],[-99.67122109220034,25.47487619602539],[-99.62969728695441,25.471056981238448],[-99.63191611624237,25.49760961737625],[-99.54950245697563,25.488152514094295],[-99.53048392022177,25.453961448382607],[-99.49656752967739,25.468874572788767],[-99.4582134805571,25.46069054110246],[-99.46582089525864,25.48487890141977],[-99.42429709001271,25.47687673710427]]]}},{"type":"Feature","properties":{"cvegeo":"19017","cve_ent":"19","state_code":"NLE","nom_mun":"Galeana"},"geometry":{"type":"Polygon","coordinates":[[[-100.33211524439702,25.18625267855493],[-100.29788187824006,25.152607214955662],[-100.25350529248105,25.130419395717226],[-100.27220685362235,25.109868382816053],[-100.20057036518281,25.020571503749892],[-100.15968051116201,25.013478676288425],[-100.12988480358096,24.94400534064021],[-100.06617270545553,24.88999073151058],[-99.98978158282752,24.903994519062707],[-99.96822724117314,24.880169893487007],[-99.92828831399004,24.825973416986567],[-99.9837590461888,24.825427814874146],[-99.95840099718365,24.76286543931659],[-99.99643807069137,24.730311179942166],[-99.86679504515254,24.618644614266763],[-99.84175397175997,24.56481187250794],[-99.87947406965512,24.50916045704104],[-99.85506694748767,24.500976425354736],[-99.89405494783308,24.470240839688376],[-99.88866636241949,24.45405464368657],[-99.99929085120445,24.46423921645175],[-100.09153075446068,24.452417837349305],[-100.06680665668065,24.353663855001187],[-100.0734631445445,24.30983381863674],[-100.15365797452328,24.298558041646714],[-100.18694041384254,24.2636395064518],[-100.20088734079538,24.28964654047718],[-100.25730899983182,24.31783598295224],[-100.2734747560726,24.254546137911458],[-100.31563251254367,24.315835441873364],[-100.3482810006378,24.311470624974],[-100.40565358651195,24.371850592081874],[-100.43259651357991,24.43950525402202],[-100.4443246112448,24.42168225168295],[-100.49599163609278,24.409860872580502],[-100.50454997763202,24.45641891950706],[-100.55209631951668,24.438777784538793],[-100.60376334436467,24.401313106152582],[-100.71121807702397,24.49133745470197],[-100.74228168705528,24.460420001664808],[-100.799971248542,24.556264106080015],[-100.80567680956815,24.596093060286712],[-100.79711846802891,24.75086219284334],[-100.82628022438483,24.83506678552691],[-100.72738383326475,24.91854390872725],[-100.82184256580894,24.996565010803387],[-100.80472588273045,25.153152817068083],[-100.80314100466764,25.16533793091214],[-100.7093162233486,25.23626620552681],[-100.59203524669978,25.254998544719918],[-100.44400763563223,25.22317175482872],[-100.33211524439702,25.18625267855493]]]}},{"type":"Feature","properties":{"cvegeo":"19016","cve_ent":"19","state_code":"NLE","nom_mun":"Dr. González"},"geometry":{"type":"Polygon","coordinates":[[[-99.80276597141454,25.995562478645393],[-99.76599680035709,25.98410483428456],[-99.67819455567677,25.92990835778412],[-99.70799026325781,25.88789699512774],[-99.66678343362445,25.8469768366962],[-99.68294918986523,25.793689697049793],[-99.66202879943597,25.780777113722507],[-99.71749953163474,25.72585316773884],[-99.75838938565555,25.735674005762412],[-99.76663075158221,25.695117582072484],[-99.8281240204197,25.739311353178547],[-99.8823268501682,25.74767725223566],[-99.9010284113095,25.80332866770256],[-99.9694951436234,25.838065335526665],[-99.9828081193511,25.90171891530906],[-99.94445407023082,25.891534342543878],[-99.80276597141454,25.995562478645393]]]}},{"type":"Feature","properties":{"cvegeo":"19014","cve_ent":"19","state_code":"NLE","nom_mun":"Dr. Arroyo"},"geometry":{"type":"Polygon","coordinates":[[[-100.18694041384254,24.2636395064518],[-100.21641914581103,24.248908249416445],[-100.1660200234133,24.159611370350284],[-100.19423085293153,24.120146150885198],[-100.15397495013585,24.09468471897224],[-100.17077465760175,24.075406777666714],[-100.10135699845017,24.05431016265312],[-100.12037553520403,24.031031139189842],[-100.12100948642916,23.972106111048426],[-100.06331992494245,23.960284731945983],[-100.06236899810476,23.939188116932385],[-100.01799241234575,23.942097994865296],[-100.03067143684832,23.885173507802755],[-99.94223524094286,23.83806985876378],[-99.94508802145594,23.78787446442109],[-99.90831885039847,23.789875005499965],[-99.8832777770059,23.723493415155467],[-99.91592626510003,23.664932121755662],[-99.96125377769673,23.556902903496397],[-99.94794080196903,23.497250405871753],[-99.98344207057623,23.51234539764872],[-99.9793213876129,23.53671562533684],[-100.02021124163369,23.559812781429308],[-100.03732792471217,23.527076654684073],[-100.16189934044996,23.5729072321274],[-100.14351475492123,23.541989779090237],[-100.18947621874305,23.553993025563486],[-100.23290187766437,23.546900198102023],[-100.287738658638,23.55853970983366],[-100.29978373191545,23.48924824155625],[-100.32133807356982,23.49379492582642],[-100.32609270775829,23.43632483665146],[-100.35779026901473,23.387948116016837],[-100.32323992724521,23.377763543251653],[-100.33686987858547,23.359758673541776],[-100.34162451277395,23.29155840948921],[-100.33211524439702,23.259004150114784],[-100.37427300086807,23.265369508093023],[-100.36412978126602,23.188985212354147],[-100.32355690285777,23.195532437703193],[-100.33211524439702,23.162432576216347],[-100.479825879852,23.194259366107545],[-100.48362958720277,23.214082909525494],[-100.45700363574737,23.366305898890822],[-100.51754597774716,23.421047977503683],[-100.49440675802995,23.52834972627972],[-100.45953944064789,23.511617928165492],[-100.46999963586251,23.56654187414916],[-100.49187095312945,23.56836054785723],[-100.47729007495148,23.633832801347694],[-100.44559251369505,23.67729910297053],[-100.49028607506662,23.73967961115728],[-100.49789348976817,23.798604639298695],[-100.52864012418691,23.817518845862608],[-100.55019446584129,23.84207094092153],[-100.54005124623923,23.888447120477277],[-100.56287349034386,23.919728308256055],[-100.54131914868948,24.025756985436445],[-100.52420246561101,24.071405695508965],[-100.53878334378896,24.118509344547938],[-100.5172290021346,24.139787826932338],[-100.61358958835416,24.173797025273217],[-100.5936201247626,24.17816184217258],[-100.58506178322337,24.223992419615907],[-100.63324207633315,24.225992960694782],[-100.59995963701388,24.348571568618596],[-100.60376334436467,24.401313106152582],[-100.55209631951668,24.438777784538793],[-100.50454997763202,24.45641891950706],[-100.49599163609278,24.409860872580502],[-100.4443246112448,24.42168225168295],[-100.43259651357991,24.43950525402202],[-100.40565358651195,24.371850592081874],[-100.3482810006378,24.311470624974],[-100.31563251254367,24.315835441873364],[-100.2734747560726,24.254546137911458],[-100.25730899983182,24.31783598295224],[-100.20088734079538,24.28964654047718],[-100.18694041384254,24.2636395064518]]]}},{"type":"Feature","properties":{"cvegeo":"19011","cve_ent":"19","state_code":"NLE","nom_mun":"Cerralvo"},"geometry":{"type":"Polygon","coordinates":[[[-99.58944138415875,26.235263673368816],[-99.58912440854618,26.183977074801284],[-99.5542570911641,26.1843408095429],[-99.52509533480819,26.161971122933657],[-99.47628109047326,26.099226880005297],[-99.55806079851487,26.097044471555613],[-99.60655806723722,26.072856111238302],[-99.56091357902795,25.99392567230813],[-99.5222425542951,25.922815530322655],[-99.53872528614845,25.901537047938255],[-99.62779543327903,25.86370863481043],[-99.67819455567677,25.92990835778412],[-99.76599680035709,25.98410483428456],[-99.80276597141454,25.995562478645393],[-99.81671289836738,26.018477767367056],[-99.89056821609488,26.01411295046769],[-99.91909602122567,26.04939522040422],[-99.9286052896026,26.114140004411457],[-99.96791026556058,26.162880459787694],[-99.9704460704611,26.198890199207447],[-99.92797133837747,26.195980321274536],[-99.85411602064997,26.153059621764122],[-99.78026070292248,26.17615677785659],[-99.74127270257706,26.170337021990772],[-99.63667075043084,26.24726691984207],[-99.58944138415875,26.235263673368816]]]}},{"type":"Feature","properties":{"cvegeo":"19009","cve_ent":"19","state_code":"NLE","nom_mun":"Cadereyta Jiménez"},"geometry":{"type":"Polygon","coordinates":[[[-99.99009855844008,25.682386866116005],[-99.92797133837747,25.694571979960063],[-99.8557008987128,25.6849330093073],[-99.82051660571815,25.65910784265273],[-99.78216255659787,25.671292956496785],[-99.74032177573937,25.626007981165884],[-99.73525016593834,25.550351154910235],[-99.68802079966626,25.516341956569356],[-99.71623162918448,25.500701362679965],[-99.78533231272351,25.429954955436102],[-99.8005471421266,25.36848378410339],[-99.827173093582,25.3395668721451],[-99.93209202134081,25.42031598478334],[-99.94255221655543,25.373394203115176],[-100.01545660744523,25.34520476064011],[-100.05824831514141,25.36157282401273],[-100.07599894944502,25.39430895075796],[-100.03764490032474,25.447777957775173],[-100.09691933987426,25.50324750587126],[-100.13146968164378,25.470329511755224],[-100.16792187708869,25.516705691310968],[-100.17869904791587,25.530345744121483],[-100.13559036460711,25.536529234728913],[-100.08836099833503,25.512886476524024],[-100.07219524209425,25.525617192480503],[-100.11118324243967,25.564900544574783],[-100.08645914465964,25.60600257037713],[-100.04049768083782,25.63764749289752],[-100.05634646146603,25.66129025110241],[-100.00911709519394,25.65201501519126],[-99.99009855844008,25.682386866116005]]]}},{"type":"Feature","properties":{"cvegeo":"19007","cve_ent":"19","state_code":"NLE","nom_mun":"Aramberri"},"geometry":{"type":"Polygon","coordinates":[[[-99.59007533538387,24.39622081976999],[-99.59451299395977,24.330748566279524],[-99.64966675054598,24.206896886760063],[-99.65695718963495,24.117781875064708],[-99.57105679863001,24.03939703824696],[-99.67597572638881,24.03866956876373],[-99.74317455625246,24.02884873074016],[-99.76663075158221,23.984473092263293],[-99.78089465414762,24.010116391547058],[-99.88010802088026,23.989565378645885],[-99.87820616720487,24.017027351637715],[-99.91814509438797,24.00247796197317],[-99.97298187536161,24.005024105164466],[-100.01799241234575,23.942097994865296],[-100.06236899810476,23.939188116932385],[-100.06331992494245,23.960284731945983],[-100.12100948642916,23.972106111048426],[-100.12037553520403,24.031031139189842],[-100.10135699845017,24.05431016265312],[-100.17077465760175,24.075406777666714],[-100.15397495013585,24.09468471897224],[-100.19423085293153,24.120146150885198],[-100.1660200234133,24.159611370350284],[-100.21641914581103,24.248908249416445],[-100.18694041384254,24.2636395064518],[-100.15365797452328,24.298558041646714],[-100.0734631445445,24.30983381863674],[-100.06680665668065,24.353663855001187],[-100.09153075446068,24.452417837349305],[-99.99929085120445,24.46423921645175],[-99.88866636241949,24.45405464368657],[-99.89405494783308,24.470240839688376],[-99.85506694748767,24.500976425354736],[-99.8084715324407,24.44641621411268],[-99.79230577619992,24.40676912727679],[-99.74412548309014,24.39167413549982],[-99.74317455625246,24.419317975862462],[-99.71052606815833,24.442051397213316],[-99.72003533653526,24.483517157757277],[-99.63667075043084,24.506614313849745],[-99.61765221367698,24.464057349080946],[-99.59007533538387,24.39622081976999]]]}},{"type":"Feature","properties":{"cvegeo":"19005","cve_ent":"19","state_code":"NLE","nom_mun":"Anáhuac"},"geometry":{"type":"Polygon","coordinates":[[[-99.84333884982279,27.76986054823698],[-99.81354314224174,27.774225365136346],[-99.79357367865019,27.73294147196319],[-99.77328723944606,27.733305206704806],[-99.72827670246193,27.679108730204366],[-99.92638646031465,27.54907356007747],[-99.91941299683823,27.491603470902508],[-99.76029123933093,27.437043259660452],[-99.74919709289118,27.28900321982368],[-99.67914548251446,27.10222543000505],[-99.6503007017711,27.06585195584368],[-99.73429923910065,26.920539926569013],[-99.77043445893298,26.928360223513707],[-99.76663075158221,26.889804340902653],[-99.84936138646151,26.8883494019362],[-99.9685442167857,26.846338039279818],[-100.0024606073301,26.913992701219964],[-100.019260314796,26.956185931247152],[-99.99992480242958,26.985648445317864],[-99.96030285085904,27.006926927702263],[-100.01196987570702,27.02438619529972],[-100.09121377884811,27.008745601410332],[-100.12132646204172,27.028932879569894],[-100.10135699845017,27.064942618989647],[-100.12132646204172,27.137143965199964],[-100.17204256005202,27.137143965199964],[-100.18186880404151,27.218256812579817],[-100.25287134125593,27.218256812579817],[-100.25287134125593,27.245536918200845],[-100.28330100006211,27.24517318345923],[-100.39994802548578,27.340653553132825],[-100.38600109853296,27.37102540405757],[-100.42181934275273,27.392667621183584],[-100.41801563540196,27.393576958037617],[-100.35081680553832,27.684564751328573],[-100.28615378057518,27.730940930884316],[-100.18852529190536,27.799141194936883],[-99.99929085120445,27.615091415680354],[-99.93272597256593,27.67438017856339],[-99.84333884982279,27.76986054823698]]]}},{"type":"Feature","properties":{"cvegeo":"19004","cve_ent":"19","state_code":"NLE","nom_mun":"Allende"},"geometry":{"type":"Polygon","coordinates":[[[-100.05824831514141,25.36157282401273],[-100.01545660744523,25.34520476064011],[-99.94255221655543,25.373394203115176],[-99.93082411889054,25.308649419107937],[-99.97012909484853,25.26645618908075],[-100.03225631491114,25.250633727820553],[-100.06965943719374,25.22480856116598],[-100.08709309588477,25.23826674660569],[-100.14002802318302,25.300101652680013],[-100.07631592505759,25.33611139209977],[-100.05824831514141,25.36157282401273]]]}},{"type":"Feature","properties":{"cvegeo":"19002","cve_ent":"19","state_code":"NLE","nom_mun":"Agualeguas"},"geometry":{"type":"Polygon","coordinates":[[[-99.41605572408605,26.438227659189256],[-99.43127055348913,26.351113188572775],[-99.41003318744733,26.31692212286109],[-99.46518694403352,26.313102908074146],[-99.462651139133,26.266181126405982],[-99.49656752967739,26.272364617013412],[-99.54506479839974,26.235991142852043],[-99.58944138415875,26.235263673368816],[-99.63667075043084,26.24726691984207],[-99.74127270257706,26.170337021990772],[-99.78026070292248,26.17615677785659],[-99.85411602064997,26.153059621764122],[-99.92797133837747,26.195980321274536],[-99.91941299683823,26.24526637876319],[-99.95554821667056,26.238719153414145],[-99.92163182612619,26.35365933176407],[-99.9286052896026,26.387122927992532],[-99.81417709346687,26.366753782462165],[-99.77518909312145,26.407855808264515],[-99.7675816784199,26.385304254284463],[-99.72700880001167,26.413493696759524],[-99.72162021459808,26.36311643504603],[-99.64364421390725,26.35093132120197],[-99.65347045789674,26.388577866958986],[-99.59926762814824,26.38839599958818],[-99.57834723771899,26.413311829388718],[-99.47564713924814,26.388577866958986],[-99.46518694403352,26.441319404492972],[-99.41605572408605,26.438227659189256]]]}}]}