{"type":"FeatureCollection","features":[{"type":"Feature","properties":{"cvegeo":"22003","cve_ent":"22","state_code":"QUE","nom_mun":"Arroyo Seco"},"geometry":{"type":"Polygon","coordinates":[[[-99.7054544583573,21.570547479544025],[-99.66107787259828,21.56854693846515],[-99.62589357960364,21.507257634503244],[-99.55013640820077,21.447241402136985],[-99.55298918871384,21.428872797685493],[-99.50607679805432,21.41868822492031],[-99.47184343189737,21.43596562514696],[-99.43761006574042,21.38686143502911],[-99.42017640704938,21.387952639253953],[-99.41161806551014,21.346850613451608],[-99.49593357845227,21.326845202662852],[-99.49656752967739,21.29174480009713],[-99.53682343247306,21.28665251371454],[-99.5754944572059,21.28665251371454],[-99.60085250621106,21.330664417449796],[-99.59926762814824,21.35812639044163],[-99.64110840900673,21.337939112282072],[-99.63255006746749,21.317933701493317],[-99.67375689710086,21.296837086479723],[-99.73715201961373,21.312841415110725],[-99.75775543443041,21.292108534838746],[-99.79452460548788,21.357398920958403],[-99.77899280047222,21.394863599344614],[-99.77772489802197,21.495072520659185],[-99.74951406850374,21.523261963134246],[-99.74666128799066,21.578185909117913],[-99.7054544583573,21.570547479544025]]]}},{"type":"Feature","properties":{"cvegeo":"22009","cve_ent":"22","state_code":"QUE","nom_mun":"Jalpan de Serra"},"geometry":{"type":"Polygon","coordinates":[[[-99.18846723426485,21.669847064004564],[-99.17230147802407,21.627108231864955],[-99.13077767277814,21.596554513569405],[-99.14218879483045,21.53453774012427],[-99.12919279471531,21.48670662160207],[-99.12253630685146,21.45324302537361],[-99.15898850229635,21.43014586928114],[-99.19702557580408,21.454152362227646],[-99.2252364053223,21.449423810586666],[-99.21857991745846,21.40086522258124],[-99.26676021056824,21.310659006661044],[-99.27183182036927,21.283924503152438],[-99.3044803084634,21.257917469127058],[-99.32064606470418,21.21335996327938],[-99.34822294299727,21.23300163932652],[-99.3364948453324,21.19099027667014],[-99.36946030903908,21.196446297794346],[-99.3364948453324,21.130064707449847],[-99.34632108932189,21.10096592812075],[-99.3897467482432,21.102420867087204],[-99.43031962665144,21.102966469199625],[-99.45314187075607,21.106058214503342],[-99.51051445663022,21.161709629970236],[-99.52002372500715,21.25391638696931],[-99.53682343247306,21.28665251371454],[-99.49656752967739,21.29174480009713],[-99.49593357845227,21.326845202662852],[-99.41161806551014,21.346850613451608],[-99.42017640704938,21.387952639253953],[-99.43761006574042,21.38686143502911],[-99.47184343189737,21.43596562514696],[-99.43380635838965,21.44869634110344],[-99.41573874847349,21.428872797685493],[-99.3719961139396,21.507075767132438],[-99.37579982129037,21.547995925563978],[-99.30543123530109,21.53290093378701],[-99.27436762526978,21.56800133635273],[-99.27943923507081,21.608012157930236],[-99.23411172247411,21.62874503820222],[-99.2182629418459,21.66602784921762],[-99.18846723426485,21.669847064004564]]]}},{"type":"Feature","properties":{"cvegeo":"22010","cve_ent":"22","state_code":"QUE","nom_mun":"Landa de Matamoros"},"geometry":{"type":"Polygon","coordinates":[[[-99.05502050137525,21.282287696815175],[-99.07372206251655,21.23882139519234],[-99.05248469647474,21.219543453886814],[-99.05406957453756,21.163528303678305],[-99.05502050137525,21.159527221520555],[-99.17578820976227,21.13843060650696],[-99.1808598195633,21.126609227404515],[-99.24362099085104,21.103693938682852],[-99.30860099142673,21.147160240305688],[-99.3364948453324,21.130064707449847],[-99.36946030903908,21.196446297794346],[-99.3364948453324,21.19099027667014],[-99.34822294299727,21.23300163932652],[-99.32064606470418,21.21335996327938],[-99.3044803084634,21.257917469127058],[-99.27183182036927,21.283924503152438],[-99.26676021056824,21.310659006661044],[-99.21857991745846,21.40086522258124],[-99.2252364053223,21.449423810586666],[-99.19702557580408,21.454152362227646],[-99.15898850229635,21.43014586928114],[-99.12253630685146,21.45324302537361],[-99.09844616029656,21.40832178478432],[-99.09305757488298,21.36340054419503],[-99.12950977032787,21.362127472599383],[-99.13806811186711,21.329755080595763],[-99.10478567254785,21.30047443389586],[-99.05502050137525,21.282287696815175]]]}},{"type":"Feature","properties":{"cvegeo":"22002","cve_ent":"22","state_code":"QUE","nom_mun":"Pinal de Amoles"},"geometry":{"type":"Polygon","coordinates":[[[-99.53682343247306,21.28665251371454],[-99.52002372500715,21.25391638696931],[-99.51051445663022,21.161709629970236],[-99.45314187075607,21.106058214503342],[-99.43031962665144,21.102966469199625],[-99.4395119194158,21.068957270858746],[-99.50322401754124,21.034402470405446],[-99.51590304204382,20.99948393521053],[-99.56186450586564,20.9747499727808],[-99.64998372615854,20.984934545545983],[-99.66710040923701,21.002575680514248],[-99.69372636069241,21.02203548919058],[-99.68548499476574,21.069139138229552],[-99.68802079966626,21.116970256751753],[-99.71623162918448,21.182624377613024],[-99.68611894599087,21.198083104131605],[-99.69372636069241,21.23591151725943],[-99.69879797049344,21.26755643977982],[-99.67375689710086,21.296837086479723],[-99.63255006746749,21.317933701493317],[-99.64110840900673,21.337939112282072],[-99.59926762814824,21.35812639044163],[-99.60085250621106,21.330664417449796],[-99.5754944572059,21.28665251371454],[-99.53682343247306,21.28665251371454]]]}},{"type":"Feature","properties":{"cvegeo":"22004","cve_ent":"22","state_code":"QUE","nom_mun":"Cadereyta de Montes"},"geometry":{"type":"Polygon","coordinates":[[[-99.38435816282961,21.009668507975714],[-99.40432762642116,20.928919395337473],[-99.45599465126915,20.849443354294884],[-99.48262060272455,20.8392587815297],[-99.4902280174261,20.796701816760898],[-99.54855153013794,20.73723118650706],[-99.53048392022177,20.70485879450344],[-99.50227309070355,20.659028217060115],[-99.57359260353053,20.634839856742804],[-99.62430870154083,20.593374096198843],[-99.63445192114288,20.6055592100429],[-99.73525016593834,20.564820918982168],[-99.76124216616861,20.573004950668476],[-99.74888011727862,20.601739995255958],[-99.7872341663989,20.66048315602657],[-99.8290749472574,20.669940259308525],[-99.84650860594843,20.652662859081875],[-99.86742899637768,20.72577354214623],[-99.84365582543535,20.760510209970334],[-99.8744024598541,20.764147557386472],[-99.85887065483844,20.788335917703783],[-99.79927923967634,20.81088747168383],[-99.82273543500611,20.84144118997938],[-99.80656967876533,20.864902080813465],[-99.84365582543535,20.872176775645737],[-99.88169289894307,20.905094769761778],[-99.87408548424153,20.92382710895488],[-99.79072089813711,20.917461750976642],[-99.78913602007428,20.954562694621238],[-99.72257114143576,20.94419625448525],[-99.6921414826296,20.990026831928574],[-99.66710040923701,21.002575680514248],[-99.64998372615854,20.984934545545983],[-99.68580197037831,20.96838461480256],[-99.64871582370827,20.907095310840653],[-99.58532070119541,20.90327609605371],[-99.55869474974,20.8818157462985],[-99.50734470050458,20.935102885944907],[-99.47501318802301,20.93328421223684],[-99.46106626107019,21.01858000914525],[-99.38435816282961,21.009668507975714]]]}},{"type":"Feature","properties":{"cvegeo":"22015","cve_ent":"22","state_code":"QUE","nom_mun":"San Joaquín"},"geometry":{"type":"Polygon","coordinates":[[[-99.38435816282961,21.009668507975714],[-99.46106626107019,21.01858000914525],[-99.47501318802301,20.93328421223684],[-99.50734470050458,20.935102885944907],[-99.55869474974,20.8818157462985],[-99.58532070119541,20.90327609605371],[-99.64871582370827,20.907095310840653],[-99.68580197037831,20.96838461480256],[-99.64998372615854,20.984934545545983],[-99.56186450586564,20.9747499727808],[-99.51590304204382,20.99948393521053],[-99.50322401754124,21.034402470405446],[-99.4395119194158,21.068957270858746],[-99.43031962665144,21.102966469199625],[-99.3897467482432,21.102420867087204],[-99.398622065395,21.088417079535077],[-99.36375474801292,21.04858812532838],[-99.38435816282961,21.009668507975714]]]}},{"type":"Feature","properties":{"cvegeo":"22013","cve_ent":"22","state_code":"QUE","nom_mun":"Peñamiller"},"geometry":{"type":"Polygon","coordinates":[[[-99.68548499476574,21.069139138229552],[-99.69372636069241,21.02203548919058],[-99.66710040923701,21.002575680514248],[-99.6921414826296,20.990026831928574],[-99.72257114143576,20.94419625448525],[-99.78913602007428,20.954562694621238],[-99.81798080081764,21.02367229552784],[-99.83382958144585,21.00075700680618],[-99.88010802088026,21.04458704317063],[-99.93969943604235,21.071139679308427],[-99.97678558271238,21.0438595736874],[-100.01165290009446,21.040767828383686],[-100.01513963183267,21.05095240114887],[-100.02655075388498,21.073503955128917],[-99.99643807069137,21.18244251024222],[-100.0113359244819,21.189535337703685],[-99.98661182670187,21.218270382291166],[-99.94794080196903,21.212450626425348],[-99.90419816743514,21.18517052080432],[-99.88834938680692,21.169529926914933],[-99.82939192286996,21.157890415183292],[-99.73873689767655,21.235547782517816],[-99.69372636069241,21.23591151725943],[-99.68611894599087,21.198083104131605],[-99.71623162918448,21.182624377613024],[-99.68802079966626,21.116970256751753],[-99.68548499476574,21.069139138229552]]]}},{"type":"Feature","properties":{"cvegeo":"22018","cve_ent":"22","state_code":"QUE","nom_mun":"Tolimán"},"geometry":{"type":"Polygon","coordinates":[[[-99.78913602007428,20.954562694621238],[-99.79072089813711,20.917461750976642],[-99.87408548424153,20.92382710895488],[-99.88169289894307,20.905094769761778],[-99.84365582543535,20.872176775645737],[-99.80656967876533,20.864902080813465],[-99.82273543500611,20.84144118997938],[-99.79927923967634,20.81088747168383],[-99.85887065483844,20.788335917703783],[-99.8744024598541,20.764147557386472],[-99.96664236311032,20.757418464666618],[-99.94794080196903,20.814161084358354],[-100.0157735830578,20.82780113716887],[-100.0611010956545,20.89163658432207],[-100.0813875348586,20.888544839018355],[-100.09248168129837,20.931829273270385],[-100.06078412004193,21.00584929318877],[-100.0611010956545,21.028400847168818],[-100.02243007092164,21.01439705961669],[-100.01165290009446,21.040767828383686],[-99.97678558271238,21.0438595736874],[-99.93969943604235,21.071139679308427],[-99.88010802088026,21.04458704317063],[-99.83382958144585,21.00075700680618],[-99.81798080081764,21.02367229552784],[-99.78913602007428,20.954562694621238]]]}},{"type":"Feature","properties":{"cvegeo":"22005","cve_ent":"22","state_code":"QUE","nom_mun":"Colón"},"geometry":{"type":"Polygon","coordinates":[[[-100.09248168129837,20.931829273270385],[-100.0813875348586,20.888544839018355],[-100.0611010956545,20.89163658432207],[-100.0157735830578,20.82780113716887],[-99.94794080196903,20.814161084358354],[-99.96664236311032,20.757418464666618],[-99.9685442167857,20.725409807404613],[-99.9419182653303,20.716862040976693],[-99.95332938738261,20.659573819172536],[-99.99200041211547,20.635931060967646],[-100.01323777815728,20.650480450632195],[-100.07980265679579,20.64193268420427],[-100.06331992494245,20.621199803932292],[-100.07568197383246,20.57736976756784],[-100.19042714558076,20.56172917367845],[-100.19581573099434,20.574278022264124],[-100.18440460894203,20.611742700650336],[-100.19740060905717,20.64320575579992],[-100.16253329167509,20.729956491674784],[-100.18250275526664,20.733411971720116],[-100.22751329225078,20.865629550296692],[-100.27157290239722,20.85544497753151],[-100.24272812165387,20.905822239245005],[-100.1882083162928,20.93255674275361],[-100.09248168129837,20.931829273270385]]]}},{"type":"Feature","properties":{"cvegeo":"22007","cve_ent":"22","state_code":"QUE","nom_mun":"Ezequiel Montes"},"geometry":{"type":"Polygon","coordinates":[[[-99.8744024598541,20.764147557386472],[-99.84365582543535,20.760510209970334],[-99.86742899637768,20.72577354214623],[-99.84650860594843,20.652662859081875],[-99.8290749472574,20.669940259308525],[-99.7872341663989,20.66048315602657],[-99.74888011727862,20.601739995255958],[-99.76124216616861,20.573004950668476],[-99.73525016593834,20.564820918982168],[-99.8281240204197,20.542451232372926],[-99.8610894841264,20.538632017585982],[-99.86933085005306,20.568458266398306],[-99.84524070349818,20.573732420151703],[-99.88296080139334,20.59646584150256],[-99.89722470395873,20.58318952343366],[-99.91909602122567,20.63229371355151],[-99.99200041211547,20.635931060967646],[-99.95332938738261,20.659573819172536],[-99.9419182653303,20.716862040976693],[-99.9685442167857,20.725409807404613],[-99.96664236311032,20.757418464666618],[-99.8744024598541,20.764147557386472]]]}},{"type":"Feature","properties":{"cvegeo":"22011","cve_ent":"22","state_code":"QUE","nom_mun":"El Marqués"},"geometry":{"type":"Polygon","coordinates":[[[-100.24589787777951,20.963292328419968],[-100.1882083162928,20.93255674275361],[-100.24272812165387,20.905822239245005],[-100.27157290239722,20.85544497753151],[-100.22751329225078,20.865629550296692],[-100.18250275526664,20.733411971720116],[-100.16253329167509,20.729956491674784],[-100.19740060905717,20.64320575579992],[-100.18440460894203,20.611742700650336],[-100.19581573099434,20.574278022264124],[-100.17711416985304,20.525173832146276],[-100.23258490205181,20.532266659607743],[-100.30073465875314,20.519535943651263],[-100.32228900040752,20.500985471828965],[-100.34511124451215,20.552999539879725],[-100.33908870787343,20.591009820378353],[-100.3428924152242,20.667030381375618],[-100.38758597659577,20.69612916070471],[-100.38283134240731,20.772695323814393],[-100.40723846457476,20.804885848447206],[-100.3482810006378,20.8472609458452],[-100.3340170980724,20.89054538009723],[-100.2655503657585,20.92928313007909],[-100.26364851208311,20.970930757993855],[-100.24589787777951,20.963292328419968]]]}},{"type":"Feature","properties":{"cvegeo":"22014","cve_ent":"22","state_code":"QUE","nom_mun":"Querétaro"},"geometry":{"type":"Polygon","coordinates":[[[-100.47253544076302,20.928191925854247],[-100.45383387962173,20.900184350749992],[-100.41421192805117,20.887999236905934],[-100.3340170980724,20.89054538009723],[-100.3482810006378,20.8472609458452],[-100.40723846457476,20.804885848447206],[-100.38283134240731,20.772695323814393],[-100.38758597659577,20.69612916070471],[-100.3428924152242,20.667030381375618],[-100.33908870787343,20.591009820378353],[-100.34511124451215,20.552999539879725],[-100.38283134240731,20.523355158438207],[-100.4123100743758,20.562274775790872],[-100.43323046480504,20.589736748782705],[-100.48901817261637,20.594465300423686],[-100.5295910510246,20.638659071529748],[-100.55114539267898,20.633566785147156],[-100.56223953911874,20.671213330904173],[-100.58220900271029,20.676851219399186],[-100.59647290527568,20.717225775718305],[-100.5492435390036,20.736321849653024],[-100.56414139279411,20.77451399752246],[-100.55970373421822,20.82998354561855],[-100.5020141727315,20.852898834340213],[-100.50771973375767,20.869448765083636],[-100.46999963586251,20.907095310840653],[-100.47253544076302,20.928191925854247]]]}},{"type":"Feature","properties":{"cvegeo":"22017","cve_ent":"22","state_code":"QUE","nom_mun":"Tequisquiapan"},"geometry":{"type":"Polygon","coordinates":[[[-99.99200041211547,20.635931060967646],[-99.91909602122567,20.63229371355151],[-99.89722470395873,20.58318952343366],[-99.88296080139334,20.59646584150256],[-99.84524070349818,20.573732420151703],[-99.86933085005306,20.568458266398306],[-99.8610894841264,20.538632017585982],[-99.8281240204197,20.542451232372926],[-99.83541445950868,20.480980061040214],[-99.83573143512125,20.477888315736497],[-99.85855367922588,20.458792241801778],[-99.9118055821367,20.464248262925985],[-99.93906548481722,20.431330268809944],[-99.9704460704611,20.49098276643459],[-99.99833992436676,20.495165715963147],[-100.00689826590599,20.5364496091363],[-100.03447514419909,20.54627044715987],[-100.06680665668065,20.526265036371118],[-100.08519124220939,20.538632017585982],[-100.07568197383246,20.57736976756784],[-100.06331992494245,20.621199803932292],[-100.07980265679579,20.64193268420427],[-100.01323777815728,20.650480450632195],[-99.99200041211547,20.635931060967646]]]}},{"type":"Feature","properties":{"cvegeo":"22016","cve_ent":"22","state_code":"QUE","nom_mun":"San Juan del Río"},"geometry":{"type":"Polygon","coordinates":[[[-99.83573143512125,20.477888315736497],[-99.859187630451,20.26837710456701],[-99.91339046019951,20.285836372164468],[-99.93431085062876,20.250190367486326],[-99.92258275296388,20.231094293551607],[-99.91941299683823,20.21709050599948],[-99.95111055809467,20.21581743440383],[-99.95808402157108,20.25164530645278],[-99.97773650955007,20.2389145904963],[-100.02147914408395,20.207451535346717],[-100.06902548596861,20.227093211393857],[-100.05729738830372,20.24364314213728],[-100.09533446181145,20.261102409734736],[-100.07631592505759,20.286018239535274],[-100.0877270471099,20.317117559943245],[-100.14890334033483,20.321664244213416],[-100.18345368210433,20.359310789970433],[-100.1961327066069,20.3664036174319],[-100.13432246215686,20.437695626788184],[-100.09248168129837,20.4460615258453],[-100.09311563252349,20.472796029353905],[-100.06712363229322,20.482616867377473],[-100.06680665668065,20.526265036371118],[-100.03447514419909,20.54627044715987],[-100.00689826590599,20.5364496091363],[-99.99833992436676,20.495165715963147],[-99.9704460704611,20.49098276643459],[-99.93906548481722,20.431330268809944],[-99.9118055821367,20.464248262925985],[-99.85855367922588,20.458792241801778],[-99.83573143512125,20.477888315736497]]]}},{"type":"Feature","properties":{"cvegeo":"22008","cve_ent":"22","state_code":"QUE","nom_mun":"Huimilpan"},"geometry":{"type":"Polygon","coordinates":[[[-100.23258490205181,20.532266659607743],[-100.21990587754924,20.519535943651263],[-100.25287134125593,20.477888315736497],[-100.24748275584233,20.458792241801778],[-100.29598002456468,20.45060821011547],[-100.25287134125593,20.3584014531164],[-100.1961327066069,20.3664036174319],[-100.18345368210433,20.359310789970433],[-100.19518177976921,20.329302673787303],[-100.24811670706747,20.32184611158422],[-100.25889387789465,20.290019321693023],[-100.307391146617,20.285290770052047],[-100.35081680553832,20.288382515355764],[-100.38663504975808,20.30693298717806],[-100.40343475722399,20.36058386156608],[-100.4015329035486,20.407141908492633],[-100.36793348861679,20.48625421479361],[-100.38283134240731,20.523355158438207],[-100.34511124451215,20.552999539879725],[-100.32228900040752,20.500985471828965],[-100.30073465875314,20.519535943651263],[-100.23258490205181,20.532266659607743]]]}},{"type":"Feature","properties":{"cvegeo":"22012","cve_ent":"22","state_code":"QUE","nom_mun":"Pedro Escobedo"},"geometry":{"type":"Polygon","coordinates":[[[-100.07568197383246,20.57736976756784],[-100.08519124220939,20.538632017585982],[-100.06680665668065,20.526265036371118],[-100.06712363229322,20.482616867377473],[-100.09311563252349,20.472796029353905],[-100.09248168129837,20.4460615258453],[-100.13432246215686,20.437695626788184],[-100.1961327066069,20.3664036174319],[-100.25287134125593,20.3584014531164],[-100.29598002456468,20.45060821011547],[-100.24748275584233,20.458792241801778],[-100.25287134125593,20.477888315736497],[-100.21990587754924,20.519535943651263],[-100.23258490205181,20.532266659607743],[-100.17711416985304,20.525173832146276],[-100.19581573099434,20.574278022264124],[-100.19042714558076,20.56172917367845],[-100.07568197383246,20.57736976756784]]]}},{"type":"Feature","properties":{"cvegeo":"22006","cve_ent":"22","state_code":"QUE","nom_mun":"Corregidora"},"geometry":{"type":"Polygon","coordinates":[[[-100.4123100743758,20.562274775790872],[-100.38283134240731,20.523355158438207],[-100.36793348861679,20.48625421479361],[-100.4015329035486,20.407141908492633],[-100.40343475722399,20.36058386156608],[-100.40945729386272,20.375315118601435],[-100.46999963586251,20.386772762962266],[-100.4887011970038,20.42569238031493],[-100.4887011970038,20.473341631466326],[-100.50803670937023,20.518262872055615],[-100.50518392885715,20.5550000809586],[-100.4852144652656,20.55372700936295],[-100.48901817261637,20.594465300423686],[-100.43323046480504,20.589736748782705],[-100.4123100743758,20.562274775790872]]]}},{"type":"Feature","properties":{"cvegeo":"22001","cve_ent":"22","state_code":"QUE","nom_mun":"Amealco de Bonfil"},"geometry":{"type":"Polygon","coordinates":[[[-99.97773650955007,20.2389145904963],[-99.96600841188518,20.2016317794809],[-99.93240899695337,20.17380607174745],[-99.9419182653303,20.118882125763783],[-99.92638646031465,20.06414004715092],[-99.98027231445059,20.05904776076833],[-100.00024177804214,20.077416365219822],[-100.04398441257602,20.036496206788282],[-100.07694987628271,20.029403379326816],[-100.13780919389507,20.044316503732976],[-100.2015212920205,20.07577955888256],[-100.19771758466973,20.129794168012193],[-100.23607163379002,20.1432523534519],[-100.19201202364357,20.175988480197134],[-100.18155182842895,20.205087259526227],[-100.26079573157004,20.267467767712976],[-100.307391146617,20.285290770052047],[-100.25889387789465,20.290019321693023],[-100.24811670706747,20.32184611158422],[-100.19518177976921,20.329302673787303],[-100.18345368210433,20.359310789970433],[-100.14890334033483,20.321664244213416],[-100.0877270471099,20.317117559943245],[-100.07631592505759,20.286018239535274],[-100.09533446181145,20.261102409734736],[-100.05729738830372,20.24364314213728],[-100.06902548596861,20.227093211393857],[-100.02147914408395,20.207451535346717],[-99.97773650955007,20.2389145904963]]]}}]}