{"type":"FeatureCollection","features":[{"type":"Feature","properties":{"cvegeo":"23004","cve_ent":"23","state_code":"ROO","nom_mun":"Othón P. Blanco"},"geometry":{"type":"MultiPolygon","coordinates":[[[[-87.36210712948898,18.384958612491314],[-87.3823935686931,18.37422843761371],[-87.322802153531,18.456432489218404],[-87.36210712948898,18.384958612491314]]],[[[-87.27367093358353,18.739418118193857],[-87.24577707967786,18.68503977432261],[-87.24767893335326,18.645028952745104],[-87.27367093358353,18.739418118193857]]],[[[-88.71749484881414,19.231005621484762],[-88.71749484881414,19.218274905528283],[-88.59862899410251,19.218274905528283],[-88.5897536769507,19.1895398609408],[-88.55552031079375,19.20172497478486],[-88.47374060275216,19.193904677840166],[-88.3853044068467,19.19808762736872],[-88.42365845596699,19.096969369200117],[-88.38784021174722,19.094059491267206],[-88.24234840558017,19.05186626124002],[-88.2084320150358,19.15662186682476],[-88.01697874504693,19.116429177876448],[-87.56402059469248,19.067143120387794],[-87.63217035139381,18.92310416270877],[-87.64421542467126,18.856176970251852],[-87.66260001019998,18.827805660405986],[-87.67369415663974,18.752330701521142],[-87.71331610821028,18.706681991448626],[-87.72536118148773,18.668489843579188],[-87.74025903527826,18.54554750091376],[-87.76276430377033,18.494442769717036],[-87.76403220622058,18.417876606607354],[-87.81950293841933,18.33203520758652],[-87.83281591414705,18.295479866054347],[-87.84422703619936,18.19090612784041],[-87.86736625591655,18.1879962499075],[-87.9025505489112,18.14252940720579],[-87.9256897686284,18.159988674803245],[-88.03029172077463,18.16035240954486],[-88.03029172077463,18.414784861303637],[-88.24963884466916,18.415512330786864],[-88.24995582028173,18.472982419961827],[-88.32698089413486,18.49007795281767],[-88.38752323613465,18.481893921131363],[-88.40083621186236,18.49589770868349],[-88.44299396833341,18.48098458427733],[-88.47786128571549,18.49407903497542],[-88.5187511397363,18.462070377713417],[-88.54474313996657,18.35931531320755],[-88.60591943319149,18.291296916525788],[-88.60465153074124,18.241465256924712],[-88.69784236083515,18.18217649404168],[-88.69055192174616,18.154896388420653],[-88.71876275126439,18.108702076235716],[-88.71686089758902,18.060325355601094],[-88.77074675172494,18.029044167822317],[-88.78437670306522,17.97993997770447],[-88.8832730941853,17.89628098713332],[-88.93335524097046,17.93083578758662],[-88.94571728986047,17.959388964803296],[-88.98565621704358,17.955751617387158],[-89.02876490035233,17.99721737793112],[-89.07631124223698,17.99376189788579],[-89.1340008037237,17.971028476534933],[-89.15238538925243,17.940292890868577],[-89.15238538925243,17.953569208937477],[-89.20627124338837,17.95393294367909],[-89.2069051946135,18.020860136136008],[-89.16284558446705,18.018313992944712],[-89.16347953569218,18.057779212409798],[-89.14446099893831,18.08251317483953],[-89.20278451165015,18.083240644322757],[-89.20056568236221,18.144529948284664],[-89.14319309648806,18.14580301988031],[-89.1428761208755,18.224187856698062],[-89.15840792589115,18.221096111394345],[-89.15206841363987,18.293479324975472],[-89.13241592566087,18.293479324975472],[-89.13812148668703,18.385504214603735],[-89.12132177922112,18.38568608197454],[-89.12544246218445,18.450612733352585],[-89.15016655996448,18.45079460072339],[-89.15238538925243,18.735598903406913],[-89.14446099893831,18.75596804893728],[-89.14889865751422,18.877273585265446],[-89.14699680383883,18.995123641548282],[-89.13621963301165,19.132251639136644],[-89.14699680383883,19.13297910861987],[-89.14699680383883,19.281564750569064],[-89.02876490035233,19.271743912545496],[-89.01291611972411,19.247919286969797],[-88.9650528022269,19.25228410386916],[-88.92479689943123,19.2904762517386],[-88.92543085065635,19.244645674295274],[-88.81670821554678,19.245191276407695],[-88.81702519115935,19.22991441725992],[-88.71749484881414,19.231005621484762]]]]}},{"type":"Feature","properties":{"cvegeo":"23005","cve_ent":"23","state_code":"ROO","nom_mun":"Benito Juárez"},"geometry":{"type":"Polygon","coordinates":[[[-86.91517151577325,20.81034186957141],[-87.0799988343067,20.811433073796252],[-87.1227905420029,20.7781513449386],[-87.0952136637098,20.769603578510676],[-87.13768839579342,20.72850155270833],[-87.19696283534296,20.765784363723732],[-87.16780107898704,20.766329965836153],[-87.16780107898704,20.87090370405009],[-87.32343610475613,20.87199490827493],[-87.32058332424306,21.101147795491556],[-87.21281161597118,21.099510989154297],[-87.19284215237963,21.139885545473415],[-87.19315912799219,21.18917160296207],[-87.1538541520342,21.185897990287547],[-87.1548050788719,21.231728567730872],[-87.10091922473596,21.229909894022803],[-87.10187015157365,21.212086891683732],[-86.80201122208778,21.211905024312927],[-86.80296214892547,21.15970908889136],[-86.74083492886285,21.13733940228212],[-86.77982292920828,21.060227637060017],[-86.82102975884163,21.0040306194807],[-86.84638780784678,20.904731035020163],[-86.87364771052732,20.84907961955327],[-86.91517151577325,20.81034186957141]]]}},{"type":"Feature","properties":{"cvegeo":"23006","cve_ent":"23","state_code":"ROO","nom_mun":"José María Morelos"},"geometry":{"type":"Polygon","coordinates":[[[-88.50258538349551,20.18999226774926],[-88.44711465129674,20.18199010343376],[-88.4227075291293,20.153982528329504],[-88.43697143169469,20.05231866804848],[-88.49719679808192,20.058684026026718],[-88.47532548081497,20.037405543642315],[-88.48420079796678,20.009761703279676],[-88.44077513904546,20.02267428660696],[-88.39132694348542,20.016127061257915],[-88.39386274838594,19.95756576785811],[-88.46835201733856,19.956838298374883],[-88.46835201733856,19.891184177513612],[-88.48388382235422,19.891729779626033],[-88.52857738372579,19.745144678755715],[-88.5488638229299,19.749145760913464],[-88.57612372561044,19.638024797350482],[-88.63349631148459,19.643117083733074],[-88.65314879946358,19.628567694068526],[-88.61859845769406,19.596195302064906],[-88.62303611626996,19.448700864340555],[-88.69277075103412,19.461977182409456],[-88.69942723889797,19.403597756380456],[-88.6689975800918,19.394504387840115],[-88.67565406795565,19.3383073702608],[-88.63634909199767,19.28192848531068],[-88.71400811707593,19.280837281085837],[-88.71749484881414,19.231005621484762],[-88.81702519115935,19.22991441725992],[-88.81670821554678,19.245191276407695],[-88.92543085065635,19.244645674295274],[-88.92479689943123,19.2904762517386],[-88.9650528022269,19.25228410386916],[-89.01291611972411,19.247919286969797],[-89.02876490035233,19.271743912545496],[-89.14699680383883,19.281564750569064],[-89.14667982822627,19.423785034540018],[-89.29660929296921,19.55109219410481],[-89.21990119472864,19.608016681167353],[-89.22307095085428,19.63656985838403],[-89.14509495016344,19.63747919523806],[-89.14953260873935,19.581282177658746],[-89.10895973033111,19.58237338188359],[-89.10832577910598,19.612381498066718],[-89.13368382811113,19.614382039145593],[-89.12385758412164,19.70331518347014],[-89.07409241294903,19.694221814929797],[-89.0360553394413,19.67803561892799],[-89.03098372964028,19.708771204594346],[-88.99738431470846,19.7049519898074],[-88.99516548542051,19.727321676416643],[-89.04873436394388,19.721501920550825],[-89.02527816861412,19.776789601276107],[-88.95681143630023,19.816618555482805],[-88.9454003142479,19.791702725682267],[-88.91148392370351,19.800977961593418],[-88.90038977726377,19.861176061330482],[-88.88042031367222,19.87790785944471],[-88.83319094740013,19.878271594186327],[-88.78342577622752,20.007943029571607],[-88.70037816573567,20.010307305392097],[-88.69055192174616,20.08960147906388],[-88.62113426259458,20.131612841720262],[-88.57675767683557,20.148162772463685],[-88.50765699329654,20.1432523534519],[-88.50258538349551,20.18999226774926]]]}},{"type":"Feature","properties":{"cvegeo":"23008","cve_ent":"23","state_code":"ROO","nom_mun":"Solidaridad"},"geometry":{"type":"Polygon","coordinates":[[[-86.91517151577325,20.81034186957141],[-86.96430273572072,20.747779494013855],[-86.9627178576579,20.730502093787205],[-87.0080453702546,20.70431319239102],[-87.02167532159487,20.674486943578696],[-87.12247356639034,20.575551093859772],[-87.1814310303273,20.59773891309821],[-87.18998937186655,20.584462595029308],[-87.12913005425419,20.569185735881533],[-87.24672800651555,20.484799275827157],[-87.30346664116458,20.410415521167156],[-87.32977561700741,20.412234194875225],[-87.34816020253615,20.44206044368755],[-87.38175961746798,20.44660712795772],[-87.40806859331082,20.404595765301337],[-87.36495991000206,20.38149860920887],[-87.37827288572977,20.356764646779137],[-87.44864147171906,20.394047457794542],[-87.52534956995962,20.374042047005787],[-87.58113727777095,20.441696708945933],[-87.58937864369761,20.46897681456696],[-87.63565708313202,20.51571672886432],[-87.77037171847186,20.516080463605935],[-87.84644586548731,20.44133297420432],[-87.96277591529842,20.44660712795772],[-87.93836879313096,20.47024988616261],[-87.74437971824159,20.653754063306717],[-87.61124996096456,20.65429966541914],[-87.61346879025251,20.599739454177083],[-87.52249678944655,20.592828494086422],[-87.5237646918968,20.660665023397378],[-87.3789068369549,20.658482614947694],[-87.4036309347349,20.727228481112682],[-87.35101298304923,20.724136735808965],[-87.35608459285027,20.705586263986667],[-87.30219873871432,20.70613186609909],[-87.30251571432689,20.746506422418207],[-87.19696283534296,20.765784363723732],[-87.13768839579342,20.72850155270833],[-87.0952136637098,20.769603578510676],[-87.1227905420029,20.7781513449386],[-87.0799988343067,20.811433073796252],[-86.91517151577325,20.81034186957141]]]}},{"type":"Feature","properties":{"cvegeo":"23009","cve_ent":"23","state_code":"ROO","nom_mun":"Tulum"},"geometry":{"type":"Polygon","coordinates":[[[-87.35228088549948,20.322937315809064],[-87.35640156846283,20.311479671448232],[-87.42391737393903,20.226002007169015],[-87.47399952072419,20.100877256053906],[-87.47970508175035,20.041588493170874],[-87.46544117918496,19.95938444156618],[-87.4331096667034,19.908461577740262],[-87.47336556949907,19.937196622327743],[-87.45561493519547,19.874088644657768],[-87.50030849656704,19.806979584830042],[-87.50030849656704,20.134340852282364],[-87.62836664404304,20.134340852282364],[-87.62836664404304,20.206360331121875],[-87.9735530861256,20.209452076425592],[-87.9932055741046,20.423873706606862],[-87.99510742777998,20.447334597440946],[-87.96277591529842,20.44660712795772],[-87.84644586548731,20.44133297420432],[-87.77037171847186,20.516080463605935],[-87.63565708313202,20.51571672886432],[-87.58937864369761,20.46897681456696],[-87.58113727777095,20.441696708945933],[-87.52534956995962,20.374042047005787],[-87.44864147171906,20.394047457794542],[-87.37827288572977,20.356764646779137],[-87.36495991000206,20.38149860920887],[-87.40806859331082,20.404595765301337],[-87.38175961746798,20.44660712795772],[-87.34816020253615,20.44206044368755],[-87.32977561700741,20.412234194875225],[-87.30346664116458,20.410415521167156],[-87.35228088549948,20.322937315809064]]]}},{"type":"Feature","properties":{"cvegeo":"23002","cve_ent":"23","state_code":"ROO","nom_mun":"Felipe Carrillo Puerto"},"geometry":{"type":"Polygon","coordinates":[[[-88.50258538349551,20.18999226774926],[-88.52001904218655,20.192174676198942],[-88.4093945534016,20.252009041194395],[-88.30891328421869,20.25346398016085],[-88.26485367407224,20.29038305643464],[-88.23252216159068,20.290019321693023],[-88.13679552659625,20.281107820523488],[-88.06484206254414,20.349489951946865],[-87.9932055741046,20.423873706606862],[-87.9735530861256,20.209452076425592],[-87.62836664404304,20.206360331121875],[-87.62836664404304,20.134340852282364],[-87.50030849656704,20.134340852282364],[-87.50030849656704,19.806979584830042],[-87.57828449725787,19.79042965408662],[-87.64009474170791,19.692766875963343],[-87.74089298650338,19.666032372454737],[-87.73645532792747,19.585465127187305],[-87.70222196177053,19.55000098987997],[-87.67686391276538,19.56382291006129],[-87.66989044928897,19.50089679976212],[-87.65150586376024,19.504170412436643],[-87.61568761954047,19.552547133071265],[-87.55007366773964,19.56600531851097],[-87.52598352118476,19.540543886598012],[-87.49238410625293,19.57055200278114],[-87.50728196004346,19.586738198782953],[-87.45212820345726,19.5960134346941],[-87.44895844733162,19.63184130674305],[-87.41060439821133,19.59837771051459],[-87.44040010579238,19.468888142500116],[-87.49650478921626,19.432696535709553],[-87.52313074067168,19.39705053103141],[-87.55419435070297,19.426876779843735],[-87.63597405874458,19.37340777282652],[-87.65055493692255,19.339398574485642],[-87.66133210774973,19.26046813555547],[-87.68700713236744,19.234824836271706],[-87.68320342501667,19.204998587459382],[-87.62995152210586,19.183356370333367],[-87.60712927800122,19.22991441725992],[-87.54626996038887,19.302843232953464],[-87.50569708198063,19.322303041629798],[-87.44610566681854,19.313027805718647],[-87.53961347252502,19.19990630107679],[-87.54975669212708,19.088967204884614],[-87.56402059469248,19.067143120387794],[-88.01697874504693,19.116429177876448],[-88.2084320150358,19.15662186682476],[-88.24234840558017,19.05186626124002],[-88.38784021174722,19.094059491267206],[-88.42365845596699,19.096969369200117],[-88.3853044068467,19.19808762736872],[-88.47374060275216,19.193904677840166],[-88.55552031079375,19.20172497478486],[-88.5897536769507,19.1895398609408],[-88.59862899410251,19.218274905528283],[-88.71749484881414,19.218274905528283],[-88.71749484881414,19.231005621484762],[-88.71400811707593,19.280837281085837],[-88.63634909199767,19.28192848531068],[-88.67565406795565,19.3383073702608],[-88.6689975800918,19.394504387840115],[-88.69942723889797,19.403597756380456],[-88.69277075103412,19.461977182409456],[-88.62303611626996,19.448700864340555],[-88.61859845769406,19.596195302064906],[-88.65314879946358,19.628567694068526],[-88.63349631148459,19.643117083733074],[-88.57612372561044,19.638024797350482],[-88.5488638229299,19.749145760913464],[-88.52857738372579,19.745144678755715],[-88.48388382235422,19.891729779626033],[-88.46835201733856,19.891184177513612],[-88.46835201733856,19.956838298374883],[-88.39386274838594,19.95756576785811],[-88.39132694348542,20.016127061257915],[-88.44077513904546,20.02267428660696],[-88.48420079796678,20.009761703279676],[-88.47532548081497,20.037405543642315],[-88.49719679808192,20.058684026026718],[-88.43697143169469,20.05231866804848],[-88.4227075291293,20.153982528329504],[-88.44711465129674,20.18199010343376],[-88.50258538349551,20.18999226774926]]]}},{"type":"Feature","properties":{"cvegeo":"23001","cve_ent":"23","state_code":"ROO","nom_mun":"Cozumel"},"geometry":{"type":"MultiPolygon","coordinates":[[[[-86.73227658732362,20.56536652109459],[-86.76334019735492,20.5071689624364],[-86.81817697832857,20.43842309627141],[-86.83085600283114,20.43787749415899],[-86.89900575953247,20.344033930822658],[-86.9877589310505,20.27183258461234],[-87.0213583459823,20.338941644440066],[-87.01723766301897,20.411688592762804],[-86.92753356466326,20.551180866171656],[-86.8977378570822,20.56536652109459],[-86.86984400317655,20.537358945990334],[-86.81564117342805,20.542451232372926],[-86.72403522139695,20.590464218265936],[-86.73227658732362,20.56536652109459]]],[[[-87.12247356639034,20.575551093859772],[-87.12913005425419,20.569185735881533],[-87.18998937186655,20.584462595029308],[-87.1814310303273,20.59773891309821],[-87.12247356639034,20.575551093859772]]]]}},{"type":"Feature","properties":{"cvegeo":"23007","cve_ent":"23","state_code":"ROO","nom_mun":"Lázaro Cárdenas"},"geometry":{"type":"MultiPolygon","coordinates":[[[[-87.74437971824159,20.653754063306717],[-87.57828449725787,20.92564578266295],[-87.53327396027373,20.999665802581337],[-87.53517581394912,21.4901621016474],[-87.48572761838908,21.483069274185933],[-87.46544117918496,21.456880372789747],[-87.4375473252793,21.468883619263],[-87.35449971478744,21.446332065282952],[-87.2232718111858,21.431237073505983],[-87.22010205506015,21.419597561774346],[-87.12754517619136,21.421779970224026],[-87.12627727374111,21.363582411565837],[-87.09996829789827,21.362127472599383],[-87.10091922473596,21.229909894022803],[-87.1548050788719,21.231728567730872],[-87.1538541520342,21.185897990287547],[-87.19315912799219,21.18917160296207],[-87.19284215237963,21.139885545473415],[-87.21281161597118,21.099510989154297],[-87.32058332424306,21.101147795491556],[-87.32343610475613,20.87199490827493],[-87.16780107898704,20.87090370405009],[-87.16780107898704,20.766329965836153],[-87.19696283534296,20.765784363723732],[-87.30251571432689,20.746506422418207],[-87.30219873871432,20.70613186609909],[-87.35608459285027,20.705586263986667],[-87.35101298304923,20.724136735808965],[-87.4036309347349,20.727228481112682],[-87.3789068369549,20.658482614947694],[-87.5237646918968,20.660665023397378],[-87.52249678944655,20.592828494086422],[-87.61346879025251,20.599739454177083],[-87.61124996096456,20.65429966541914],[-87.74437971824159,20.653754063306717]]],[[[-87.11708498097674,21.597100115681826],[-87.11106244433802,21.59400837037811],[-87.13895629824368,21.56236344785772],[-87.19537795728013,21.53344653589943],[-87.24799590896582,21.525080636842315],[-87.31804751934254,21.52762678003361],[-87.32565493404408,21.548359660305593],[-87.3957065444208,21.51435046196471],[-87.33389629997076,21.566000795273855],[-87.27018420184532,21.54035749599009],[-87.2090079086204,21.54672285396833],[-87.14751463978291,21.571093081656446],[-87.11708498097674,21.597100115681826]]]]}},{"type":"Feature","properties":{"cvegeo":"23003","cve_ent":"23","state_code":"ROO","nom_mun":"Isla Mujeres"},"geometry":{"type":"MultiPolygon","coordinates":[[[[-87.10091922473596,21.229909894022803],[-87.09996829789827,21.362127472599383],[-87.12627727374111,21.363582411565837],[-87.12754517619136,21.421779970224026],[-87.22010205506015,21.419597561774346],[-87.2232718111858,21.431237073505983],[-87.11169639556314,21.47106602771268],[-87.10377200524904,21.54617725185591],[-87.12913005425419,21.554543150913023],[-87.08570439533287,21.58946168610794],[-87.06605190735388,21.57036561217322],[-86.97571385777304,21.54672285396833],[-86.95289161366841,21.48852529531014],[-86.88664371064246,21.403411365772534],[-86.84860663713474,21.251733978519624],[-86.83148995405627,21.253734519598503],[-86.82198068567934,21.314114486706373],[-86.79693961228675,21.330664417449796],[-86.79503775861136,21.36558295264471],[-86.82198068567934,21.419961296515957],[-86.79662263667419,21.408503652155126],[-86.7902831244229,21.34557754185596],[-86.81532419781549,21.27574047146613],[-86.80201122208778,21.211905024312927],[-87.10187015157365,21.212086891683732],[-87.10091922473596,21.229909894022803]]]]}}]}