{"type":"FeatureCollection","features":[{"type":"Feature","properties":{"cvegeo":"25012","cve_ent":"25","state_code":"SIN","nom_mun":"Mazatlán"},"geometry":{"type":"Polygon","coordinates":[[[-105.95177587955035,23.81970125431229],[-105.92705178177033,23.7615036956541],[-105.97681695294294,23.764777308328622],[-105.9923487579586,23.74640870387713],[-106.03387256320453,23.664750254384856],[-106.06937383181173,23.642926169888035],[-106.06049851465993,23.615827931637817],[-106.09441490520432,23.617101003233465],[-106.10455812480637,23.57854512062241],[-106.14639890566487,23.58381927437581],[-106.14956866179051,23.55562983190075],[-106.19109246703644,23.552538086597032],[-106.21042797940287,23.45414783899053],[-106.23071441860698,23.45232916528246],[-106.20694124766466,23.40504364887268],[-106.2101110037903,23.370670715790187],[-106.23705393085827,23.36521469466598],[-106.22025422339236,23.334479108999624],[-106.18570388162284,23.32720441416735],[-106.15939490578,23.21371917478388],[-106.20599032082697,23.199715387231752],[-106.15020261301564,23.190258283949795],[-106.13340290554973,23.165706188890873],[-106.09568280765457,23.15479414664246],[-106.13086710064921,23.09896086380476],[-106.15083656424076,23.086593882589895],[-106.17777949130874,23.112964651356886],[-106.20408846715158,23.09077683211845],[-106.25226876026136,23.095869118501042],[-106.25797432128752,23.06840714550921],[-106.38317968825044,23.17498142480202],[-106.4243865178838,23.179346241701385],[-106.42153373737072,23.215355981121142],[-106.45323129862716,23.24136301514652],[-106.49348720142282,23.30756273812021],[-106.48144212814539,23.32665881205493],[-106.52867149441747,23.391039861320554],[-106.61869256838575,23.473425780296054],[-106.59745520234394,23.61619166637943],[-106.51884525042797,23.624011963324122],[-106.52106407971593,23.69112102315185],[-106.46686124996742,23.69875945272574],[-106.38603246876352,23.677480970341335],[-106.36954973691017,23.63801575087625],[-106.28998885815652,23.600187337748427],[-106.26684963843933,23.608735104176347],[-106.20377149153902,23.677480970341335],[-106.17904739375899,23.663113448047596],[-106.17302485712027,23.70730721915366],[-106.11533529563356,23.72858570153806],[-106.15971188139257,23.77023332945283],[-106.0687398805866,23.89117513103938],[-105.95177587955035,23.81970125431229]]]}},{"type":"Feature","properties":{"cvegeo":"25017","cve_ent":"25","state_code":"SIN","nom_mun":"Sinaloa"},"geometry":{"type":"Polygon","coordinates":[[[-107.90022496998341,26.286732139307155],[-107.85616535983696,26.22580657008686],[-107.85426350616157,26.196525923386957],[-107.78896652997332,26.168518348282703],[-107.78104213965922,26.136691558391504],[-107.75505013942893,26.134509149941824],[-107.73508067583738,26.16815461354109],[-107.55567247912596,26.159606847113167],[-107.52017121051875,26.10413729901708],[-107.5189033080685,26.041574923459525],[-107.49037550293771,25.999745428173952],[-107.6041697478483,25.942820941111407],[-107.59687930875933,25.88971566883581],[-107.60448672346087,25.84024774397635],[-107.6469614555445,25.812240168872094],[-107.69894545600505,25.79496276864544],[-107.67739111435067,25.78186831794735],[-107.7563180418792,25.75004152805615],[-107.79023443242357,25.7593167639673],[-107.79942672518794,25.726035035109646],[-107.82605267664336,25.73676520998725],[-107.85362955493645,25.699118664230234],[-107.91480584816136,25.66711000696823],[-107.95411082411935,25.691480234656346],[-107.94999014115601,25.666018802743388],[-108.02733219062172,25.650560076224806],[-108.04825258105096,25.591816915454196],[-108.08375384965817,25.600910283994537],[-108.18043141149029,25.613640999951016],[-108.19469531405569,25.633282675998156],[-108.25111697309214,25.643830983504955],[-108.31007443702912,25.670019884901137],[-108.29200682711294,25.716941666569305],[-108.3351155104217,25.757316222888427],[-108.36427726677762,25.734946536279182],[-108.36649609606556,25.764227182979084],[-108.41879707213869,25.768228265136834],[-108.43749863327999,25.79059795174608],[-108.44700790165692,25.74367617007791],[-108.5306894633739,25.739856955290968],[-108.56302097585547,25.705302154837668],[-108.68917726965607,25.705120287466862],[-108.70661092834712,25.741675628999037],[-108.70439209905916,25.782595787430576],[-108.73228595296483,25.791507288600112],[-108.7582779531951,25.830608773323583],[-108.76493444105895,25.850796051483144],[-108.72436156265071,25.861162491619133],[-108.66793990361427,25.850796051483144],[-108.65716273278707,25.917723243940063],[-108.61500497631602,25.926998479851214],[-108.61437102509089,25.975193333115026],[-108.6479704400227,25.975738935227447],[-108.59979014691292,26.08449562296994],[-108.61437102509089,26.106137840095954],[-108.51579160958337,26.09886314526368],[-108.50342956069336,26.146876131156688],[-108.47775453607565,26.129053128817617],[-108.4657094627982,26.156333234438645],[-108.41562731601304,26.117049882344368],[-108.41562731601304,26.145057457448623],[-108.38139394985609,26.162152990304463],[-108.35793775452633,26.2188956099962],[-108.31990068101861,26.221987355299916],[-108.2755240952596,26.2481762566961],[-108.28471638802397,26.34292915688647],[-108.27235433913395,26.366208180349744],[-108.26252809514446,26.384576784801236],[-108.18677092374158,26.373664742552826],[-108.21751755816032,26.306919417466712],[-108.16585053331234,26.283822261374244],[-108.053324190852,26.313648510186567],[-108.03113589797249,26.33892807472872],[-108.03652448338607,26.36875432354104],[-108.014019214894,26.390396540667055],[-108.0194078003076,26.44932156880847],[-107.99975531232862,26.44841223195444],[-108.01275131244375,26.438955128672482],[-107.90022496998341,26.286732139307155]]]}},{"type":"Feature","properties":{"cvegeo":"25006","cve_ent":"25","state_code":"SIN","nom_mun":"Culiacán"},"geometry":{"type":"Polygon","coordinates":[[[-107.14835881698077,25.258999626877667],[-107.12109891430023,25.242449696134244],[-107.14867579259334,25.224626693795173],[-107.12521959726358,25.186434545925735],[-107.12997423145204,25.053125763124317],[-107.068163987002,25.030392341773464],[-107.01839881582939,24.93363890050422],[-106.92710983941086,24.8667117080473],[-106.94644535177729,24.858527676360993],[-106.93059657114907,24.820881130603976],[-106.8859030097775,24.826337151728183],[-106.87385793650004,24.79705650502828],[-106.90714037581931,24.767957725699183],[-106.94612837616472,24.764320378283045],[-106.94581140055216,24.74267816115703],[-106.99906330346296,24.726491965155223],[-107.04058710870889,24.68175259193674],[-107.04090408432145,24.645560985146176],[-107.01427813286605,24.57335963893586],[-107.02315345001786,24.553899830259525],[-106.97465618129552,24.542987788011114],[-106.96514691291858,24.507341783332976],[-107.05263218198634,24.483153423015665],[-107.04629266973505,24.42804760966119],[-107.03297969400735,24.43313989604378],[-106.99272379121167,24.36748577518251],[-106.95912437627986,24.35748306978813],[-106.940105839526,24.32492881041371],[-106.94929813229037,24.30055858272559],[-106.9134798880706,24.276188355037473],[-106.9267928637983,24.199804059298597],[-106.94993208351549,24.164158054620454],[-107.04565871850993,24.158338298754636],[-107.05073032831095,24.116326936098254],[-107.01649696215401,24.067222745980406],[-107.06340935281352,24.065767807013952],[-107.05770379178738,24.039578905617766],[-107.12838935338922,24.094320984230627],[-107.16103784148335,24.098322066388377],[-107.11032174347305,24.061402990114587],[-107.11602730449921,24.037214629797276],[-107.19400330519004,24.101959413804515],[-107.3952828191684,24.225992960694782],[-107.47516067353462,24.292192683668475],[-107.6656630166858,24.416953700041972],[-107.79562301783717,24.48551769883615],[-107.82351687174284,24.52243677510994],[-107.80069462763821,24.52589225515527],[-107.61716574796344,24.417317434783584],[-107.53633696675954,24.455691450023828],[-107.53348418624645,24.572268434711017],[-107.51383169826747,24.590091437050088],[-107.50368847866541,24.67174988654236],[-107.46628535638281,24.672113621283977],[-107.45297238065511,24.71012390178261],[-107.47452672230949,24.7444968348651],[-107.5401406741103,24.770322001519673],[-107.55377062545058,24.80142132192764],[-107.58578516231958,24.801239454556836],[-107.61241111377498,24.83161130548158],[-107.60987530887446,24.855617798428085],[-107.72335257817251,24.915997765535955],[-107.65710467514656,24.927455409896787],[-107.59656233314676,24.992563928645637],[-107.5918076989583,25.038394506088963],[-107.52777862522031,25.079132797149697],[-107.52524282031979,25.120234822952042],[-107.46660233199538,25.12223536403092],[-107.40701091683329,25.084043216161483],[-107.35756272127324,25.06694768330564],[-107.3464685748335,25.16479232879972],[-107.3864075020166,25.19716472080334],[-107.3312537454304,25.21444212102999],[-107.3179407697027,25.1667928698786],[-107.23425920798572,25.152970949697277],[-107.27609998884421,25.275731424991896],[-107.2041465247921,25.275731424991896],[-107.14835881698077,25.258999626877667]]]}},{"type":"Feature","properties":{"cvegeo":"25018","cve_ent":"25","state_code":"SIN","nom_mun":"Navolato"},"geometry":{"type":"Polygon","coordinates":[[[-107.72335257817251,24.915997765535955],[-107.60987530887446,24.855617798428085],[-107.61241111377498,24.83161130548158],[-107.58578516231958,24.801239454556836],[-107.55377062545058,24.80142132192764],[-107.5401406741103,24.770322001519673],[-107.47452672230949,24.7444968348651],[-107.45297238065511,24.71012390178261],[-107.46628535638281,24.672113621283977],[-107.50368847866541,24.67174988654236],[-107.51383169826747,24.590091437050088],[-107.53348418624645,24.572268434711017],[-107.53633696675954,24.455691450023828],[-107.61716574796344,24.417317434783584],[-107.80069462763821,24.52589225515527],[-107.82351687174284,24.52243677510994],[-107.84443726217208,24.555172901855173],[-107.93889599471626,24.60791443938916],[-108.00038926355374,24.65392688420329],[-108.01845687346992,24.681388857195124],[-108.02321150765837,24.736130935807985],[-108.0701238983179,24.785053258555028],[-108.03493960532326,24.80778667990588],[-108.00419297090451,24.849798042562263],[-108.02543033694633,24.8932643441851],[-107.9883441902763,24.96710249673268],[-107.90973423836034,24.978923875835125],[-107.89515336018238,25.03166541336911],[-107.84063355482131,25.032029148110723],[-107.79879277396282,24.954189913405393],[-107.75853687116715,24.947097085943927],[-107.72335257817251,24.915997765535955]]]}},{"type":"Feature","properties":{"cvegeo":"25016","cve_ent":"25","state_code":"SIN","nom_mun":"San Ignacio"},"geometry":{"type":"Polygon","coordinates":[[[-106.15242144230359,24.338750730595027],[-106.07476241722533,24.269277394946812],[-106.07000778303686,24.220173204828964],[-106.04401578280658,24.22090067431219],[-106.00312592878578,24.146880654393804],[-105.98981295305808,24.101959413804515],[-105.99995617266013,24.045944263596006],[-105.9150067084929,23.99956808404026],[-105.90866719624161,23.98338188803845],[-105.94543636729907,23.947917750731115],[-105.8997918790898,23.943916668573365],[-105.85795109823131,23.89990476483811],[-105.86746036660824,23.875170802408377],[-105.95399470883831,23.90845253126603],[-105.96128514792728,23.840797869325883],[-105.95177587955035,23.81970125431229],[-106.0687398805866,23.89117513103938],[-106.15971188139257,23.77023332945283],[-106.11533529563356,23.72858570153806],[-106.17302485712027,23.70730721915366],[-106.17904739375899,23.663113448047596],[-106.20377149153902,23.677480970341335],[-106.26684963843933,23.608735104176347],[-106.28998885815652,23.600187337748427],[-106.36954973691017,23.63801575087625],[-106.38603246876352,23.677480970341335],[-106.46686124996742,23.69875945272574],[-106.52106407971593,23.69112102315185],[-106.51884525042797,23.624011963324122],[-106.59745520234394,23.61619166637943],[-106.61869256838575,23.473425780296054],[-106.62756788553754,23.496886671130138],[-106.68272164212375,23.541262309607006],[-106.68779325192477,23.560358383541725],[-106.81014583837461,23.651655803686765],[-106.79556496019666,23.6818457872407],[-106.84723198504464,23.74058894801131],[-106.86212983883517,23.774416278981384],[-106.74041120361046,23.789329403387548],[-106.73565656942199,23.853346717911556],[-106.67099354445887,23.91954644088525],[-106.69032905682529,23.949190822326763],[-106.67796700793528,24.03066740444823],[-106.65514476383065,24.049945345753756],[-106.65863149556886,24.08195400301576],[-106.69413276417606,24.127784580459085],[-106.6351753002391,24.15542842082173],[-106.60633051949574,24.21635399004202],[-106.60474564143291,24.237996207168035],[-106.51092086011387,24.223628684874292],[-106.46305754261665,24.237996207168035],[-106.46305754261665,24.269459262317618],[-106.50838505521335,24.290919612072827],[-106.4697140304805,24.277825161374736],[-106.36321022465889,24.304014062770918],[-106.32802593166424,24.36112041720427],[-106.2687514921147,24.374760470014785],[-106.15242144230359,24.338750730595027]]]}},{"type":"Feature","properties":{"cvegeo":"25015","cve_ent":"25","state_code":"SIN","nom_mun":"Salvador Alvarado"},"geometry":{"type":"Polygon","coordinates":[[[-108.18043141149029,25.613640999951016],[-108.08375384965817,25.600910283994537],[-108.04825258105096,25.591816915454196],[-108.00514389774222,25.595817997611945],[-108.0247963857212,25.554897839180406],[-108.00387599529195,25.497427750005443],[-107.99658555620297,25.417769841592044],[-107.94365062890472,25.410131412018156],[-107.95125804360627,25.38048703057664],[-107.91417189693624,25.37248486626114],[-107.94713736064293,25.340839943740747],[-107.89864009192058,25.238812348718106],[-107.86852740872698,25.228627775952923],[-107.87042926240237,25.20353007878158],[-107.93287345807754,25.204075680894],[-107.93984692155395,25.147878663314685],[-107.9686917022973,25.164610461428914],[-107.9883441902763,25.22135308112065],[-108.0381093614489,25.2386304813473],[-108.0007062391663,25.253361738382655],[-108.03430565409813,25.300465387421628],[-108.04539980053788,25.343204219561237],[-108.02796614184685,25.38285130639713],[-108.097700776611,25.422316525862215],[-108.10277238641203,25.45032410096647],[-108.16236380157413,25.400856176107006],[-108.16933726505054,25.41795170896285],[-108.23336633878854,25.379577693722606],[-108.29390868078833,25.35920854819224],[-108.30722165651603,25.373757937856787],[-108.29073892466269,25.395763889724414],[-108.27710897332243,25.470875113867642],[-108.25270185115497,25.486697575127838],[-108.18898975302953,25.487061309869453],[-108.20198575314467,25.526162794592924],[-108.18962370425466,25.55053302228104],[-108.21371385080955,25.589452639633706],[-108.18043141149029,25.613640999951016]]]}},{"type":"Feature","properties":{"cvegeo":"25014","cve_ent":"25","state_code":"SIN","nom_mun":"Rosario"},"geometry":{"type":"Polygon","coordinates":[[[-105.39231392337427,23.0840477393986],[-105.41291733819097,23.07404503400422],[-105.4091136308402,23.023667772290725],[-105.43256982616995,23.02403150703234],[-105.4534902165992,22.97729159273498],[-105.50167050970899,22.958377386171065],[-105.4712408509028,22.88308429465703],[-105.4953309974577,22.81070108107591],[-105.53431899780311,22.830524624493854],[-105.55080172965646,22.873263456633463],[-105.57584280304904,22.86998984395894],[-105.60088387644163,22.92000337093082],[-105.6180005595201,22.89708808220916],[-105.67885987713245,22.89417820427625],[-105.75239821924738,22.96055979462075],[-105.80406524409537,22.93964504697796],[-105.82498563452462,22.894360071647057],[-105.85668319578106,22.88435736625268],[-105.8170612442105,22.83670811510129],[-105.84432114689105,22.82506860336965],[-105.90835022062905,22.851803106878258],[-105.9470212453619,22.845983351012435],[-105.99837129459732,22.81288348952559],[-106.03450651442965,22.829797155010628],[-106.14734983250256,22.962742203070434],[-106.25797432128752,23.06840714550921],[-106.25226876026136,23.095869118501042],[-106.20408846715158,23.09077683211845],[-106.17777949130874,23.112964651356886],[-106.15083656424076,23.086593882589895],[-106.13086710064921,23.09896086380476],[-106.10582602725663,23.076045575083096],[-106.09283002714149,23.110782242907206],[-106.03831022178042,23.115510794548182],[-106.01295217277527,23.09659658798427],[-105.98062066029371,23.10823609971591],[-105.96318700160268,23.08441147414021],[-105.90930114746673,23.119330009335126],[-105.94955705026241,23.23445205505586],[-105.91722553778084,23.331751098437522],[-105.83861558586489,23.30756273812021],[-105.8490757810795,23.329932424729453],[-105.73876826790712,23.338480191157373],[-105.71816485309043,23.368488307340506],[-105.68519938938374,23.28573865362339],[-105.64304163291268,23.2753722134874],[-105.63004563279755,23.202261530423048],[-105.64494348658806,23.14279090016921],[-105.59708016909084,23.109145436569943],[-105.55492241261979,23.09896086380476],[-105.50230446093411,23.127877775763046],[-105.41608709431661,23.116965733514636],[-105.39231392337427,23.0840477393986]]]}},{"type":"Feature","properties":{"cvegeo":"25013","cve_ent":"25","state_code":"SIN","nom_mun":"Mocorito"},"geometry":{"type":"Polygon","coordinates":[[[-107.6469614555445,25.812240168872094],[-107.65171608973296,25.771138143069745],[-107.62984477246602,25.682750600857617],[-107.57120428414161,25.679476988183097],[-107.58039657690598,25.598909742915662],[-107.64062194329321,25.553806634955563],[-107.64125589451834,25.492517330993657],[-107.66344418739784,25.487425044611065],[-107.6469614555445,25.452142774674538],[-107.68626643150247,25.446141151437914],[-107.69197199252864,25.394127083387154],[-107.7464917978897,25.352115720730772],[-107.79308721293665,25.297555509488717],[-107.74680877350227,25.307558214883095],[-107.74617482227714,25.271912210204952],[-107.71257540734531,25.271912210204952],[-107.6922889681412,25.229173378065344],[-107.65393491902091,25.208986099905786],[-107.60353579662318,25.228445908582117],[-107.55598945473852,25.215715192625638],[-107.51224682020465,25.13896716214515],[-107.52524282031979,25.120234822952042],[-107.52777862522031,25.079132797149697],[-107.5918076989583,25.038394506088963],[-107.59656233314676,24.992563928645637],[-107.65710467514656,24.927455409896787],[-107.72335257817251,24.915997765535955],[-107.75853687116715,24.947097085943927],[-107.79879277396282,24.954189913405393],[-107.84063355482131,25.032029148110723],[-107.89515336018238,25.03166541336911],[-107.9100512139729,25.063128468518695],[-107.94555248258011,25.068402622272092],[-107.93984692155395,25.114596934457033],[-107.99943833671605,25.134056743133364],[-107.9686917022973,25.164610461428914],[-107.93984692155395,25.147878663314685],[-107.93287345807754,25.204075680894],[-107.87042926240237,25.20353007878158],[-107.86852740872698,25.228627775952923],[-107.89864009192058,25.238812348718106],[-107.94713736064293,25.340839943740747],[-107.91417189693624,25.37248486626114],[-107.95125804360627,25.38048703057664],[-107.94365062890472,25.410131412018156],[-107.99658555620297,25.417769841592044],[-108.00387599529195,25.497427750005443],[-108.0247963857212,25.554897839180406],[-108.00514389774222,25.595817997611945],[-108.04825258105096,25.591816915454196],[-108.02733219062172,25.650560076224806],[-107.94999014115601,25.666018802743388],[-107.95411082411935,25.691480234656346],[-107.91480584816136,25.66711000696823],[-107.85362955493645,25.699118664230234],[-107.82605267664336,25.73676520998725],[-107.79942672518794,25.726035035109646],[-107.79023443242357,25.7593167639673],[-107.7563180418792,25.75004152805615],[-107.67739111435067,25.78186831794735],[-107.69894545600505,25.79496276864544],[-107.6469614555445,25.812240168872094]]]}},{"type":"Feature","properties":{"cvegeo":"25011","cve_ent":"25","state_code":"SIN","nom_mun":"Guasave"},"geometry":{"type":"Polygon","coordinates":[[[-108.7582779531951,25.830608773323583],[-108.73228595296483,25.791507288600112],[-108.70439209905916,25.782595787430576],[-108.70661092834712,25.741675628999037],[-108.68917726965607,25.705120287466862],[-108.56302097585547,25.705302154837668],[-108.5306894633739,25.739856955290968],[-108.44700790165692,25.74367617007791],[-108.43749863327999,25.79059795174608],[-108.41879707213869,25.768228265136834],[-108.36649609606556,25.764227182979084],[-108.36427726677762,25.734946536279182],[-108.3351155104217,25.757316222888427],[-108.29200682711294,25.716941666569305],[-108.31007443702912,25.670019884901137],[-108.25111697309214,25.643830983504955],[-108.19469531405569,25.633282675998156],[-108.18043141149029,25.613640999951016],[-108.21371385080955,25.589452639633706],[-108.18962370425466,25.55053302228104],[-108.20198575314467,25.526162794592924],[-108.18898975302953,25.487061309869453],[-108.25270185115497,25.486697575127838],[-108.27710897332243,25.470875113867642],[-108.29073892466269,25.395763889724414],[-108.30722165651603,25.373757937856787],[-108.36808097412839,25.356480537630137],[-108.37885814495557,25.2970099073763],[-108.35666985207607,25.283369854565784],[-108.3848806815943,25.239539818201337],[-108.38392975475661,25.186434545925735],[-108.45049463339512,25.25645348368637],[-108.56936048810675,25.31483290971537],[-108.65240809859861,25.344113556415273],[-108.75162146533125,25.36848378410339],[-108.7982168803782,25.36957498832823],[-108.91137717406369,25.420679719524955],[-109.02675629703711,25.444140610359035],[-108.9075734667129,25.447596090404367],[-108.89235863730983,25.512886476524024],[-108.84164253929953,25.587815833296446],[-108.86351385656647,25.622734368491358],[-108.87017034443032,25.716214197086078],[-108.82484283183362,25.785505665363488],[-108.79441317302744,25.792416625454145],[-108.7582779531951,25.830608773323583]]]}},{"type":"Feature","properties":{"cvegeo":"25010","cve_ent":"25","state_code":"SIN","nom_mun":"El Fuerte"},"geometry":{"type":"Polygon","coordinates":[[[-108.27235433913395,26.366208180349744],[-108.28471638802397,26.34292915688647],[-108.2755240952596,26.2481762566961],[-108.31990068101861,26.221987355299916],[-108.35793775452633,26.2188956099962],[-108.38139394985609,26.162152990304463],[-108.41562731601304,26.145057457448623],[-108.41562731601304,26.117049882344368],[-108.4657094627982,26.156333234438645],[-108.47775453607565,26.129053128817617],[-108.50342956069336,26.146876131156688],[-108.51579160958337,26.09886314526368],[-108.61437102509089,26.106137840095954],[-108.59979014691292,26.08449562296994],[-108.6479704400227,25.975738935227447],[-108.61437102509089,25.975193333115026],[-108.61500497631602,25.926998479851214],[-108.65716273278707,25.917723243940063],[-108.66793990361427,25.850796051483144],[-108.72436156265071,25.861162491619133],[-108.76493444105895,25.850796051483144],[-108.77824741678666,25.872256401238353],[-108.85400458818954,25.839338407122312],[-108.91549785702702,25.894080485735174],[-108.9148639058019,25.86243556321478],[-108.95099912563423,25.87753055499175],[-108.96145932084885,25.850068581999917],[-108.98364761372835,25.918268846052484],[-109.00932263834606,25.94445774744867],[-108.98808527230426,26.004655847185735],[-109.0178809798853,26.034482095998058],[-108.95797258911064,26.09377085888109],[-109.01661307743505,26.136145956279087],[-108.9922059552676,26.22125988581669],[-109.03816741908942,26.246357582988033],[-109.02707327264967,26.27491076020471],[-108.99315688210528,26.2932793646562],[-108.9281768815296,26.302190865825736],[-108.9316636132678,26.37693835522735],[-108.95004819879654,26.392215214375124],[-108.90915834477573,26.41658544206324],[-108.88126449087007,26.40621900192725],[-108.87650985668161,26.447502895100406],[-108.83815580756132,26.47260059227175],[-108.9148639058019,26.47951155236241],[-108.89140771047212,26.4898779924984],[-108.87334010055596,26.5509854290895],[-108.77729648994897,26.573718850440358],[-108.73418780664021,26.593360526487494],[-108.67871707444145,26.586995168509254],[-108.67903405005401,26.642828451346958],[-108.66350224503836,26.657923443123927],[-108.62039356172961,26.647557002987938],[-108.63782722042065,26.629734000648867],[-108.60295990303857,26.569172166170183],[-108.57031141494444,26.55971506288823],[-108.51959531693414,26.580629810531015],[-108.52339902428491,26.609910457230917],[-108.47299990188719,26.598998414982507],[-108.4355967796046,26.64428339031341],[-108.4035822427356,26.64319218608857],[-108.38773346210738,26.617548886804805],[-108.43940048695536,26.585722096913607],[-108.43147609664126,26.569717768282604],[-108.46507551157308,26.5377091110206],[-108.42481960877741,26.533344294121235],[-108.37442048637968,26.475692337575467],[-108.31514604683014,26.487331849307104],[-108.30119911987731,26.373664742552826],[-108.27235433913395,26.366208180349744]]]}},{"type":"Feature","properties":{"cvegeo":"25009","cve_ent":"25","state_code":"SIN","nom_mun":"Escuinapa"},"geometry":{"type":"Polygon","coordinates":[[[-105.4953309974577,22.81070108107591],[-105.50230446093411,22.80997361159268],[-105.52322485136335,22.77305453531889],[-105.52290787575079,22.72431407994266],[-105.49850075358334,22.65138526424911],[-105.46426738742639,22.659205561193808],[-105.43890933842124,22.587913551837524],[-105.44176211893432,22.524441839425933],[-105.4668031923269,22.505345765491214],[-105.50388933899693,22.526260513134],[-105.53400202219055,22.514984736143976],[-105.54160943689209,22.53662695326999],[-105.59866504715367,22.53662695326999],[-105.60088387644163,22.558814772508427],[-105.66047529160372,22.58627674550026],[-105.68234660887066,22.571909223206518],[-105.7007311943994,22.558451037766815],[-105.67727499906962,22.5129841950651],[-105.67727499906962,22.468062954475812],[-105.70168212123708,22.467699219734197],[-105.75873773149867,22.537718157494833],[-105.81389148808486,22.643928702046033],[-105.87094709834645,22.708309751311653],[-105.93782895259753,22.769417187902754],[-105.99837129459732,22.81288348952559],[-105.9470212453619,22.845983351012435],[-105.90835022062905,22.851803106878258],[-105.84432114689105,22.82506860336965],[-105.8170612442105,22.83670811510129],[-105.85668319578106,22.88435736625268],[-105.82498563452462,22.894360071647057],[-105.80406524409537,22.93964504697796],[-105.75239821924738,22.96055979462075],[-105.67885987713245,22.89417820427625],[-105.6180005595201,22.89708808220916],[-105.60088387644163,22.92000337093082],[-105.57584280304904,22.86998984395894],[-105.55080172965646,22.873263456633463],[-105.53431899780311,22.830524624493854],[-105.4953309974577,22.81070108107591]]]}},{"type":"Feature","properties":{"cvegeo":"25008","cve_ent":"25","state_code":"SIN","nom_mun":"Elota"},"geometry":{"type":"Polygon","coordinates":[[[-106.60633051949574,24.21635399004202],[-106.6351753002391,24.15542842082173],[-106.69413276417606,24.127784580459085],[-106.65863149556886,24.08195400301576],[-106.65514476383065,24.049945345753756],[-106.67796700793528,24.03066740444823],[-106.69032905682529,23.949190822326763],[-106.67099354445887,23.91954644088525],[-106.73565656942199,23.853346717911556],[-106.74041120361046,23.789329403387548],[-106.86212983883517,23.774416278981384],[-106.89319344886647,23.84170720617992],[-107.00667071816451,23.94809961810192],[-107.11602730449921,24.037214629797276],[-107.11032174347305,24.061402990114587],[-107.16103784148335,24.098322066388377],[-107.12838935338922,24.094320984230627],[-107.05770379178738,24.039578905617766],[-107.06340935281352,24.065767807013952],[-107.01649696215401,24.067222745980406],[-107.05073032831095,24.116326936098254],[-107.04565871850993,24.158338298754636],[-106.94993208351549,24.164158054620454],[-106.9267928637983,24.199804059298597],[-106.9134798880706,24.276188355037473],[-106.84691500943208,24.26873179283439],[-106.79398008213383,24.287100397285883],[-106.71632105705557,24.21653585741283],[-106.70807969112889,24.232903920785443],[-106.60633051949574,24.21635399004202]]]}},{"type":"Feature","properties":{"cvegeo":"25007","cve_ent":"25","state_code":"SIN","nom_mun":"Choix"},"geometry":{"type":"Polygon","coordinates":[[[-108.47046409698667,27.034570768064903],[-108.42164985265177,27.021112582625197],[-108.35001336421222,27.022567521591654],[-108.33321365674631,27.004562651881773],[-108.30373492477783,27.03657130914378],[-108.28154663189832,27.012928550938888],[-108.25048302186701,27.040936126043142],[-108.19469531405569,27.032024624873607],[-108.18201628955312,27.00310771291532],[-108.23495121685136,26.958550207067642],[-108.2301965826629,26.905808669533656],[-108.17662770413952,26.88143844184554],[-108.14207736237,26.907081741129304],[-108.14429619165796,26.867616521664218],[-108.09421404487279,26.87052639959713],[-108.03715843461121,26.810146432489255],[-108.0381093614489,26.769771876170136],[-108.0060948245799,26.761042242371406],[-108.00672877580503,26.705572694275318],[-108.01497014173171,26.685749150857372],[-108.08153502037021,26.641737247122116],[-108.05173931278917,26.629915868019673],[-107.96140126320833,26.526978936142996],[-107.95759755585756,26.493697207285344],[-107.99975531232862,26.44841223195444],[-108.0194078003076,26.44932156880847],[-108.014019214894,26.390396540667055],[-108.03652448338607,26.36875432354104],[-108.03113589797249,26.33892807472872],[-108.053324190852,26.313648510186567],[-108.16585053331234,26.283822261374244],[-108.21751755816032,26.306919417466712],[-108.18677092374158,26.373664742552826],[-108.26252809514446,26.384576784801236],[-108.27235433913395,26.366208180349744],[-108.30119911987731,26.373664742552826],[-108.31514604683014,26.487331849307104],[-108.37442048637968,26.475692337575467],[-108.42481960877741,26.533344294121235],[-108.46507551157308,26.5377091110206],[-108.43147609664126,26.569717768282604],[-108.43940048695536,26.585722096913607],[-108.38773346210738,26.617548886804805],[-108.4035822427356,26.64319218608857],[-108.4355967796046,26.64428339031341],[-108.47299990188719,26.598998414982507],[-108.52339902428491,26.609910457230917],[-108.51959531693414,26.580629810531015],[-108.57031141494444,26.55971506288823],[-108.60295990303857,26.569172166170183],[-108.63782722042065,26.629734000648867],[-108.62039356172961,26.647557002987938],[-108.66350224503836,26.657923443123927],[-108.63053678133167,26.67665578231703],[-108.62831795204372,26.718303410231798],[-108.60137502497575,26.727214911401333],[-108.57538302474548,26.79323276700422],[-108.53702897562519,26.803053605027788],[-108.55699843921674,26.82378648529977],[-108.51927834132158,26.87961976813747],[-108.46729434086103,26.9707353209117],[-108.42450263316485,26.976009474665098],[-108.50247863385567,26.987285251655123],[-108.47046409698667,27.034570768064903]]]}},{"type":"Feature","properties":{"cvegeo":"25005","cve_ent":"25","state_code":"SIN","nom_mun":"Cosalá"},"geometry":{"type":"Polygon","coordinates":[[[-106.56670856792519,24.47460565658774],[-106.56924437282571,24.436959110830724],[-106.60157588530727,24.414589424221482],[-106.58604408029161,24.37894341954334],[-106.51726037236516,24.286918529915077],[-106.50838505521335,24.290919612072827],[-106.46305754261665,24.269459262317618],[-106.46305754261665,24.237996207168035],[-106.51092086011387,24.223628684874292],[-106.60474564143291,24.237996207168035],[-106.60633051949574,24.21635399004202],[-106.70807969112889,24.232903920785443],[-106.71632105705557,24.21653585741283],[-106.79398008213383,24.287100397285883],[-106.84691500943208,24.26873179283439],[-106.9134798880706,24.276188355037473],[-106.94929813229037,24.30055858272559],[-106.940105839526,24.32492881041371],[-106.95912437627986,24.35748306978813],[-106.99272379121167,24.36748577518251],[-107.03297969400735,24.43313989604378],[-107.04629266973505,24.42804760966119],[-107.05263218198634,24.483153423015665],[-106.96514691291858,24.507341783332976],[-106.97465618129552,24.542987788011114],[-107.02315345001786,24.553899830259525],[-107.01427813286605,24.57335963893586],[-107.04090408432145,24.645560985146176],[-107.04058710870889,24.68175259193674],[-106.99906330346296,24.726491965155223],[-106.94581140055216,24.74267816115703],[-106.94612837616472,24.764320378283045],[-106.90714037581931,24.767957725699183],[-106.87385793650004,24.79705650502828],[-106.8859030097775,24.826337151728183],[-106.86086193638491,24.81833498741268],[-106.70617783745351,24.665202661193316],[-106.683989544574,24.598457336107202],[-106.63010369043806,24.50643244647894],[-106.56670856792519,24.47460565658774]]]}},{"type":"Feature","properties":{"cvegeo":"25004","cve_ent":"25","state_code":"SIN","nom_mun":"Concordia"},"geometry":{"type":"Polygon","coordinates":[[[-105.92705178177033,23.7615036956541],[-105.90613139134109,23.739315876415663],[-105.92705178177033,23.68402819569038],[-105.90930114746673,23.59018463235405],[-105.89281841561339,23.552538086597032],[-105.88426007407415,23.59036649972486],[-105.81167265879691,23.611099379996837],[-105.794872951331,23.580000059588865],[-105.76856397548816,23.555084229788328],[-105.76032260956148,23.502706426995957],[-105.72355343850403,23.475244454004123],[-105.73876826790712,23.444690735708573],[-105.7007311943994,23.420502375391262],[-105.730843877593,23.374853665318746],[-105.71816485309043,23.368488307340506],[-105.73876826790712,23.338480191157373],[-105.8490757810795,23.329932424729453],[-105.83861558586489,23.30756273812021],[-105.91722553778084,23.331751098437522],[-105.94955705026241,23.23445205505586],[-105.90930114746673,23.119330009335126],[-105.96318700160268,23.08441147414021],[-105.98062066029371,23.10823609971591],[-106.01295217277527,23.09659658798427],[-106.03831022178042,23.115510794548182],[-106.09283002714149,23.110782242907206],[-106.10582602725663,23.076045575083096],[-106.13086710064921,23.09896086380476],[-106.09568280765457,23.15479414664246],[-106.13340290554973,23.165706188890873],[-106.15020261301564,23.190258283949795],[-106.20599032082697,23.199715387231752],[-106.15939490578,23.21371917478388],[-106.18570388162284,23.32720441416735],[-106.22025422339236,23.334479108999624],[-106.23705393085827,23.36521469466598],[-106.2101110037903,23.370670715790187],[-106.20694124766466,23.40504364887268],[-106.23071441860698,23.45232916528246],[-106.21042797940287,23.45414783899053],[-106.19109246703644,23.552538086597032],[-106.14956866179051,23.55562983190075],[-106.14639890566487,23.58381927437581],[-106.10455812480637,23.57854512062241],[-106.09441490520432,23.617101003233465],[-106.06049851465993,23.615827931637817],[-106.06937383181173,23.642926169888035],[-106.03387256320453,23.664750254384856],[-105.9923487579586,23.74640870387713],[-105.97681695294294,23.764777308328622],[-105.92705178177033,23.7615036956541]]]}},{"type":"Feature","properties":{"cvegeo":"25003","cve_ent":"25","state_code":"SIN","nom_mun":"Badiraguato"},"geometry":{"type":"Polygon","coordinates":[[[-107.24693823248829,25.878985493958204],[-107.19495423202774,25.852069123078792],[-107.0583377430125,25.757316222888427],[-107.06467725526379,25.71912407501899],[-107.01047442551528,25.691480234656346],[-106.99050496192373,25.71494112549043],[-106.96546388853115,25.697845592634586],[-106.96704876659396,25.668383078563878],[-106.9943086692745,25.662199587956444],[-106.97338827884525,25.62964532858202],[-107.13155910951487,25.550351154910235],[-107.17023013424772,25.559626390821386],[-107.17815452456182,25.515250752344514],[-107.14804184136821,25.50506617957933],[-107.15564925606975,25.44668675355033],[-107.21016906143082,25.417042372108817],[-107.17149803669797,25.326290554076202],[-107.20826720775544,25.3315647078296],[-107.14835881698077,25.258999626877667],[-107.2041465247921,25.275731424991896],[-107.27609998884421,25.275731424991896],[-107.23425920798572,25.152970949697277],[-107.3179407697027,25.1667928698786],[-107.3312537454304,25.21444212102999],[-107.3864075020166,25.19716472080334],[-107.3464685748335,25.16479232879972],[-107.35756272127324,25.06694768330564],[-107.40701091683329,25.084043216161483],[-107.46660233199538,25.12223536403092],[-107.52524282031979,25.120234822952042],[-107.51224682020465,25.13896716214515],[-107.55598945473852,25.215715192625638],[-107.60353579662318,25.228445908582117],[-107.65393491902091,25.208986099905786],[-107.6922889681412,25.229173378065344],[-107.71257540734531,25.271912210204952],[-107.74617482227714,25.271912210204952],[-107.74680877350227,25.307558214883095],[-107.79308721293665,25.297555509488717],[-107.7464917978897,25.352115720730772],[-107.69197199252864,25.394127083387154],[-107.68626643150247,25.446141151437914],[-107.6469614555445,25.452142774674538],[-107.66344418739784,25.487425044611065],[-107.64125589451834,25.492517330993657],[-107.64062194329321,25.553806634955563],[-107.58039657690598,25.598909742915662],[-107.57120428414161,25.679476988183097],[-107.62984477246602,25.682750600857617],[-107.65171608973296,25.771138143069745],[-107.6469614555445,25.812240168872094],[-107.60448672346087,25.84024774397635],[-107.59687930875933,25.88971566883581],[-107.6041697478483,25.942820941111407],[-107.49037550293771,25.999745428173952],[-107.5189033080685,26.041574923459525],[-107.52017121051875,26.10413729901708],[-107.46216467341948,26.137419027874735],[-107.41652018521022,26.14123824266168],[-107.3464685748335,26.109593320141286],[-107.30494476958756,26.076311591283634],[-107.30684662326294,26.04866775092099],[-107.27641696445677,26.001927836623633],[-107.29606945243576,25.92481607140153],[-107.24281754952494,25.892261812027105],[-107.24693823248829,25.878985493958204]]]}},{"type":"Feature","properties":{"cvegeo":"25001","cve_ent":"25","state_code":"SIN","nom_mun":"Ahome"},"geometry":{"type":"Polygon","coordinates":[[[-108.95004819879654,26.392215214375124],[-108.9316636132678,26.37693835522735],[-108.9281768815296,26.302190865825736],[-108.99315688210528,26.2932793646562],[-109.02707327264967,26.27491076020471],[-109.03816741908942,26.246357582988033],[-108.9922059552676,26.22125988581669],[-109.01661307743505,26.136145956279087],[-108.95797258911064,26.09377085888109],[-109.0178809798853,26.034482095998058],[-108.98808527230426,26.004655847185735],[-109.00932263834606,25.94445774744867],[-108.98364761372835,25.918268846052484],[-108.96145932084885,25.850068581999917],[-108.95099912563423,25.87753055499175],[-108.9148639058019,25.86243556321478],[-108.91549785702702,25.894080485735174],[-108.85400458818954,25.839338407122312],[-108.77824741678666,25.872256401238353],[-108.76493444105895,25.850796051483144],[-108.7582779531951,25.830608773323583],[-108.79441317302744,25.792416625454145],[-108.82484283183362,25.785505665363488],[-108.87017034443032,25.716214197086078],[-108.86351385656647,25.622734368491358],[-108.84164253929953,25.587815833296446],[-108.89235863730983,25.512886476524024],[-108.9075734667129,25.447596090404367],[-109.02675629703711,25.444140610359035],[-109.11963015151846,25.544895133786028],[-109.16305581043977,25.560899462417034],[-109.21947746947623,25.62327997060378],[-109.29650254332937,25.645467789842215],[-109.39349708077405,25.637283758155906],[-109.41124771507766,25.758407427113266],[-109.4340699591823,25.809330290939183],[-109.42139093467972,25.893898618364368],[-109.44769991052256,25.94900443171884],[-109.40839493456458,26.058488588944563],[-109.31013249466963,26.202527546623585],[-109.28667629933987,26.27945744447488],[-109.25846546982164,26.320013868164807],[-109.20299473762289,26.344384095852924],[-109.18904781067005,26.33365392097532],[-109.18904781067005,26.333472053604513],[-109.18904781067005,26.33365392097532],[-109.16527463972773,26.307101284837522],[-109.12787151744513,26.298553518409598],[-109.12755454183257,26.298553518409598],[-109.10029463915204,26.31273917333253],[-109.06986498034586,26.35729667918021],[-109.00678683344555,26.402399787140308],[-108.95004819879654,26.392215214375124]]]}},{"type":"Feature","properties":{"cvegeo":"25002","cve_ent":"25","state_code":"SIN","nom_mun":"Angostura"},"geometry":{"type":"Polygon","coordinates":[[[-107.9686917022973,25.164610461428914],[-107.99943833671605,25.134056743133364],[-107.93984692155395,25.114596934457033],[-107.94555248258011,25.068402622272092],[-107.9100512139729,25.063128468518695],[-107.89515336018238,25.03166541336911],[-107.90973423836034,24.978923875835125],[-107.9883441902763,24.96710249673268],[-108.02543033694633,24.8932643441851],[-108.00419297090451,24.849798042562263],[-108.03493960532326,24.80778667990588],[-108.0701238983179,24.785053258555028],[-108.12179092316589,24.82924702966109],[-108.13637180134386,24.871440259688278],[-108.23273238756342,25.02657312698652],[-108.32750809572015,25.10150248375894],[-108.35762077891377,25.169157145699085],[-108.38392975475661,25.186434545925735],[-108.3848806815943,25.239539818201337],[-108.35666985207607,25.283369854565784],[-108.37885814495557,25.2970099073763],[-108.36808097412839,25.356480537630137],[-108.30722165651603,25.373757937856787],[-108.29390868078833,25.35920854819224],[-108.23336633878854,25.379577693722606],[-108.16933726505054,25.41795170896285],[-108.16236380157413,25.400856176107006],[-108.10277238641203,25.45032410096647],[-108.097700776611,25.422316525862215],[-108.02796614184685,25.38285130639713],[-108.04539980053788,25.343204219561237],[-108.03430565409813,25.300465387421628],[-108.0007062391663,25.253361738382655],[-108.0381093614489,25.2386304813473],[-107.9883441902763,25.22135308112065],[-107.9686917022973,25.164610461428914]]]}}]}