{"type":"FeatureCollection","features":[{"type":"Feature","properties":{"cvegeo":"24058","cve_ent":"24","state_code":"SLP","nom_mun":"El Naranjo"},"geometry":{"type":"Polygon","coordinates":[[[-99.51368421275586,22.615011790087742],[-99.494665676002,22.62083154595356],[-99.53935923737357,22.72922449895444],[-99.54474782278717,22.743955755989795],[-99.47754899292353,22.740682143315272],[-99.44236469992889,22.66357037809317],[-99.38562606527987,22.670117603442215],[-99.37358099200242,22.62901557763987],[-99.32983835746855,22.634835333505688],[-99.30543123530109,22.58845915394994],[-99.2724657715944,22.513166062435907],[-99.26327347883003,22.46969976081307],[-99.23220986879872,22.412411539008914],[-99.20748577101871,22.344756877068768],[-99.22428547848462,22.29983563647948],[-99.27722040578286,22.284558777331704],[-99.29180128396082,22.331662426370677],[-99.33744577217008,22.327661344212927],[-99.30511425968852,22.25018584424921],[-99.28165806435877,22.148340116597375],[-99.31303865000262,22.14688517763092],[-99.31747630857853,22.2207233301785],[-99.36343777240036,22.300017503850285],[-99.37231308955216,22.343301938102314],[-99.34632108932189,22.349121693968133],[-99.3764337725155,22.423505448628134],[-99.40496157764629,22.410229130559234],[-99.44616840727966,22.488068365264564],[-99.47120948067224,22.500253479108622],[-99.49276382232662,22.579002050667988],[-99.52477835919562,22.579183918038794],[-99.51368421275586,22.615011790087742]]]}},{"type":"Feature","properties":{"cvegeo":"24057","cve_ent":"24","state_code":"SLP","nom_mun":"Matlapa"},"geometry":{"type":"Polygon","coordinates":[[[-98.78020264528196,21.379041138084418],[-98.76625571832913,21.324299059471556],[-98.76942547445478,21.303566179199578],[-98.85627679229741,21.283378901040017],[-98.88290274375281,21.30229310760393],[-98.94281113452747,21.30265684234554],[-98.94534693942799,21.31138647614427],[-98.93298489053798,21.33502923434916],[-98.86768791434972,21.335756703832388],[-98.86705396312459,21.368492830577622],[-98.8340884994179,21.381587281275714],[-98.81602088950173,21.359399462037278],[-98.78020264528196,21.379041138084418]]]}},{"type":"Feature","properties":{"cvegeo":"24056","cve_ent":"24","state_code":"SLP","nom_mun":"Villa de Arista"},"geometry":{"type":"Polygon","coordinates":[[[-100.90901085926413,22.516803409852045],[-100.94609700593416,22.576637774847498],[-100.93278403020645,22.575546570622656],[-100.88935837128514,22.632289190314392],[-100.89538090792387,22.655386346406864],[-100.94546305470902,22.654477009552828],[-100.93627076194467,22.706127342861972],[-100.81835583407073,22.76559797311581],[-100.84371388307588,22.78869512920828],[-100.83578949276176,22.81233788741317],[-100.80282402905507,22.822886194919967],[-100.74164773583016,22.771599596352438],[-100.70995017457372,22.761415023587254],[-100.73087056500296,22.7361354590451],[-100.66620754003984,22.69285102479307],[-100.66113593023881,22.610646973188377],[-100.70899924773603,22.61464805534613],[-100.71470480876218,22.585913010758645],[-100.76130022380914,22.58627674550026],[-100.75559466278298,22.529534125808524],[-100.78792617526454,22.505345765491214],[-100.82089163897123,22.522441298347058],[-100.88492071270923,22.577910846443146],[-100.90203739578772,22.56099718095811],[-100.8808000297459,22.535899483786764],[-100.90901085926413,22.516803409852045]]]}},{"type":"Feature","properties":{"cvegeo":"24055","cve_ent":"24","state_code":"SLP","nom_mun":"Zaragoza"},"geometry":{"type":"Polygon","coordinates":[[[-100.50074627028124,21.972292501656348],[-100.49884441660586,21.964472204711655],[-100.55114539267898,21.911548799806862],[-100.63038929582007,21.909730126098793],[-100.66684149126496,21.93191794533723],[-100.71311993069936,21.90882078924476],[-100.71533875998732,21.88736043948955],[-100.7901450045525,21.883904959444223],[-100.8034579802802,21.933918486416104],[-100.8256462731597,21.957561244620994],[-100.83642344398689,22.006665434738842],[-100.7901450045525,22.002664352581093],[-100.79838637047916,22.04449384786667],[-100.74196471144272,22.053769083777816],[-100.77207739463633,22.143247830214783],[-100.7261159308145,22.163253241003538],[-100.70963319896116,22.1941706940407],[-100.67793563770472,22.096507915917424],[-100.65352851553726,22.112512244548427],[-100.57682041729669,22.095962313805003],[-100.53085895347486,22.061953115464124],[-100.5536811975795,22.029580723460505],[-100.54987749022872,21.994298453523978],[-100.50074627028124,21.972292501656348]]]}},{"type":"Feature","properties":{"cvegeo":"24054","cve_ent":"24","state_code":"SLP","nom_mun":"Xilitla"},"geometry":{"type":"Polygon","coordinates":[[[-98.94915064677876,21.464518802363635],[-98.92981513441234,21.387952639253953],[-98.90540801224488,21.353034104059038],[-98.86768791434972,21.335756703832388],[-98.93298489053798,21.33502923434916],[-98.94534693942799,21.31138647614427],[-99.05502050137525,21.282287696815175],[-99.10478567254785,21.30047443389586],[-99.13806811186711,21.329755080595763],[-99.12950977032787,21.362127472599383],[-99.09305757488298,21.36340054419503],[-99.09844616029656,21.40832178478432],[-99.12253630685146,21.45324302537361],[-99.12919279471531,21.48670662160207],[-99.04994889157422,21.481796202590285],[-99.0074741594906,21.50289281760388],[-98.9852858666111,21.457062240160553],[-98.94915064677876,21.464518802363635]]]}},{"type":"Feature","properties":{"cvegeo":"24053","cve_ent":"24","state_code":"SLP","nom_mun":"Axtla de Terrazas"},"geometry":{"type":"Polygon","coordinates":[[[-98.94915064677876,21.464518802363635],[-98.95422225657978,21.469065486633806],[-98.92537747583643,21.46706494555493],[-98.86642001189946,21.511440584031803],[-98.82965084084199,21.502529082862267],[-98.79256469417197,21.489798366905788],[-98.79731932836043,21.459426515981043],[-98.83091874329226,21.432692012472437],[-98.78020264528196,21.379041138084418],[-98.81602088950173,21.359399462037278],[-98.8340884994179,21.381587281275714],[-98.86705396312459,21.368492830577622],[-98.86768791434972,21.335756703832388],[-98.90540801224488,21.353034104059038],[-98.92981513441234,21.387952639253953],[-98.94915064677876,21.464518802363635]]]}},{"type":"Feature","properties":{"cvegeo":"24052","cve_ent":"24","state_code":"SLP","nom_mun":"Villa Juárez"},"geometry":{"type":"Polygon","coordinates":[[[-99.99421924140341,22.430234541347986],[-99.9739328021993,22.379675412263683],[-100.00816616835625,22.402045098872925],[-100.04905602237704,22.34766675500168],[-100.0734631445445,22.34584808129361],[-100.08265543730887,22.29856256488383],[-100.12481319377993,22.307655933424172],[-100.13432246215686,22.2525501200697],[-100.15968051116201,22.242729282046128],[-100.13844314512019,22.1941706940407],[-100.14002802318302,22.160888965183048],[-100.19423085293153,22.139246748057033],[-100.2148342677482,22.15325053560916],[-100.23829046307796,22.125242960504906],[-100.31056090274264,22.13779180909058],[-100.32038714673213,22.150704392417865],[-100.35271865921369,22.203082195210236],[-100.2896405123134,22.24254741467532],[-100.319753195507,22.29619828906334],[-100.33623592736035,22.349121693968133],[-100.29598002456468,22.3562145214296],[-100.32989641510906,22.37694740170158],[-100.30675719539187,22.394406669299038],[-100.28900656108826,22.37367378902706],[-100.26650129259619,22.405682446289063],[-100.21103056039743,22.369308972127694],[-100.15936353554945,22.360579338328964],[-100.14605055982175,22.4491487479119],[-100.08645914465964,22.408410456851165],[-100.05539553462833,22.433508154022512],[-100.03479211981166,22.420413703324417],[-99.99421924140341,22.430234541347986]]]}},{"type":"Feature","properties":{"cvegeo":"24051","cve_ent":"24","state_code":"SLP","nom_mun":"Villa Hidalgo"},"geometry":{"type":"Polygon","coordinates":[[[-100.44939622104582,22.390587454512094],[-100.47253544076302,22.421686774920065],[-100.52230061193562,22.434963092988966],[-100.55685095370514,22.37003644161092],[-100.5945710516003,22.37531059536432],[-100.63102324704519,22.344756877068768],[-100.6487738813488,22.36094307307058],[-100.68776188169421,22.339300855944565],[-100.75527768717042,22.363852951003487],[-100.76225115064683,22.401135762018892],[-100.78412246791378,22.405136844176642],[-100.75971534574632,22.454968503777717],[-100.77746598004993,22.481703007286324],[-100.91883710325362,22.452240493215616],[-100.93563681071953,22.498980407512974],[-100.90901085926413,22.516803409852045],[-100.8808000297459,22.535899483786764],[-100.90203739578772,22.56099718095811],[-100.88492071270923,22.577910846443146],[-100.82089163897123,22.522441298347058],[-100.78792617526454,22.505345765491214],[-100.75559466278298,22.529534125808524],[-100.76130022380914,22.58627674550026],[-100.71470480876218,22.585913010758645],[-100.70899924773603,22.61464805534613],[-100.66113593023881,22.610646973188377],[-100.66620754003984,22.69285102479307],[-100.73087056500296,22.7361354590451],[-100.70995017457372,22.761415023587254],[-100.74164773583016,22.771599596352438],[-100.80282402905507,22.822886194919967],[-100.83578949276176,22.81233788741317],[-100.84339690746332,22.847802024720504],[-100.7990203217043,22.844346544675176],[-100.77366227269916,22.920548973043243],[-100.85607593196588,22.925823126796644],[-100.84910246848946,22.96401527466608],[-100.76510393115991,22.942918659652484],[-100.74545144318093,22.96965316316109],[-100.76859066289812,22.998933809860993],[-100.76225115064683,23.02621391548202],[-100.67888656454241,22.973472377948035],[-100.67825261331728,22.949829619743145],[-100.64275134471008,22.931824750033268],[-100.55558305125489,22.937644505899087],[-100.5403682218518,22.850711902653416],[-100.56192256350617,22.85089377002422],[-100.5527302707418,22.79669729352378],[-100.59869173456363,22.793605548220064],[-100.56350744156899,22.758505145654343],[-100.60978588100339,22.65775062222735],[-100.61644236886724,22.579002050667988],[-100.57872227097208,22.597734389861092],[-100.56857905137002,22.56208838518295],[-100.50803670937023,22.550085138709697],[-100.47190148953788,22.45878771856466],[-100.44590948930761,22.4173219580207],[-100.44939622104582,22.390587454512094]]]}},{"type":"Feature","properties":{"cvegeo":"24050","cve_ent":"24","state_code":"SLP","nom_mun":"Villa de Reyes"},"geometry":{"type":"Polygon","coordinates":[[[-100.8256462731597,21.957561244620994],[-100.8034579802802,21.933918486416104],[-100.7901450045525,21.883904959444223],[-100.8069447120184,21.828981013460556],[-100.81106539498174,21.767327974757034],[-100.83705739521203,21.739502267023585],[-100.85322315145281,21.67421188090393],[-100.90235437140028,21.682032177848622],[-100.91249759100234,21.713677100369015],[-100.98159827454137,21.75296045246329],[-101.05925729961963,21.765509301048965],[-101.16132344686535,21.757507136733466],[-101.21964695957719,21.80224650995195],[-101.21711115467667,21.81588656276246],[-101.20918676436257,21.815704695391656],[-101.18509661780767,21.92136963783043],[-101.08588325107503,21.94046571176515],[-101.04404247021654,21.975384246960065],[-101.00663934793394,21.972656236397963],[-100.95750812798647,21.993752851411557],[-100.85829476125383,21.99520779037801],[-100.8256462731597,21.957561244620994]]]}},{"type":"Feature","properties":{"cvegeo":"24049","cve_ent":"24","state_code":"SLP","nom_mun":"Villa de Ramos"},"geometry":{"type":"Polygon","coordinates":[[[-101.62157203630879,23.049674806316105],[-101.62569271927212,23.034579814539136],[-101.59399515801569,22.974017980060456],[-101.52996608427769,22.972744908464808],[-101.5654673528849,22.864715690205543],[-101.45864657145071,22.882902427286226],[-101.45642774216276,22.814702163233658],[-101.56610130411002,22.842891605708722],[-101.5920933043403,22.813792826379625],[-101.6428094023506,22.835798778247252],[-101.66151096349189,22.821249388582707],[-101.75723759848633,22.84852949420373],[-101.78069379381608,22.808700539997034],[-101.817145989261,22.81233788741317],[-101.81017252578457,22.75123045082207],[-101.86437535553307,22.716311915627156],[-101.89734081923977,22.71194709872779],[-101.92111399018209,22.65720502011493],[-101.94615506357468,22.650475927395078],[-101.94837389286263,22.651930866361532],[-102.12492930906097,22.782693505971654],[-102.19212813892462,22.86489755757635],[-102.19719974872564,22.88272055991542],[-102.23396891978311,23.024940843886373],[-102.25996092001338,23.04585559152916],[-102.21431643180412,23.13133325580838],[-102.19941857801359,23.110782242907206],[-102.17279262655819,23.12260362200965],[-102.16360033379382,23.15824962668779],[-102.11193330894584,23.147519451810187],[-102.02761779600371,23.154430411900847],[-102.00574647873678,23.13133325580838],[-101.95534735633905,23.12023934618916],[-101.94995877092545,23.141699695944368],[-101.87071486778436,23.108417967086716],[-101.85930374573205,23.03658035561801],[-101.83077594060126,23.027123252336054],[-101.79464072076892,23.102234476479282],[-101.78259564749148,23.08441147414021],[-101.72775886651785,23.079501055128425],[-101.62157203630879,23.049674806316105]]]}},{"type":"Feature","properties":{"cvegeo":"24048","cve_ent":"24","state_code":"SLP","nom_mun":"Villa de la Paz"},"geometry":{"type":"Polygon","coordinates":[[[-100.82089163897123,23.60455215464779],[-100.84117807817536,23.60618896098505],[-100.8132842242697,23.67093374499229],[-100.81106539498174,23.718946730885296],[-100.77080949218607,23.716764322435615],[-100.77239437024889,23.69730451375928],[-100.70424461354756,23.71585498558158],[-100.66969427177804,23.71021709708657],[-100.66525661320215,23.670570010250675],[-100.69663719884602,23.666023325980504],[-100.7118520282491,23.623284493840895],[-100.7581304676835,23.629649851819135],[-100.78222061423838,23.612918053704906],[-100.82089163897123,23.60455215464779]]]}},{"type":"Feature","properties":{"cvegeo":"24047","cve_ent":"24","state_code":"SLP","nom_mun":"Villa de Guadalupe"},"geometry":{"type":"Polygon","coordinates":[[[-100.8595626637041,23.49379492582642],[-100.81803885845817,23.505252570187253],[-100.82089163897123,23.60455215464779],[-100.78222061423838,23.612918053704906],[-100.77239437024889,23.55890344457527],[-100.69758812568371,23.518528888256153],[-100.68649397924395,23.46505988123894],[-100.64718900328597,23.449783022091164],[-100.66335475952675,23.374853665318746],[-100.6379967105216,23.374126195835515],[-100.68110539383036,23.341571936461094],[-100.71343690631193,23.353393315563537],[-100.68649397924395,23.285374918881775],[-100.6586001253383,23.291194674747594],[-100.63514393000852,23.266460712317866],[-100.67603378402933,23.252456924765738],[-100.61168773467877,23.245182229933462],[-100.607884027328,23.232451513976983],[-100.48553144087816,23.22335814543664],[-100.48362958720277,23.214082909525494],[-100.479825879852,23.194259366107545],[-100.48584841649073,23.10350754807493],[-100.50550090446971,23.09896086380476],[-100.47919192862688,23.001298085681483],[-100.48743329455354,22.988021767612583],[-100.55938675860565,22.973472377948035],[-100.55558305125489,22.937644505899087],[-100.64275134471008,22.931824750033268],[-100.67825261331728,22.949829619743145],[-100.67888656454241,22.973472377948035],[-100.76225115064683,23.02621391548202],[-100.76859066289812,22.998933809860993],[-100.74545144318093,22.96965316316109],[-100.76510393115991,22.942918659652484],[-100.84910246848946,22.96401527466608],[-100.84117807817536,23.010937056334246],[-100.82311046825919,23.00784531103053],[-100.844347834301,23.069680217104857],[-100.83642344398689,23.107326762861874],[-100.86653612718051,23.107326762861874],[-100.87319261504436,23.15952269828344],[-100.91598432274054,23.148792523405834],[-100.89569788353643,23.215355981121142],[-100.91027876171438,23.264460171238987],[-100.89189417618566,23.30756273812021],[-100.91439944467773,23.32265772989718],[-100.90552412752592,23.39413160662427],[-100.84973641971459,23.392858535028623],[-100.89347905424847,23.437779775617912],[-100.8595626637041,23.49379492582642]]]}},{"type":"Feature","properties":{"cvegeo":"24046","cve_ent":"24","state_code":"SLP","nom_mun":"Villa de Arriaga"},"geometry":{"type":"Polygon","coordinates":[[[-101.14262188572405,22.07304702508334],[-101.16861388595433,22.031399397168574],[-101.10078110486556,22.010484649525786],[-101.04404247021654,21.975384246960065],[-101.08588325107503,21.94046571176515],[-101.18509661780767,21.92136963783043],[-101.20918676436257,21.815704695391656],[-101.21711115467667,21.81588656276246],[-101.29191739924187,21.812794817458744],[-101.31949427753496,21.835346371438796],[-101.36608969258192,21.839347453596545],[-101.42314530284351,21.824979931302803],[-101.47386140085379,21.827344207123293],[-101.49636666934586,21.809884939525837],[-101.48305369361816,21.867536896071606],[-101.41046627834093,21.908457054503145],[-101.43043574193248,21.932281680078844],[-101.37401408289603,21.989388034512192],[-101.32773564346164,21.99702646408608],[-101.35404461930447,22.044675715237474],[-101.35087486317883,22.087050812635468],[-101.32963749713701,22.13542753327009],[-101.3413655948019,22.151977464013513],[-101.23517876459285,22.151977464013513],[-101.19682471547256,22.13360885956202],[-101.20570003262436,22.11051170346955],[-101.14262188572405,22.07304702508334]]]}},{"type":"Feature","properties":{"cvegeo":"24045","cve_ent":"24","state_code":"SLP","nom_mun":"Venado"},"geometry":{"type":"Polygon","coordinates":[[[-101.37591593657142,22.897997419063195],[-101.4187076442676,22.945282935472974],[-101.4000060831263,22.95692244720461],[-101.33502608255061,23.029123793414932],[-101.3280526190742,23.0734994318918],[-101.18731544709563,23.02748698707767],[-101.12233544651994,23.028941926044123],[-101.100464129253,23.052584684249013],[-101.08841905597555,23.016393077458453],[-100.98413407944187,23.026941384965248],[-100.9876208111801,22.998570075119382],[-100.93563681071953,22.989476706579037],[-100.94990071328493,23.04712866312481],[-100.84117807817536,23.010937056334246],[-100.84910246848946,22.96401527466608],[-100.85607593196588,22.925823126796644],[-100.77366227269916,22.920548973043243],[-100.7990203217043,22.844346544675176],[-100.84339690746332,22.847802024720504],[-100.83578949276176,22.81233788741317],[-100.84371388307588,22.78869512920828],[-100.9448291034839,22.815975234829306],[-101.06179310452015,22.822522460178355],[-101.0551366166563,22.851075637395027],[-101.08112861688657,22.859259669081336],[-101.07890978759862,22.812519754783978],[-101.14008608082354,22.818339510649796],[-101.14737651991251,22.78742205761263],[-101.17273456891766,22.78705832287102],[-101.17273456891766,22.82797848130256],[-101.19872656914794,22.82797848130256],[-101.19809261792281,22.77887429118471],[-101.25356335012158,22.78523964916295],[-101.2320090084672,22.809791744221876],[-101.25800100869748,22.865079424947155],[-101.36577271696936,22.882174957803],[-101.37591593657142,22.897997419063195]]]}},{"type":"Feature","properties":{"cvegeo":"24044","cve_ent":"24","state_code":"SLP","nom_mun":"Vanegas"},"geometry":{"type":"Polygon","coordinates":[[[-100.60376334436467,24.401313106152582],[-100.59995963701388,24.348571568618596],[-100.63324207633315,24.225992960694782],[-100.58506178322337,24.223992419615907],[-100.5936201247626,24.17816184217258],[-100.61358958835416,24.173797025273217],[-100.67825261331728,24.172342086306763],[-100.69568627200832,24.0670408786096],[-100.74259866266785,24.072678767104613],[-100.7448174919558,24.031394873931458],[-100.78982802893994,24.043216253033904],[-100.79204685822788,24.023392709615955],[-100.82849905367279,24.03194047604388],[-100.80409193150533,23.926457400975906],[-100.8354725171492,23.782236575926078],[-100.90235437140028,23.79242114869126],[-100.90172042017515,23.816609509008572],[-100.97969642086598,23.83752425665136],[-100.98540198189214,23.812790294221628],[-101.14008608082354,23.793330485545297],[-101.18477964219511,23.842252808292336],[-101.19302100812179,23.918637104031212],[-101.20950373997513,24.086864422027546],[-101.21679417906411,24.159611370350284],[-101.17368549575536,24.164158054620454],[-101.06527983625836,24.206896886760063],[-101.01297886018523,24.390582931274977],[-100.9876208111801,24.43259429393136],[-101.01012607967216,24.385126910150774],[-101.00663934793394,24.33565898529131],[-100.94546305470902,24.281280641420064],[-100.85068734655229,24.343297414865198],[-100.74228168705528,24.460420001664808],[-100.71121807702397,24.49133745470197],[-100.60376334436467,24.401313106152582]]]}},{"type":"Feature","properties":{"cvegeo":"24043","cve_ent":"24","state_code":"SLP","nom_mun":"Tierra Nueva"},"geometry":{"type":"Polygon","coordinates":[[[-100.27759543903595,21.686578862118793],[-100.35018285431318,21.69148928113058],[-100.45129807472121,21.666209716588426],[-100.45953944064789,21.628381303460603],[-100.48584841649073,21.594372105119724],[-100.4557357332971,21.556179957250286],[-100.46429407483635,21.543085506552192],[-100.5340287096005,21.542358037068965],[-100.5847448076108,21.522352626280213],[-100.60217846630184,21.537265750686373],[-100.58949944179926,21.616923659099772],[-100.5980577833385,21.646204305799674],[-100.63863066174675,21.69603596540075],[-100.64148344225981,21.750414309271996],[-100.59488802721286,21.746595094485052],[-100.59995963701388,21.721861132055324],[-100.55494910002975,21.74150280810246],[-100.55114539267898,21.76750984212784],[-100.50518392885715,21.74332148181053],[-100.4522490015589,21.73113636796647],[-100.39963104987322,21.76169008626202],[-100.37363904964295,21.73804732805713],[-100.33243222000958,21.746958829226667],[-100.27981426832389,21.708221079244808],[-100.27759543903595,21.686578862118793]]]}},{"type":"Feature","properties":{"cvegeo":"24042","cve_ent":"24","state_code":"SLP","nom_mun":"Tanquián de Escobedo"},"geometry":{"type":"Polygon","coordinates":[[[-98.61949600971184,21.671120135600212],[-98.64390313187928,21.631836783505932],[-98.62139786338722,21.627835701348182],[-98.625201570738,21.591462227186813],[-98.60237932663337,21.543449241293807],[-98.6705290833347,21.52362569787586],[-98.73867884003603,21.627108231864955],[-98.73170537655962,21.639293345709014],[-98.67718557119855,21.67293880930828],[-98.66640840037137,21.699309578075272],[-98.61949600971184,21.671120135600212]]]}},{"type":"Feature","properties":{"cvegeo":"24041","cve_ent":"24","state_code":"SLP","nom_mun":"Tanlajás"},"geometry":{"type":"Polygon","coordinates":[[[-98.73170537655962,21.639293345709014],[-98.73677698636064,21.662208634430677],[-98.82362830420328,21.665300379734393],[-98.91903796358514,21.64020268256305],[-98.9523204029044,21.70185572126657],[-98.98179913487289,21.72840835740437],[-98.9621466468939,21.748777502934736],[-98.90762684153283,21.75023244190119],[-98.89019318284178,21.78533284446691],[-98.85849562158536,21.79460808037806],[-98.81760576756456,21.84589467894559],[-98.78242147456992,21.829344748202168],[-98.80302488938659,21.8009734383563],[-98.7291695716591,21.756415932508624],[-98.72885259604654,21.72877209214598],[-98.66640840037137,21.699309578075272],[-98.67718557119855,21.67293880930828],[-98.73170537655962,21.639293345709014]]]}},{"type":"Feature","properties":{"cvegeo":"24040","cve_ent":"24","state_code":"SLP","nom_mun":"Tamuín"},"geometry":{"type":"Polygon","coordinates":[[[-98.67084605894726,22.405682446289063],[-98.68194020538701,22.371491380577375],[-98.637563619628,22.32802507895454],[-98.67655161997342,22.327843211583733],[-98.67686859558599,22.248730905282756],[-98.66482352230854,22.215812911166715],[-98.57416849711514,22.18907840765811],[-98.5148940575656,22.182531182309063],[-98.50379991112585,22.150158790305444],[-98.50316595990073,22.043584511012632],[-98.53581444799485,22.047403725799576],[-98.52852400890586,22.016486272762414],[-98.55736878964922,22.012848925346276],[-98.56212342383769,21.96756395001537],[-98.5789231313036,21.959925520441484],[-98.70729825439216,21.852441904294636],[-98.6873287908006,21.83625570829283],[-98.7291695716591,21.756415932508624],[-98.80302488938659,21.8009734383563],[-98.78242147456992,21.829344748202168],[-98.81760576756456,21.84589467894559],[-98.86768791434972,21.87590279512872],[-98.90287220734436,21.882086285736154],[-98.87751415833921,22.05122294058652],[-98.89653269509307,22.200172317277328],[-98.9035061585695,22.31529436299806],[-98.91903796358514,22.371491380577375],[-98.91047962204591,22.371491380577375],[-98.82140947491533,22.356032654058794],[-98.75167484015117,22.36894523738608],[-98.745969279125,22.38094848385933],[-98.67084605894726,22.405682446289063]]]}},{"type":"Feature","properties":{"cvegeo":"24039","cve_ent":"24","state_code":"SLP","nom_mun":"Tampamolón Corona"},"geometry":{"type":"Polygon","coordinates":[[[-98.6705290833347,21.52362569787586],[-98.68986459570112,21.46069958757669],[-98.71712449838165,21.474885242499624],[-98.745969279125,21.473248436162365],[-98.76847454761707,21.50580269553679],[-98.79256469417197,21.489798366905788],[-98.82965084084199,21.502529082862267],[-98.82711503594149,21.5167147377852],[-98.89367991457999,21.56236344785772],[-98.88512157304076,21.583278195500505],[-98.85374098739689,21.578004041747107],[-98.82426225542841,21.64056641730466],[-98.73867884003603,21.627108231864955],[-98.6705290833347,21.52362569787586]]]}},{"type":"Feature","properties":{"cvegeo":"24038","cve_ent":"24","state_code":"SLP","nom_mun":"Tampacán"},"geometry":{"type":"Polygon","coordinates":[[[-98.76625571832913,21.324299059471556],[-98.78020264528196,21.379041138084418],[-98.83091874329226,21.432692012472437],[-98.79731932836043,21.459426515981043],[-98.79256469417197,21.489798366905788],[-98.76847454761707,21.50580269553679],[-98.745969279125,21.473248436162365],[-98.71712449838165,21.474885242499624],[-98.68986459570112,21.46069958757669],[-98.66292166863315,21.436329359888575],[-98.67750254681111,21.389771312962022],[-98.73582605952295,21.31265954773992],[-98.76625571832913,21.324299059471556]]]}},{"type":"Feature","properties":{"cvegeo":"24037","cve_ent":"24","state_code":"SLP","nom_mun":"Tamazunchale"},"geometry":{"type":"Polygon","coordinates":[[[-98.63946547330339,21.183169979725445],[-98.68257415661215,21.2006292473229],[-98.69113249815138,21.16734751846525],[-98.69683805917754,21.161709629970236],[-98.71490566909371,21.18335184709625],[-98.71966030328217,21.183897449208672],[-98.74121464493655,21.188989735591264],[-98.76847454761707,21.174440345926715],[-98.76910849884221,21.174440345926715],[-98.82457923104097,21.16098216048701],[-98.84708449953304,21.176259019634784],[-98.88258576814025,21.179532632309307],[-98.90382313418206,21.212632493796153],[-98.93298489053798,21.29811015807537],[-98.94281113452747,21.30265684234554],[-98.88290274375281,21.30229310760393],[-98.85627679229741,21.283378901040017],[-98.76942547445478,21.303566179199578],[-98.76625571832913,21.324299059471556],[-98.73582605952295,21.31265954773992],[-98.689230644476,21.327208937404468],[-98.67211396139751,21.30392991394119],[-98.69240040060164,21.273194328274833],[-98.6705290833347,21.266465235554982],[-98.66799327843418,21.227000016089896],[-98.62139786338722,21.217724780178745],[-98.63946547330339,21.183169979725445]]]}},{"type":"Feature","properties":{"cvegeo":"24036","cve_ent":"24","state_code":"SLP","nom_mun":"Tamasopo"},"geometry":{"type":"Polygon","coordinates":[[[-99.31747630857853,22.2207233301785],[-99.31303865000262,22.14688517763092],[-99.28165806435877,22.148340116597375],[-99.25281328361541,22.023760967594686],[-99.29180128396082,21.974474910106032],[-99.24362099085104,21.949377212934685],[-99.25598303974105,21.931008608483197],[-99.24679074697669,21.844076005237522],[-99.22365152725949,21.80952120478422],[-99.17261845363663,21.786969650804174],[-99.16342616087226,21.740229736506812],[-99.18561445375177,21.7398660017652],[-99.20399903928049,21.686578862118793],[-99.18846723426485,21.669847064004564],[-99.2182629418459,21.66602784921762],[-99.23411172247411,21.62874503820222],[-99.26929601546875,21.698582108592046],[-99.34061552829573,21.71513203933547],[-99.34949084544753,21.730954500595665],[-99.41668967531118,21.690761811647352],[-99.50322401754124,21.731318235337277],[-99.52065767623228,21.81497722590843],[-99.47913387098635,21.814613491166813],[-99.47057552944712,21.844621607349943],[-99.4360251876776,21.825525533415224],[-99.41637269969861,21.83952932096735],[-99.42968567542631,21.879722009915664],[-99.40242577274577,21.89099778690569],[-99.4493381634053,21.946649202372583],[-99.42366313878759,21.97283810376877],[-99.43887796819068,22.010120914784174],[-99.48991104181354,22.02539777393195],[-99.49751845651508,22.074683831420604],[-99.49054499303867,22.127789103696202],[-99.51907279816946,22.196716837231996],[-99.48103572466174,22.196716837231996],[-99.40876528499706,22.233635913505786],[-99.37516587006525,22.214721706941873],[-99.31747630857853,22.2207233301785]]]}},{"type":"Feature","properties":{"cvegeo":"24035","cve_ent":"24","state_code":"SLP","nom_mun":"Soledad de Graciano Sánchez"},"geometry":{"type":"Polygon","coordinates":[[[-100.78222061423838,22.253277589552926],[-100.76193417503427,22.247639701057913],[-100.81169934620688,22.201809123614588],[-100.8842867614841,22.169072996869357],[-100.88143398097102,22.15325053560916],[-100.87921515168308,22.13488193115767],[-100.95655720114878,22.152523066125934],[-100.95750812798647,22.211811829008965],[-100.92485963989235,22.233090311393365],[-100.88333583464642,22.315112495627254],[-100.85480802951562,22.330571222145835],[-100.88935837128514,22.363852951003487],[-100.85100432216485,22.3694908394985],[-100.81265027304457,22.429325204493953],[-100.75971534574632,22.454968503777717],[-100.78412246791378,22.405136844176642],[-100.76225115064683,22.401135762018892],[-100.75527768717042,22.363852951003487],[-100.7901450045525,22.364762287857523],[-100.80092217537968,22.32566080313405],[-100.84339690746332,22.294197747984466],[-100.78222061423838,22.253277589552926]]]}},{"type":"Feature","properties":{"cvegeo":"24034","cve_ent":"24","state_code":"SLP","nom_mun":"San Vicente Tancuayalab"},"geometry":{"type":"Polygon","coordinates":[[[-98.4882681061102,21.837528779888476],[-98.45466869117837,21.76569116841977],[-98.51330917950278,21.726225948954685],[-98.53296166748177,21.697309036996398],[-98.56719503363873,21.717678182526765],[-98.55863669209948,21.687670066343635],[-98.61949600971184,21.671120135600212],[-98.66640840037137,21.699309578075272],[-98.72885259604654,21.72877209214598],[-98.7291695716591,21.756415932508624],[-98.6873287908006,21.83625570829283],[-98.70729825439216,21.852441904294636],[-98.5789231313036,21.959925520441484],[-98.55324810668588,21.933372884303683],[-98.51235825266508,21.949377212934685],[-98.49872830132482,21.92737126106706],[-98.54342186269639,21.932645414820456],[-98.54849347249743,21.859898466497718],[-98.51806381369124,21.829526615572973],[-98.4882681061102,21.837528779888476]]]}},{"type":"Feature","properties":{"cvegeo":"24033","cve_ent":"24","state_code":"SLP","nom_mun":"Santo Domingo"},"geometry":{"type":"Polygon","coordinates":[[[-101.44660149817327,23.18134678278026],[-101.49192901076997,23.168434199452975],[-101.55754296257079,23.176072629026862],[-101.56261457237181,23.122239887268037],[-101.60033467026697,23.120057478818353],[-101.62157203630879,23.049674806316105],[-101.72775886651785,23.079501055128425],[-101.78259564749148,23.08441147414021],[-101.79464072076892,23.102234476479282],[-101.83077594060126,23.027123252336054],[-101.85930374573205,23.03658035561801],[-101.87071486778436,23.108417967086716],[-101.94995877092545,23.141699695944368],[-101.95534735633905,23.12023934618916],[-102.00574647873678,23.13133325580838],[-102.02761779600371,23.154430411900847],[-102.11193330894584,23.147519451810187],[-102.16360033379382,23.15824962668779],[-102.17279262655819,23.12260362200965],[-102.19941857801359,23.110782242907206],[-102.21431643180412,23.13133325580838],[-102.24094238325952,23.1691616689362],[-102.23967448080927,23.209354357884514],[-102.28943965198187,23.231724044493756],[-102.28595292024366,23.273189805037717],[-102.25488931021235,23.280828234611604],[-102.29641311545828,23.32029345407669],[-102.2536214077621,23.365032827295174],[-102.23808960274644,23.446691276787448],[-102.19371301698743,23.447600613641484],[-102.19181116331205,23.401406301456543],[-102.16898891920742,23.398860158265247],[-102.16898891920742,23.361031745137424],[-102.12239350416046,23.35375705030515],[-102.01240296660063,23.37267125686906],[-101.77498823278992,23.447600613641484],[-101.46657096176482,23.693667166343147],[-101.34073164357677,23.79714970033224],[-101.3191773019224,23.68766554310652],[-101.26814422829953,23.622011422245247],[-101.27543466738851,23.553083688709453],[-101.24944266715823,23.562722659362215],[-101.24151827684413,23.533442012662313],[-101.23042413040437,23.44778248101229],[-101.22788832550387,23.358667469316934],[-101.26497447217389,23.306107799153757],[-101.29635505781776,23.293558950568084],[-101.3182263750847,23.25791294588994],[-101.26751027707441,23.227904829706812],[-101.26719330146184,23.208081286288866],[-101.36640666819449,23.26827938602593],[-101.38859496107399,23.18607533442124],[-101.44660149817327,23.18134678278026]]]}},{"type":"Feature","properties":{"cvegeo":"24032","cve_ent":"24","state_code":"SLP","nom_mun":"Santa María del Río"},"geometry":{"type":"Polygon","coordinates":[[[-100.55494910002975,21.74150280810246],[-100.59995963701388,21.721861132055324],[-100.59488802721286,21.746595094485052],[-100.64148344225981,21.750414309271996],[-100.63863066174675,21.69603596540075],[-100.5980577833385,21.646204305799674],[-100.58949944179926,21.616923659099772],[-100.60217846630184,21.537265750686373],[-100.5847448076108,21.522352626280213],[-100.61485749080441,21.50580269553679],[-100.63577788123366,21.543267373923],[-100.6576491985006,21.524535034729894],[-100.68110539383036,21.547450323451557],[-100.71755758927526,21.549996466642853],[-100.75147397981965,21.580550184938403],[-100.80948051691892,21.592007829299234],[-100.8576608100287,21.618924200178647],[-100.83452159031151,21.664572910251167],[-100.85322315145281,21.67421188090393],[-100.83705739521203,21.739502267023585],[-100.81106539498174,21.767327974757034],[-100.8069447120184,21.828981013460556],[-100.7901450045525,21.883904959444223],[-100.71533875998732,21.88736043948955],[-100.71311993069936,21.90882078924476],[-100.66684149126496,21.93191794533723],[-100.63038929582007,21.909730126098793],[-100.55114539267898,21.911548799806862],[-100.49884441660586,21.964472204711655],[-100.45383387962173,21.947740406597426],[-100.42055144030246,21.957561244620994],[-100.37395602525551,21.86899183503806],[-100.33338314684727,21.866991293959185],[-100.27791241464851,21.89045218479327],[-100.24462997532925,21.836619443034444],[-100.20849475549691,21.839347453596545],[-100.17774812107818,21.783514170758842],[-100.18503856016716,21.724952877359037],[-100.16285026728765,21.670392666116985],[-100.18060090159125,21.650205387957424],[-100.22339260928744,21.6654822471052],[-100.27759543903595,21.686578862118793],[-100.27981426832389,21.708221079244808],[-100.33243222000958,21.746958829226667],[-100.37363904964295,21.73804732805713],[-100.39963104987322,21.76169008626202],[-100.4522490015589,21.73113636796647],[-100.50518392885715,21.74332148181053],[-100.55114539267898,21.76750984212784],[-100.55494910002975,21.74150280810246]]]}},{"type":"Feature","properties":{"cvegeo":"24031","cve_ent":"24","state_code":"SLP","nom_mun":"Santa Catarina"},"geometry":{"type":"Polygon","coordinates":[[[-99.23411172247411,21.62874503820222],[-99.27943923507081,21.608012157930236],[-99.27436762526978,21.56800133635273],[-99.30543123530109,21.53290093378701],[-99.37579982129037,21.547995925563978],[-99.3719961139396,21.507075767132438],[-99.41573874847349,21.428872797685493],[-99.43380635838965,21.44869634110344],[-99.47184343189737,21.43596562514696],[-99.50607679805432,21.41868822492031],[-99.55298918871384,21.428872797685493],[-99.55013640820077,21.447241402136985],[-99.52826509093383,21.49361758169273],[-99.54474782278717,21.534174005382656],[-99.50163913947841,21.50980377769454],[-99.48896011497584,21.54217616969816],[-99.51146538346791,21.60492041262652],[-99.48452245639994,21.64056641730466],[-99.51368421275586,21.65784381753131],[-99.49529962722713,21.68057723888217],[-99.51907279816946,21.723316071021777],[-99.50322401754124,21.731318235337277],[-99.41668967531118,21.690761811647352],[-99.34949084544753,21.730954500595665],[-99.34061552829573,21.71513203933547],[-99.26929601546875,21.698582108592046],[-99.23411172247411,21.62874503820222]]]}},{"type":"Feature","properties":{"cvegeo":"24030","cve_ent":"24","state_code":"SLP","nom_mun":"San Nicolás Tolentino"},"geometry":{"type":"Polygon","coordinates":[[[-100.319753195507,22.29619828906334],[-100.2896405123134,22.24254741467532],[-100.35271865921369,22.203082195210236],[-100.32038714673213,22.150704392417865],[-100.33211524439702,22.12669789947136],[-100.3536695860514,22.0985084569963],[-100.40565358651195,22.08577774103982],[-100.44210578195684,22.058861370160407],[-100.43671719654324,22.034309275101485],[-100.48172773352739,22.024488437077913],[-100.50074627028124,21.972292501656348],[-100.54987749022872,21.994298453523978],[-100.5536811975795,22.029580723460505],[-100.53085895347486,22.061953115464124],[-100.57682041729669,22.095962313805003],[-100.57840529535952,22.13088084899992],[-100.55590002686745,22.155796678800456],[-100.57618646607156,22.177620763297277],[-100.56477534401924,22.218540921728817],[-100.5936201247626,22.25655120222745],[-100.57016392943284,22.277465949870237],[-100.5251533924487,22.286923053152194],[-100.52895709979947,22.307837800794978],[-100.47665612372636,22.323114659942753],[-100.4655619772866,22.296743891175762],[-100.40311778161143,22.2605522843852],[-100.39963104987322,22.242365547304516],[-100.34733007380011,22.311475148211116],[-100.319753195507,22.29619828906334]]]}},{"type":"Feature","properties":{"cvegeo":"24029","cve_ent":"24","state_code":"SLP","nom_mun":"San Martín Chalchicuautla"},"geometry":{"type":"Polygon","coordinates":[[[-98.52218449665457,21.427599726089845],[-98.51077337460227,21.398864681502364],[-98.50443386235098,21.389407578220407],[-98.51647893562843,21.361218135745347],[-98.53930117973306,21.38358782235459],[-98.60174537540823,21.35830825781244],[-98.64390313187928,21.36631042212794],[-98.68352508344984,21.34194019443982],[-98.6277373756385,21.31084087403185],[-98.59952654612029,21.292108534838746],[-98.60935279010978,21.200992982064516],[-98.63946547330339,21.183169979725445],[-98.62139786338722,21.217724780178745],[-98.66799327843418,21.227000016089896],[-98.6705290833347,21.266465235554982],[-98.69240040060164,21.273194328274833],[-98.67211396139751,21.30392991394119],[-98.689230644476,21.327208937404468],[-98.73582605952295,21.31265954773992],[-98.67750254681111,21.389771312962022],[-98.66292166863315,21.436329359888575],[-98.68986459570112,21.46069958757669],[-98.6705290833347,21.52362569787586],[-98.60237932663337,21.543449241293807],[-98.53264469186921,21.500892276525004],[-98.51711288685355,21.46069958757669],[-98.52218449665457,21.427599726089845]]]}},{"type":"Feature","properties":{"cvegeo":"24028","cve_ent":"24","state_code":"SLP","nom_mun":"San Luis Potosí"},"geometry":{"type":"Polygon","coordinates":[[[-101.14610861746226,22.52535117627997],[-101.14484071501201,22.5475389955184],[-101.03358227500192,22.59846185934432],[-101.0462612995045,22.643019365191996],[-100.99491125026907,22.625923832336152],[-100.97842851841573,22.651748998990726],[-100.94546305470902,22.654477009552828],[-100.89538090792387,22.655386346406864],[-100.88935837128514,22.632289190314392],[-100.93278403020645,22.575546570622656],[-100.94609700593416,22.576637774847498],[-100.90901085926413,22.516803409852045],[-100.93563681071953,22.498980407512974],[-100.91883710325362,22.452240493215616],[-100.77746598004993,22.481703007286324],[-100.75971534574632,22.454968503777717],[-100.81265027304457,22.429325204493953],[-100.85100432216485,22.3694908394985],[-100.88935837128514,22.363852951003487],[-100.85480802951562,22.330571222145835],[-100.88333583464642,22.315112495627254],[-100.92485963989235,22.233090311393365],[-100.95750812798647,22.211811829008965],[-100.95655720114878,22.152523066125934],[-100.87921515168308,22.13488193115767],[-100.88143398097102,22.15325053560916],[-100.83705739521203,22.158524689362558],[-100.77207739463633,22.143247830214783],[-100.74196471144272,22.053769083777816],[-100.79838637047916,22.04449384786667],[-100.7901450045525,22.002664352581093],[-100.83642344398689,22.006665434738842],[-100.8256462731597,21.957561244620994],[-100.85829476125383,21.99520779037801],[-100.95750812798647,21.993752851411557],[-101.00663934793394,21.972656236397963],[-101.04404247021654,21.975384246960065],[-101.10078110486556,22.010484649525786],[-101.16861388595433,22.031399397168574],[-101.14262188572405,22.07304702508334],[-101.12994286122148,22.146157708147694],[-101.07161934850964,22.157069750396104],[-101.03199739693909,22.193261357186667],[-100.98857173801778,22.25418692640696],[-100.99174149414343,22.379129810151262],[-101.0079072503842,22.389859985028867],[-101.01741651876114,22.43278068453928],[-101.068449592384,22.450967421619968],[-101.09127183648863,22.492251314793123],[-101.14610861746226,22.52535117627997]]]}},{"type":"Feature","properties":{"cvegeo":"24027","cve_ent":"24","state_code":"SLP","nom_mun":"San Ciro de Acosta"},"geometry":{"type":"Polygon","coordinates":[[[-99.77487211750889,21.70240132337899],[-99.7675816784199,21.70240132337899],[-99.77392119067119,21.65293339851953],[-99.79864528845121,21.637474672000945],[-99.74444245870271,21.61819673069542],[-99.7054544583573,21.570547479544025],[-99.74666128799066,21.578185909117913],[-99.74951406850374,21.523261963134246],[-99.77772489802197,21.495072520659185],[-99.81702987397995,21.461608924430728],[-99.86742899637768,21.47343030353317],[-99.9064169967231,21.447968871620212],[-99.94413709461826,21.461427057059918],[-99.9650574850475,21.505984562907596],[-99.95745007034596,21.526171841067157],[-100.06268597371732,21.523261963134246],[-100.07599894944502,21.557816763587546],[-100.06965943719374,21.583278195500505],[-100.09850421793709,21.614377515908476],[-100.04747114431423,21.62456208867366],[-100.03701094909961,21.67057453348779],[-99.96474050943493,21.625289558156886],[-99.90388119182258,21.67639428935361],[-99.87313455740383,21.66420917550955],[-99.85348206942484,21.69549036328833],[-99.81956567888047,21.67930416728652],[-99.83890119124689,21.72477100998823],[-99.81988265449303,21.729317694258402],[-99.81005641050353,21.68748819897283],[-99.77487211750889,21.70240132337899]]]}},{"type":"Feature","properties":{"cvegeo":"24026","cve_ent":"24","state_code":"SLP","nom_mun":"San Antonio"},"geometry":{"type":"Polygon","coordinates":[[[-98.73170537655962,21.639293345709014],[-98.73867884003603,21.627108231864955],[-98.82426225542841,21.64056641730466],[-98.85374098739689,21.578004041747107],[-98.88512157304076,21.583278195500505],[-98.93171698808771,21.61419564853767],[-98.91903796358514,21.64020268256305],[-98.82362830420328,21.665300379734393],[-98.73677698636064,21.662208634430677],[-98.73170537655962,21.639293345709014]]]}},{"type":"Feature","properties":{"cvegeo":"24025","cve_ent":"24","state_code":"SLP","nom_mun":"Salinas"},"geometry":{"type":"Polygon","coordinates":[[[-101.44660149817327,23.18134678278026],[-101.41743974181735,23.113146518727692],[-101.37591593657142,23.062405522272584],[-101.41395301007914,22.99511459507405],[-101.4000060831263,22.95692244720461],[-101.4187076442676,22.945282935472974],[-101.37591593657142,22.897997419063195],[-101.45135613236172,22.885994172589943],[-101.43772618102146,22.806336264176544],[-101.4694237422779,22.812156020042362],[-101.47512930330406,22.777601219589062],[-101.49921944985894,22.77887429118471],[-101.49129505954484,22.74195521491092],[-101.49731759618356,22.7015806585918],[-101.56768618217285,22.656841285373318],[-101.57402569442414,22.612647514267252],[-101.6561223780783,22.513893531919138],[-101.69606130526141,22.520440757268183],[-101.74614345204657,22.508619378165736],[-101.73536628121938,22.48024806831987],[-101.77150150105172,22.488068365264564],[-101.79812745250713,22.470063495554687],[-101.79939535495738,22.470609097667108],[-101.83711545285254,22.499526009625395],[-101.82031574538664,22.55117634293454],[-101.87293369707231,22.562815854666177],[-101.85328120909332,22.65593194851928],[-101.94615506357468,22.650475927395078],[-101.92111399018209,22.65720502011493],[-101.89734081923977,22.71194709872779],[-101.86437535553307,22.716311915627156],[-101.81017252578457,22.75123045082207],[-101.817145989261,22.81233788741317],[-101.78069379381608,22.808700539997034],[-101.75723759848633,22.84852949420373],[-101.66151096349189,22.821249388582707],[-101.6428094023506,22.835798778247252],[-101.5920933043403,22.813792826379625],[-101.56610130411002,22.842891605708722],[-101.45642774216276,22.814702163233658],[-101.45864657145071,22.882902427286226],[-101.5654673528849,22.864715690205543],[-101.52996608427769,22.972744908464808],[-101.59399515801569,22.974017980060456],[-101.62569271927212,23.034579814539136],[-101.62157203630879,23.049674806316105],[-101.60033467026697,23.120057478818353],[-101.56261457237181,23.122239887268037],[-101.55754296257079,23.176072629026862],[-101.49192901076997,23.168434199452975],[-101.44660149817327,23.18134678278026]]]}},{"type":"Feature","properties":{"cvegeo":"24024","cve_ent":"24","state_code":"SLP","nom_mun":"Rioverde"},"geometry":{"type":"Polygon","coordinates":[[[-99.80973943489097,22.054496553261043],[-99.76282704423144,22.00757477159288],[-99.74127270257706,21.965017806824076],[-99.77930977608479,21.95374202983405],[-99.77550606873402,21.91918722938075],[-99.79737738600096,21.903182900749748],[-99.7596572881058,21.888997245826815],[-99.75268382462939,21.8673550287008],[-99.79103787374967,21.832436493505885],[-99.78247953221043,21.803155846805982],[-99.80815455682814,21.7398660017652],[-99.76821562964504,21.741866542844075],[-99.77487211750889,21.70240132337899],[-99.81005641050353,21.68748819897283],[-99.81988265449303,21.729317694258402],[-99.83890119124689,21.72477100998823],[-99.81956567888047,21.67930416728652],[-99.85348206942484,21.69549036328833],[-99.87313455740383,21.66420917550955],[-99.90388119182258,21.67639428935361],[-99.96474050943493,21.625289558156886],[-100.03701094909961,21.67057453348779],[-100.04747114431423,21.62456208867366],[-100.09850421793709,21.614377515908476],[-100.06965943719374,21.583278195500505],[-100.07599894944502,21.557816763587546],[-100.14700148665943,21.618014863324614],[-100.16728792586355,21.60146493258119],[-100.18060090159125,21.650205387957424],[-100.16285026728765,21.670392666116985],[-100.18503856016716,21.724952877359037],[-100.17774812107818,21.783514170758842],[-100.20849475549691,21.839347453596545],[-100.24462997532925,21.836619443034444],[-100.27791241464851,21.89045218479327],[-100.33338314684727,21.866991293959185],[-100.39107270833398,21.915368014593806],[-100.37680880576859,22.00757477159288],[-100.40438568406168,22.015576935908378],[-100.35493748850165,22.060861911239282],[-100.32228900040752,22.037219153034393],[-100.30453836610391,22.047039991057964],[-100.24462997532925,22.02066922229097],[-100.17552929179023,22.035946081438745],[-100.16253329167509,22.014121996941924],[-100.08899494956016,21.967200215273756],[-100.10135699845017,21.92609818947141],[-100.07219524209425,21.927189393696253],[-100.06902548596861,21.90009115544603],[-100.02655075388498,21.89318019535537],[-100.02496587582216,21.925916322100605],[-99.9641065582098,22.000845678873024],[-99.94825777758159,22.035582346697133],[-99.9739328021993,22.0586795027896],[-99.99485319262854,22.034127407730676],[-100.02940353439806,22.076866239870284],[-100.0601501688168,22.0586795027896],[-100.08962890078529,22.069227810296397],[-100.0886779739476,22.03103566242696],[-100.14826938910969,22.05395095114862],[-100.11720577907839,22.109056764503098],[-100.14605055982175,22.089596955826764],[-100.19771758466973,22.08577774103982],[-100.15872958432432,22.065408595509453],[-100.16887280392638,22.039947163596494],[-100.23955836552823,22.065772330251068],[-100.23924138991566,22.112512244548427],[-100.30992695151751,22.089415088455958],[-100.33211524439702,22.12669789947136],[-100.32038714673213,22.150704392417865],[-100.31056090274264,22.13779180909058],[-100.23829046307796,22.125242960504906],[-100.2148342677482,22.15325053560916],[-100.19423085293153,22.139246748057033],[-100.14002802318302,22.160888965183048],[-100.13844314512019,22.1941706940407],[-100.15968051116201,22.242729282046128],[-100.13432246215686,22.2525501200697],[-100.12481319377993,22.307655933424172],[-100.08265543730887,22.29856256488383],[-100.0734631445445,22.34584808129361],[-100.04905602237704,22.34766675500168],[-100.00816616835625,22.402045098872925],[-99.9739328021993,22.379675412263683],[-99.94477104584338,22.340573927540213],[-99.91814509438797,22.343301938102314],[-99.93431085062876,22.28310383836525],[-99.8645762158646,22.25891547804794],[-99.88422870384359,22.221087064920113],[-99.8316107521579,22.180166906488573],[-99.81671289836738,22.147612647114148],[-99.88993426486975,22.142520360731556],[-99.82622216674432,22.061407513351703],[-99.80973943489097,22.054496553261043]]]}},{"type":"Feature","properties":{"cvegeo":"24023","cve_ent":"24","state_code":"SLP","nom_mun":"Rayón"},"geometry":{"type":"Polygon","coordinates":[[[-99.7675816784199,21.70240132337899],[-99.77487211750889,21.70240132337899],[-99.76821562964504,21.741866542844075],[-99.80815455682814,21.7398660017652],[-99.78247953221043,21.803155846805982],[-99.79103787374967,21.832436493505885],[-99.75268382462939,21.8673550287008],[-99.7596572881058,21.888997245826815],[-99.75395172707964,21.905183441828623],[-99.69848099488088,21.914822412481385],[-99.69372636069241,21.890634052164074],[-99.63762167726853,21.905001574457817],[-99.66266275066111,21.94919534556388],[-99.52192557868254,21.939556374911117],[-99.5044919199915,21.94864974345146],[-99.4493381634053,21.946649202372583],[-99.40242577274577,21.89099778690569],[-99.42968567542631,21.879722009915664],[-99.41637269969861,21.83952932096735],[-99.4360251876776,21.825525533415224],[-99.47057552944712,21.844621607349943],[-99.47913387098635,21.814613491166813],[-99.52065767623228,21.81497722590843],[-99.50322401754124,21.731318235337277],[-99.51907279816946,21.723316071021777],[-99.60845992091261,21.74150280810246],[-99.61923709173979,21.706038670795127],[-99.65980997014803,21.65056912269904],[-99.68548499476574,21.68457832103992],[-99.7675816784199,21.70240132337899]]]}},{"type":"Feature","properties":{"cvegeo":"24022","cve_ent":"24","state_code":"SLP","nom_mun":"Moctezuma"},"geometry":{"type":"Polygon","coordinates":[[[-101.36608969258192,22.69175982056823],[-101.34960696072858,22.711765231356985],[-101.41110022956606,22.747593103405933],[-101.49129505954484,22.74195521491092],[-101.49921944985894,22.77887429118471],[-101.47512930330406,22.777601219589062],[-101.4694237422779,22.812156020042362],[-101.43772618102146,22.806336264176544],[-101.45135613236172,22.885994172589943],[-101.37591593657142,22.897997419063195],[-101.36577271696936,22.882174957803],[-101.25800100869748,22.865079424947155],[-101.2320090084672,22.809791744221876],[-101.25356335012158,22.78523964916295],[-101.19809261792281,22.77887429118471],[-101.19872656914794,22.82797848130256],[-101.17273456891766,22.82797848130256],[-101.17273456891766,22.78705832287102],[-101.14737651991251,22.78742205761263],[-101.14008608082354,22.818339510649796],[-101.07890978759862,22.812519754783978],[-101.08112861688657,22.859259669081336],[-101.0551366166563,22.851075637395027],[-101.06179310452015,22.822522460178355],[-100.9448291034839,22.815975234829306],[-100.84371388307588,22.78869512920828],[-100.81835583407073,22.76559797311581],[-100.93627076194467,22.706127342861972],[-100.94546305470902,22.654477009552828],[-100.97842851841573,22.651748998990726],[-100.99491125026907,22.625923832336152],[-101.0462612995045,22.643019365191996],[-101.03358227500192,22.59846185934432],[-101.14484071501201,22.5475389955184],[-101.14610861746226,22.52535117627997],[-101.18034198361921,22.51662154248124],[-101.2098207155877,22.543719780731458],[-101.19714169108512,22.583003132825738],[-101.22218276447771,22.59955306356916],[-101.21584325222642,22.629743047123096],[-101.32044520437266,22.687031268927253],[-101.36608969258192,22.69175982056823]]]}},{"type":"Feature","properties":{"cvegeo":"24021","cve_ent":"24","state_code":"SLP","nom_mun":"Mexquitic de Carmona"},"geometry":{"type":"Polygon","coordinates":[[[-101.0079072503842,22.389859985028867],[-100.99174149414343,22.379129810151262],[-100.98857173801778,22.25418692640696],[-101.03199739693909,22.193261357186667],[-101.07161934850964,22.157069750396104],[-101.12994286122148,22.146157708147694],[-101.14262188572405,22.07304702508334],[-101.20570003262436,22.11051170346955],[-101.19682471547256,22.13360885956202],[-101.23517876459285,22.151977464013513],[-101.3413655948019,22.151977464013513],[-101.3511918387914,22.176711426443244],[-101.324565887336,22.20962942055928],[-101.36989339993269,22.253277589552926],[-101.33724491183857,22.290378533197522],[-101.30427944813187,22.290378533197522],[-101.30237759445649,22.330207487404223],[-101.27828744790159,22.312202617694343],[-101.20633398384949,22.332935497966325],[-101.21425837416359,22.374946860622707],[-101.11599593426865,22.381675953342558],[-101.11219222691787,22.420049968582802],[-101.06179310452015,22.43641803195542],[-101.0079072503842,22.389859985028867]]]}},{"type":"Feature","properties":{"cvegeo":"24020","cve_ent":"24","state_code":"SLP","nom_mun":"Matehuala"},"geometry":{"type":"Polygon","coordinates":[[[-100.48362958720277,23.214082909525494],[-100.48553144087816,23.22335814543664],[-100.607884027328,23.232451513976983],[-100.61168773467877,23.245182229933462],[-100.67603378402933,23.252456924765738],[-100.63514393000852,23.266460712317866],[-100.6586001253383,23.291194674747594],[-100.68649397924395,23.285374918881775],[-100.71343690631193,23.353393315563537],[-100.68110539383036,23.341571936461094],[-100.6379967105216,23.374126195835515],[-100.66335475952675,23.374853665318746],[-100.64718900328597,23.449783022091164],[-100.68649397924395,23.46505988123894],[-100.69758812568371,23.518528888256153],[-100.77239437024889,23.55890344457527],[-100.78222061423838,23.612918053704906],[-100.7581304676835,23.629649851819135],[-100.7118520282491,23.623284493840895],[-100.69663719884602,23.666023325980504],[-100.66525661320215,23.670570010250675],[-100.66969427177804,23.71021709708657],[-100.70424461354756,23.71585498558158],[-100.70107485742191,23.74186201960696],[-100.60154451507671,23.738224672190825],[-100.60915192977825,23.765686645182655],[-100.61010285661595,23.786419525454637],[-100.56414139279411,23.781872841184466],[-100.51342529478381,23.79478542451175],[-100.55843583176795,23.80697053835581],[-100.52864012418691,23.817518845862608],[-100.49789348976817,23.798604639298695],[-100.49028607506662,23.73967961115728],[-100.44559251369505,23.67729910297053],[-100.47729007495148,23.633832801347694],[-100.49187095312945,23.56836054785723],[-100.46999963586251,23.56654187414916],[-100.45953944064789,23.511617928165492],[-100.49440675802995,23.52834972627972],[-100.51754597774716,23.421047977503683],[-100.45700363574737,23.366305898890822],[-100.48362958720277,23.214082909525494]]]}},{"type":"Feature","properties":{"cvegeo":"24019","cve_ent":"24","state_code":"SLP","nom_mun":"Lagunillas"},"geometry":{"type":"Polygon","coordinates":[[[-99.51907279816946,21.723316071021777],[-99.49529962722713,21.68057723888217],[-99.51368421275586,21.65784381753131],[-99.48452245639994,21.64056641730466],[-99.51146538346791,21.60492041262652],[-99.48896011497584,21.54217616969816],[-99.50163913947841,21.50980377769454],[-99.54474782278717,21.534174005382656],[-99.52826509093383,21.49361758169273],[-99.55013640820077,21.447241402136985],[-99.62589357960364,21.507257634503244],[-99.66107787259828,21.56854693846515],[-99.7054544583573,21.570547479544025],[-99.74444245870271,21.61819673069542],[-99.79864528845121,21.637474672000945],[-99.77392119067119,21.65293339851953],[-99.7675816784199,21.70240132337899],[-99.68548499476574,21.68457832103992],[-99.65980997014803,21.65056912269904],[-99.61923709173979,21.706038670795127],[-99.60845992091261,21.74150280810246],[-99.51907279816946,21.723316071021777]]]}},{"type":"Feature","properties":{"cvegeo":"24018","cve_ent":"24","state_code":"SLP","nom_mun":"Huehuetlán"},"geometry":{"type":"Polygon","coordinates":[[[-98.94915064677876,21.464518802363635],[-98.9852858666111,21.457062240160553],[-99.0074741594906,21.50289281760388],[-99.0296624523701,21.5512695382385],[-99.00145162285187,21.570547479544025],[-98.96404850056928,21.579277113342755],[-98.94312811014004,21.552360742463343],[-98.96848615914519,21.51907901360569],[-98.95422225657978,21.469065486633806],[-98.94915064677876,21.464518802363635]]]}},{"type":"Feature","properties":{"cvegeo":"24017","cve_ent":"24","state_code":"SLP","nom_mun":"Guadalcázar"},"geometry":{"type":"Polygon","coordinates":[[[-100.10420977896325,23.23154217712295],[-100.11815670591608,23.20044285671498],[-100.11562090101556,23.12605910205498],[-100.06902548596861,23.121148683043195],[-100.06965943719374,23.09677845535508],[-100.02243007092164,23.060041246452094],[-100.06680665668065,23.03148806923542],[-100.07409709576963,22.996569534040503],[-100.09945514477478,23.00784531103053],[-100.08931192517272,22.96856195893625],[-100.11118324243967,22.97565478639772],[-100.11023231560196,22.9167297582563],[-100.04430138818859,22.91782096248114],[-100.02940353439806,22.824159266515615],[-100.1019909496753,22.762869962553708],[-100.02243007092164,22.725950886279918],[-100.05412763217808,22.61228377952564],[-100.08582519343452,22.57300042743136],[-100.11815670591608,22.501708418075076],[-100.15334099891072,22.55354061875503],[-100.19327992609382,22.52462370679674],[-100.2335358288895,22.557359833541973],[-100.25192041441824,22.53208026899982],[-100.27791241464851,22.54353791336065],[-100.32197202479496,22.59555198141141],[-100.33877173226087,22.57772897907234],[-100.31341368325572,22.512256725581874],[-100.32577573214573,22.498252938029747],[-100.35779026901473,22.524441839425933],[-100.39392548884706,22.52571491102158],[-100.41547983050144,22.50207215281669],[-100.46968266024994,22.556632364058743],[-100.5064518313074,22.551358210305345],[-100.56857905137002,22.56208838518295],[-100.57872227097208,22.597734389861092],[-100.61644236886724,22.579002050667988],[-100.60978588100339,22.65775062222735],[-100.56350744156899,22.758505145654343],[-100.59869173456363,22.793605548220064],[-100.5527302707418,22.79669729352378],[-100.56192256350617,22.85089377002422],[-100.5403682218518,22.850711902653416],[-100.55558305125489,22.937644505899087],[-100.55938675860565,22.973472377948035],[-100.48743329455354,22.988021767612583],[-100.47919192862688,23.001298085681483],[-100.50550090446971,23.09896086380476],[-100.48584841649073,23.10350754807493],[-100.479825879852,23.194259366107545],[-100.33211524439702,23.162432576216347],[-100.32355690285777,23.195532437703193],[-100.36412978126602,23.188985212354147],[-100.37427300086807,23.265369508093023],[-100.33211524439702,23.259004150114784],[-100.3064402197793,23.26100469119366],[-100.27854636587364,23.310108881311507],[-100.2202228531618,23.29792376746745],[-100.22846421908847,23.250274516316054],[-100.10420977896325,23.23154217712295]]]}},{"type":"Feature","properties":{"cvegeo":"24016","cve_ent":"24","state_code":"SLP","nom_mun":"Ebano"},"geometry":{"type":"Polygon","coordinates":[[[-98.56212342383769,21.96756395001537],[-98.55736878964922,22.012848925346276],[-98.52852400890586,22.016486272762414],[-98.53581444799485,22.047403725799576],[-98.50316595990073,22.043584511012632],[-98.50379991112585,22.150158790305444],[-98.5148940575656,22.182531182309063],[-98.57416849711514,22.18907840765811],[-98.66482352230854,22.215812911166715],[-98.67686859558599,22.248730905282756],[-98.67655161997342,22.327843211583733],[-98.637563619628,22.32802507895454],[-98.68194020538701,22.371491380577375],[-98.58272683865437,22.373128186914638],[-98.57924010691616,22.348394224484906],[-98.53549747238229,22.33784591697811],[-98.47812488650814,22.29619828906334],[-98.44674430086427,22.305655392345297],[-98.40522049561834,22.256005600115028],[-98.3681343489483,22.2552781306318],[-98.37447386119959,22.236000189326276],[-98.32597659247725,22.243093016787743],[-98.34467815361855,22.222178269144955],[-98.33643678769187,22.187623468691655],[-98.4321634226863,22.128334705808623],[-98.4340652763617,22.05631522696911],[-98.49460761836148,21.96065298992471],[-98.52218449665457,21.97920346174701],[-98.56212342383769,21.96756395001537]]]}},{"type":"Feature","properties":{"cvegeo":"24015","cve_ent":"24","state_code":"SLP","nom_mun":"Charcas"},"geometry":{"type":"Polygon","coordinates":[[[-100.8595626637041,23.49379492582642],[-100.89347905424847,23.437779775617912],[-100.84973641971459,23.392858535028623],[-100.90552412752592,23.39413160662427],[-100.91439944467773,23.32265772989718],[-100.89189417618566,23.30756273812021],[-100.91027876171438,23.264460171238987],[-100.89569788353643,23.215355981121142],[-100.91598432274054,23.148792523405834],[-100.87319261504436,23.15952269828344],[-100.86653612718051,23.107326762861874],[-100.83642344398689,23.107326762861874],[-100.844347834301,23.069680217104857],[-100.82311046825919,23.00784531103053],[-100.84117807817536,23.010937056334246],[-100.94990071328493,23.04712866312481],[-100.93563681071953,22.989476706579037],[-100.9876208111801,22.998570075119382],[-100.98413407944187,23.026941384965248],[-101.08841905597555,23.016393077458453],[-101.100464129253,23.052584684249013],[-101.12233544651994,23.028941926044123],[-101.18731544709563,23.02748698707767],[-101.3280526190742,23.0734994318918],[-101.33502608255061,23.029123793414932],[-101.4000060831263,22.95692244720461],[-101.41395301007914,22.99511459507405],[-101.37591593657142,23.062405522272584],[-101.41743974181735,23.113146518727692],[-101.44660149817327,23.18134678278026],[-101.38859496107399,23.18607533442124],[-101.36640666819449,23.26827938602593],[-101.26719330146184,23.208081286288866],[-101.26751027707441,23.227904829706812],[-101.3182263750847,23.25791294588994],[-101.29635505781776,23.293558950568084],[-101.26497447217389,23.306107799153757],[-101.22788832550387,23.358667469316934],[-101.23042413040437,23.44778248101229],[-101.24151827684413,23.533442012662313],[-101.18890032515844,23.577817651139185],[-101.12613915387071,23.48870263944383],[-101.17146666646741,23.461240666451996],[-101.11155827569274,23.442326459888086],[-101.10807154395454,23.47324391292525],[-101.07827583637349,23.479063668791067],[-101.06084217768245,23.45687584955263],[-101.07986071443631,23.401951903568964],[-101.0595742752322,23.3790366148473],[-100.9590930060493,23.371216317902608],[-100.91186363977721,23.40686232258075],[-100.90172042017515,23.49743227324256],[-100.8595626637041,23.49379492582642]]]}},{"type":"Feature","properties":{"cvegeo":"24014","cve_ent":"24","state_code":"SLP","nom_mun":"Coxcatlán"},"geometry":{"type":"Polygon","coordinates":[[[-98.89367991457999,21.56236344785772],[-98.82711503594149,21.5167147377852],[-98.82965084084199,21.502529082862267],[-98.86642001189946,21.511440584031803],[-98.92537747583643,21.46706494555493],[-98.95422225657978,21.469065486633806],[-98.96848615914519,21.51907901360569],[-98.94312811014004,21.552360742463343],[-98.89367991457999,21.56236344785772]]]}},{"type":"Feature","properties":{"cvegeo":"24013","cve_ent":"24","state_code":"SLP","nom_mun":"Ciudad Valles"},"geometry":{"type":"Polygon","coordinates":[[[-99.23220986879872,22.412411539008914],[-99.11492889214992,22.406773650513905],[-99.06104303801398,22.415321416941826],[-98.93235093931285,22.392769862961778],[-98.91903796358514,22.371491380577375],[-98.9035061585695,22.31529436299806],[-98.89653269509307,22.200172317277328],[-98.87751415833921,22.05122294058652],[-98.90287220734436,21.882086285736154],[-98.86768791434972,21.87590279512872],[-98.81760576756456,21.84589467894559],[-98.85849562158536,21.79460808037806],[-98.89019318284178,21.78533284446691],[-98.90762684153283,21.75023244190119],[-98.9621466468939,21.748777502934736],[-98.96182967128134,21.763145025228475],[-99.02363991573138,21.79806356042339],[-99.11746469705042,21.806429459480505],[-99.11556284337505,21.84534907683317],[-99.14123786799276,21.846076546316397],[-99.16469406332251,21.965745276307302],[-99.15201503881994,22.00575609788481],[-99.19258791722818,22.014667599054345],[-99.21033855153178,21.98884243239977],[-99.23189289318616,22.000845678873024],[-99.22206664919666,21.958106846733415],[-99.24362099085104,21.949377212934685],[-99.29180128396082,21.974474910106032],[-99.25281328361541,22.023760967594686],[-99.28165806435877,22.148340116597375],[-99.30511425968852,22.25018584424921],[-99.33744577217008,22.327661344212927],[-99.29180128396082,22.331662426370677],[-99.27722040578286,22.284558777331704],[-99.22428547848462,22.29983563647948],[-99.20748577101871,22.344756877068768],[-99.23220986879872,22.412411539008914]]]}},{"type":"Feature","properties":{"cvegeo":"24012","cve_ent":"24","state_code":"SLP","nom_mun":"Tancanhuitz"},"geometry":{"type":"Polygon","coordinates":[[[-98.91903796358514,21.64020268256305],[-98.93171698808771,21.61419564853767],[-98.88512157304076,21.583278195500505],[-98.89367991457999,21.56236344785772],[-98.94312811014004,21.552360742463343],[-98.96404850056928,21.579277113342755],[-99.00145162285187,21.570547479544025],[-98.99099142763725,21.611103903233953],[-99.01951923276805,21.66420917550955],[-99.00810811071572,21.703674394974637],[-98.98179913487289,21.72840835740437],[-98.9523204029044,21.70185572126657],[-98.91903796358514,21.64020268256305]]]}},{"type":"Feature","properties":{"cvegeo":"24011","cve_ent":"24","state_code":"SLP","nom_mun":"Ciudad Fernández"},"geometry":{"type":"Polygon","coordinates":[[[-100.33338314684727,21.866991293959185],[-100.37395602525551,21.86899183503806],[-100.42055144030246,21.957561244620994],[-100.45383387962173,21.947740406597426],[-100.49884441660586,21.964472204711655],[-100.50074627028124,21.972292501656348],[-100.48172773352739,22.024488437077913],[-100.43671719654324,22.034309275101485],[-100.44210578195684,22.058861370160407],[-100.40565358651195,22.08577774103982],[-100.3536695860514,22.0985084569963],[-100.33211524439702,22.12669789947136],[-100.30992695151751,22.089415088455958],[-100.23924138991566,22.112512244548427],[-100.23955836552823,22.065772330251068],[-100.16887280392638,22.039947163596494],[-100.15872958432432,22.065408595509453],[-100.19771758466973,22.08577774103982],[-100.14605055982175,22.089596955826764],[-100.11720577907839,22.109056764503098],[-100.14826938910969,22.05395095114862],[-100.0886779739476,22.03103566242696],[-100.08962890078529,22.069227810296397],[-100.0601501688168,22.0586795027896],[-100.02940353439806,22.076866239870284],[-99.99485319262854,22.034127407730676],[-99.9739328021993,22.0586795027896],[-99.94825777758159,22.035582346697133],[-99.9641065582098,22.000845678873024],[-100.02496587582216,21.925916322100605],[-100.02655075388498,21.89318019535537],[-100.06902548596861,21.90009115544603],[-100.07219524209425,21.927189393696253],[-100.10135699845017,21.92609818947141],[-100.08899494956016,21.967200215273756],[-100.16253329167509,22.014121996941924],[-100.17552929179023,22.035946081438745],[-100.24462997532925,22.02066922229097],[-100.30453836610391,22.047039991057964],[-100.32228900040752,22.037219153034393],[-100.35493748850165,22.060861911239282],[-100.40438568406168,22.015576935908378],[-100.37680880576859,22.00757477159288],[-100.39107270833398,21.915368014593806],[-100.33338314684727,21.866991293959185]]]}},{"type":"Feature","properties":{"cvegeo":"24010","cve_ent":"24","state_code":"SLP","nom_mun":"Ciudad del Maíz"},"geometry":{"type":"Polygon","coordinates":[[[-99.81671289836738,22.147612647114148],[-99.8316107521579,22.180166906488573],[-99.88422870384359,22.221087064920113],[-99.8645762158646,22.25891547804794],[-99.93431085062876,22.28310383836525],[-99.91814509438797,22.343301938102314],[-99.94477104584338,22.340573927540213],[-99.9739328021993,22.379675412263683],[-99.99421924140341,22.430234541347986],[-99.96727631433545,22.449876217395126],[-100.02591680265985,22.49479745798442],[-99.99865689997932,22.518622083560114],[-100.03003748562318,22.5475389955184],[-100.08582519343452,22.57300042743136],[-100.05412763217808,22.61228377952564],[-100.02243007092164,22.725950886279918],[-99.9571330947334,22.751594185563683],[-99.88359475261846,22.74832057288916],[-99.84270489859766,22.73049757055009],[-99.84809348401126,22.678119767757718],[-99.80561875192762,22.65775062222735],[-99.78311348343556,22.668480797104955],[-99.7241560194986,22.65956929593542],[-99.68263221425266,22.681211513061434],[-99.56059660341539,22.641200691483927],[-99.51368421275586,22.615011790087742],[-99.52477835919562,22.579183918038794],[-99.49276382232662,22.579002050667988],[-99.47120948067224,22.500253479108622],[-99.44616840727966,22.488068365264564],[-99.40496157764629,22.410229130559234],[-99.3764337725155,22.423505448628134],[-99.34632108932189,22.349121693968133],[-99.37231308955216,22.343301938102314],[-99.36343777240036,22.300017503850285],[-99.31747630857853,22.2207233301785],[-99.37516587006525,22.214721706941873],[-99.40876528499706,22.233635913505786],[-99.48103572466174,22.196716837231996],[-99.51907279816946,22.196716837231996],[-99.56091357902795,22.21326676797542],[-99.61226362826338,22.186895999208428],[-99.63128216501724,22.206173940513953],[-99.67914548251446,22.202718460468624],[-99.71401279989654,22.214176104829455],[-99.75585358075503,22.178893834892925],[-99.72193719021064,22.11815013304344],[-99.76251006861888,22.1330632574496],[-99.80466782508994,22.117786398301824],[-99.81671289836738,22.147612647114148]]]}},{"type":"Feature","properties":{"cvegeo":"24009","cve_ent":"24","state_code":"SLP","nom_mun":"Cerro de San Pedro"},"geometry":{"type":"Polygon","coordinates":[[[-100.88143398097102,22.15325053560916],[-100.8842867614841,22.169072996869357],[-100.81169934620688,22.201809123614588],[-100.76193417503427,22.247639701057913],[-100.78222061423838,22.253277589552926],[-100.72294617468886,22.255096263260995],[-100.70963319896116,22.1941706940407],[-100.7261159308145,22.163253241003538],[-100.77207739463633,22.143247830214783],[-100.83705739521203,22.158524689362558],[-100.88143398097102,22.15325053560916]]]}},{"type":"Feature","properties":{"cvegeo":"24008","cve_ent":"24","state_code":"SLP","nom_mun":"Cerritos"},"geometry":{"type":"Polygon","coordinates":[[[-100.319753195507,22.29619828906334],[-100.34733007380011,22.311475148211116],[-100.39963104987322,22.242365547304516],[-100.40311778161143,22.2605522843852],[-100.4655619772866,22.296743891175762],[-100.47665612372636,22.323114659942753],[-100.48901817261637,22.36548975734075],[-100.44939622104582,22.390587454512094],[-100.44590948930761,22.4173219580207],[-100.47190148953788,22.45878771856466],[-100.50803670937023,22.550085138709697],[-100.56857905137002,22.56208838518295],[-100.5064518313074,22.551358210305345],[-100.46968266024994,22.556632364058743],[-100.41547983050144,22.50207215281669],[-100.39392548884706,22.52571491102158],[-100.35779026901473,22.524441839425933],[-100.32577573214573,22.498252938029747],[-100.31341368325572,22.512256725581874],[-100.33877173226087,22.57772897907234],[-100.32197202479496,22.59555198141141],[-100.27791241464851,22.54353791336065],[-100.25192041441824,22.53208026899982],[-100.2335358288895,22.557359833541973],[-100.19327992609382,22.52462370679674],[-100.15334099891072,22.55354061875503],[-100.11815670591608,22.501708418075076],[-100.08582519343452,22.57300042743136],[-100.03003748562318,22.5475389955184],[-99.99865689997932,22.518622083560114],[-100.02591680265985,22.49479745798442],[-99.96727631433545,22.449876217395126],[-99.99421924140341,22.430234541347986],[-100.03479211981166,22.420413703324417],[-100.05539553462833,22.433508154022512],[-100.08645914465964,22.408410456851165],[-100.14605055982175,22.4491487479119],[-100.15936353554945,22.360579338328964],[-100.21103056039743,22.369308972127694],[-100.26650129259619,22.405682446289063],[-100.28900656108826,22.37367378902706],[-100.30675719539187,22.394406669299038],[-100.32989641510906,22.37694740170158],[-100.29598002456468,22.3562145214296],[-100.33623592736035,22.349121693968133],[-100.319753195507,22.29619828906334]]]}},{"type":"Feature","properties":{"cvegeo":"24007","cve_ent":"24","state_code":"SLP","nom_mun":"Cedral"},"geometry":{"type":"Polygon","coordinates":[[[-100.61358958835416,24.173797025273217],[-100.5172290021346,24.139787826932338],[-100.53878334378896,24.118509344547938],[-100.52420246561101,24.071405695508965],[-100.54131914868948,24.025756985436445],[-100.56287349034386,23.919728308256055],[-100.54005124623923,23.888447120477277],[-100.55019446584129,23.84207094092153],[-100.52864012418691,23.817518845862608],[-100.55843583176795,23.80697053835581],[-100.51342529478381,23.79478542451175],[-100.56414139279411,23.781872841184466],[-100.61010285661595,23.786419525454637],[-100.60915192977825,23.765686645182655],[-100.60154451507671,23.738224672190825],[-100.70107485742191,23.74186201960696],[-100.70424461354756,23.71585498558158],[-100.77239437024889,23.69730451375928],[-100.77080949218607,23.716764322435615],[-100.81106539498174,23.718946730885296],[-100.81518607794509,23.77005146208202],[-100.8354725171492,23.782236575926078],[-100.80409193150533,23.926457400975906],[-100.82849905367279,24.03194047604388],[-100.79204685822788,24.023392709615955],[-100.78982802893994,24.043216253033904],[-100.7448174919558,24.031394873931458],[-100.74259866266785,24.072678767104613],[-100.69568627200832,24.0670408786096],[-100.67825261331728,24.172342086306763],[-100.61358958835416,24.173797025273217]]]}},{"type":"Feature","properties":{"cvegeo":"24006","cve_ent":"24","state_code":"SLP","nom_mun":"Catorce"},"geometry":{"type":"Polygon","coordinates":[[[-101.24151827684413,23.533442012662313],[-101.24944266715823,23.562722659362215],[-101.27543466738851,23.553083688709453],[-101.26814422829953,23.622011422245247],[-101.3191773019224,23.68766554310652],[-101.34073164357677,23.79714970033224],[-101.19302100812179,23.918637104031212],[-101.18477964219511,23.842252808292336],[-101.14008608082354,23.793330485545297],[-100.98540198189214,23.812790294221628],[-100.97969642086598,23.83752425665136],[-100.90172042017515,23.816609509008572],[-100.90235437140028,23.79242114869126],[-100.8354725171492,23.782236575926078],[-100.81518607794509,23.77005146208202],[-100.81106539498174,23.718946730885296],[-100.8132842242697,23.67093374499229],[-100.84117807817536,23.60618896098505],[-100.82089163897123,23.60455215464779],[-100.81803885845817,23.505252570187253],[-100.8595626637041,23.49379492582642],[-100.90172042017515,23.49743227324256],[-100.91186363977721,23.40686232258075],[-100.9590930060493,23.371216317902608],[-101.0595742752322,23.3790366148473],[-101.07986071443631,23.401951903568964],[-101.06084217768245,23.45687584955263],[-101.07827583637349,23.479063668791067],[-101.10807154395454,23.47324391292525],[-101.11155827569274,23.442326459888086],[-101.17146666646741,23.461240666451996],[-101.12613915387071,23.48870263944383],[-101.18890032515844,23.577817651139185],[-101.24151827684413,23.533442012662313]]]}},{"type":"Feature","properties":{"cvegeo":"24005","cve_ent":"24","state_code":"SLP","nom_mun":"Cárdenas"},"geometry":{"type":"Polygon","coordinates":[[[-99.5044919199915,21.94864974345146],[-99.52192557868254,21.939556374911117],[-99.66266275066111,21.94919534556388],[-99.63762167726853,21.905001574457817],[-99.69372636069241,21.890634052164074],[-99.69848099488088,21.914822412481385],[-99.75395172707964,21.905183441828623],[-99.7596572881058,21.888997245826815],[-99.79737738600096,21.903182900749748],[-99.77550606873402,21.91918722938075],[-99.77930977608479,21.95374202983405],[-99.74127270257706,21.965017806824076],[-99.76282704423144,22.00757477159288],[-99.80973943489097,22.054496553261043],[-99.77392119067119,22.081958526252876],[-99.73937084890169,22.07304702508334],[-99.71464675112166,22.10487381497454],[-99.6902396289542,22.060680043868476],[-99.67470782393855,22.07304702508334],[-99.59451299395977,22.038310357259235],[-99.57010587179232,22.011575853750628],[-99.53492157879768,22.016850007504026],[-99.53618948124793,21.993207249299136],[-99.5044919199915,21.94864974345146]]]}},{"type":"Feature","properties":{"cvegeo":"24004","cve_ent":"24","state_code":"SLP","nom_mun":"Armadillo de los Infante"},"geometry":{"type":"Polygon","coordinates":[[[-100.70963319896116,22.1941706940407],[-100.72294617468886,22.255096263260995],[-100.78222061423838,22.253277589552926],[-100.84339690746332,22.294197747984466],[-100.80092217537968,22.32566080313405],[-100.7901450045525,22.364762287857523],[-100.75527768717042,22.363852951003487],[-100.68776188169421,22.339300855944565],[-100.6487738813488,22.36094307307058],[-100.63102324704519,22.344756877068768],[-100.5945710516003,22.37531059536432],[-100.55685095370514,22.37003644161092],[-100.52230061193562,22.434963092988966],[-100.47253544076302,22.421686774920065],[-100.44939622104582,22.390587454512094],[-100.48901817261637,22.36548975734075],[-100.47665612372636,22.323114659942753],[-100.52895709979947,22.307837800794978],[-100.5251533924487,22.286923053152194],[-100.57016392943284,22.277465949870237],[-100.5936201247626,22.25655120222745],[-100.56477534401924,22.218540921728817],[-100.57618646607156,22.177620763297277],[-100.55590002686745,22.155796678800456],[-100.57840529535952,22.13088084899992],[-100.57682041729669,22.095962313805003],[-100.65352851553726,22.112512244548427],[-100.67793563770472,22.096507915917424],[-100.70963319896116,22.1941706940407]]]}},{"type":"Feature","properties":{"cvegeo":"24003","cve_ent":"24","state_code":"SLP","nom_mun":"Aquismón"},"geometry":{"type":"Polygon","coordinates":[[[-98.9621466468939,21.748777502934736],[-98.98179913487289,21.72840835740437],[-99.00810811071572,21.703674394974637],[-99.01951923276805,21.66420917550955],[-98.99099142763725,21.611103903233953],[-99.00145162285187,21.570547479544025],[-99.0296624523701,21.5512695382385],[-99.0074741594906,21.50289281760388],[-99.04994889157422,21.481796202590285],[-99.12919279471531,21.48670662160207],[-99.14218879483045,21.53453774012427],[-99.13077767277814,21.596554513569405],[-99.17230147802407,21.627108231864955],[-99.18846723426485,21.669847064004564],[-99.20399903928049,21.686578862118793],[-99.18561445375177,21.7398660017652],[-99.16342616087226,21.740229736506812],[-99.17261845363663,21.786969650804174],[-99.22365152725949,21.80952120478422],[-99.24679074697669,21.844076005237522],[-99.25598303974105,21.931008608483197],[-99.24362099085104,21.949377212934685],[-99.22206664919666,21.958106846733415],[-99.23189289318616,22.000845678873024],[-99.21033855153178,21.98884243239977],[-99.19258791722818,22.014667599054345],[-99.15201503881994,22.00575609788481],[-99.16469406332251,21.965745276307302],[-99.14123786799276,21.846076546316397],[-99.11556284337505,21.84534907683317],[-99.11746469705042,21.806429459480505],[-99.02363991573138,21.79806356042339],[-98.96182967128134,21.763145025228475],[-98.9621466468939,21.748777502934736]]]}},{"type":"Feature","properties":{"cvegeo":"24002","cve_ent":"24","state_code":"SLP","nom_mun":"Alaquines"},"geometry":{"type":"Polygon","coordinates":[[[-99.67914548251446,22.202718460468624],[-99.63128216501724,22.206173940513953],[-99.61226362826338,22.186895999208428],[-99.56091357902795,22.21326676797542],[-99.51907279816946,22.196716837231996],[-99.49054499303867,22.127789103696202],[-99.49751845651508,22.074683831420604],[-99.48991104181354,22.02539777393195],[-99.43887796819068,22.010120914784174],[-99.42366313878759,21.97283810376877],[-99.4493381634053,21.946649202372583],[-99.5044919199915,21.94864974345146],[-99.53618948124793,21.993207249299136],[-99.53492157879768,22.016850007504026],[-99.57010587179232,22.011575853750628],[-99.59451299395977,22.038310357259235],[-99.67470782393855,22.07304702508334],[-99.6902396289542,22.060680043868476],[-99.71464675112166,22.10487381497454],[-99.73937084890169,22.07304702508334],[-99.77392119067119,22.081958526252876],[-99.80973943489097,22.054496553261043],[-99.82622216674432,22.061407513351703],[-99.88993426486975,22.142520360731556],[-99.81671289836738,22.147612647114148],[-99.80466782508994,22.117786398301824],[-99.76251006861888,22.1330632574496],[-99.72193719021064,22.11815013304344],[-99.75585358075503,22.178893834892925],[-99.71401279989654,22.214176104829455],[-99.67914548251446,22.202718460468624]]]}},{"type":"Feature","properties":{"cvegeo":"24001","cve_ent":"24","state_code":"SLP","nom_mun":"Ahualulco"},"geometry":{"type":"Polygon","coordinates":[[[-101.14610861746226,22.52535117627997],[-101.09127183648863,22.492251314793123],[-101.068449592384,22.450967421619968],[-101.01741651876114,22.43278068453928],[-101.0079072503842,22.389859985028867],[-101.06179310452015,22.43641803195542],[-101.11219222691787,22.420049968582802],[-101.11599593426865,22.381675953342558],[-101.21425837416359,22.374946860622707],[-101.20633398384949,22.332935497966325],[-101.27828744790159,22.312202617694343],[-101.30237759445649,22.330207487404223],[-101.30427944813187,22.290378533197522],[-101.33724491183857,22.290378533197522],[-101.36989339993269,22.253277589552926],[-101.41617183936708,22.267281377105054],[-101.39176471719964,22.29983563647948],[-101.41997554671786,22.315112495627254],[-101.43328852244557,22.36312548152026],[-101.3822554488227,22.35730572565444],[-101.37464803412115,22.456241575373365],[-101.31410569212137,22.453513564811264],[-101.28589486260314,22.50789190868251],[-101.29350227730468,22.58445807179219],[-101.33724491183857,22.658659959081383],[-101.38003661953475,22.67575549193723],[-101.36608969258192,22.69175982056823],[-101.32044520437266,22.687031268927253],[-101.21584325222642,22.629743047123096],[-101.22218276447771,22.59955306356916],[-101.19714169108512,22.583003132825738],[-101.2098207155877,22.543719780731458],[-101.18034198361921,22.51662154248124],[-101.14610861746226,22.52535117627997]]]}}]}