{"type":"FeatureCollection","features":[{"type":"Feature","properties":{"cvegeo":"27004","cve_ent":"27","state_code":"TAB","nom_mun":"Centro"},"geometry":{"type":"Polygon","coordinates":[[[-92.88667508087302,18.319304491630042],[-92.86924142218199,18.341674178239284],[-92.81091790947013,18.297298539762416],[-92.79221634832885,18.254741574993613],[-92.71804405498878,18.302027091403392],[-92.67493537168004,18.294934263941926],[-92.69775761578467,18.25492344236442],[-92.69427088404646,18.230371347305496],[-92.73167400632906,18.19545281211058],[-92.65147917635028,18.159079337949212],[-92.61883068825614,18.130526160732536],[-92.62421927366974,18.081421970614688],[-92.61027234671691,18.06869125465821],[-92.64070200552308,18.07560221474887],[-92.67049771310414,18.04741277227381],[-92.59537449292638,18.02195134036085],[-92.59283868802586,17.970301007051706],[-92.6147100052928,17.987032805165935],[-92.71804405498878,17.914831458955618],[-92.75703205533421,17.883732138547646],[-92.8220120559099,17.897190323987353],[-92.84895498297786,17.844630653824176],[-92.87494698320813,17.83062686627205],[-92.88192044668456,17.79243471840261],[-92.91139917865304,17.801346219572146],[-92.93612327643307,17.782977615120654],[-92.9269309836687,17.75606124424124],[-93.01346532589876,17.730963547069898],[-92.9988844477208,17.748422814667354],[-93.03343478949031,17.77006503179337],[-93.0131483502862,17.79880007638085],[-93.04040825296673,17.840993306408038],[-93.09524503394036,17.841357041149653],[-93.11584844875705,17.822260967214934],[-93.13201420499783,17.852269083398063],[-93.09144132658959,17.886823883851363],[-93.14501020511297,17.932108859182268],[-93.2185485472279,17.956115352128773],[-93.24295566939534,17.97121034390574],[-93.19160562015992,17.962844444848624],[-93.15578737594015,18.01049369600002],[-93.11489752191935,17.97357461972623],[-93.0549891311447,17.990670152582073],[-93.05277030185674,18.018132125573906],[-93.0229745942757,18.033590852092487],[-92.99032610618157,18.043593557486865],[-92.98683937444335,18.01285797182051],[-92.9437306911346,18.018859595057133],[-92.89903712976303,18.054505599735275],[-92.87653186127096,18.173264992872145],[-92.8308873730617,18.23473616420486],[-92.85434356839146,18.29184251863821],[-92.88667508087302,18.319304491630042]]]}},{"type":"Feature","properties":{"cvegeo":"27013","cve_ent":"27","state_code":"TAB","nom_mun":"Nacajuca"},"geometry":{"type":"Polygon","coordinates":[[[-93.0229745942757,18.033590852092487],[-93.0264613260139,18.067781917804176],[-93.00649186242235,18.107429004640068],[-93.03914035051648,18.1534414494542],[-93.02487644795107,18.176174870805056],[-93.06196259462111,18.229280143080654],[-93.03026503336467,18.24692127804892],[-93.03184991142749,18.3154852768431],[-93.01726903324953,18.319668226371657],[-93.01980483815005,18.308392449381632],[-92.94943625216077,18.302572693515813],[-92.94087791062152,18.348585138329945],[-92.88667508087302,18.319304491630042],[-92.85434356839146,18.29184251863821],[-92.8308873730617,18.23473616420486],[-92.87653186127096,18.173264992872145],[-92.89903712976303,18.054505599735275],[-92.9437306911346,18.018859595057133],[-92.98683937444335,18.01285797182051],[-92.99032610618157,18.043593557486865],[-93.0229745942757,18.033590852092487]]]}},{"type":"Feature","properties":{"cvegeo":"27008","cve_ent":"27","state_code":"TAB","nom_mun":"Huimanguillo"},"geometry":{"type":"Polygon","coordinates":[[[-93.53045254999121,17.972847150243002],[-93.43504289060934,17.973029017613808],[-93.42014503681882,17.97357461972623],[-93.38717957311212,17.98266798826657],[-93.36213849971955,17.9302901854742],[-93.3412181092903,17.950659331004566],[-93.29842640159411,17.947385718330043],[-93.3412181092903,17.929380848620166],[-93.3500934264421,17.882459066952],[-93.3358295238767,17.845721858049018],[-93.34311996296569,17.78734243202002],[-93.35294620695518,17.76369967381513],[-93.3909832804629,17.773156777097086],[-93.3599196704316,17.722233913271168],[-93.36055362165672,17.66494569146701],[-93.41665830508062,17.59801849901009],[-93.44772191511191,17.582196037749895],[-93.45247654930039,17.546004430959336],[-93.48385713494426,17.550732982600312],[-93.51111703762479,17.447977918094445],[-93.55454269654611,17.388143553098992],[-93.60811157506947,17.314851002663833],[-93.64139401438874,17.31794274796755],[-93.63568845336258,17.338311893497917],[-93.69527986852468,17.387416083615765],[-93.65312211205362,17.41942474087777],[-93.62427733131027,17.49326289342535],[-93.62174152640975,17.5450950941053],[-93.64900142909028,17.555279666870483],[-93.73173206396957,17.62529860463112],[-93.74694689337267,17.66858303888315],[-93.77230494237781,17.692407664458845],[-93.8052704060845,17.689134051784322],[-93.88102757748739,17.725871260687306],[-93.86961645543506,17.74005691561024],[-93.92223440712075,17.74642227358848],[-93.94917733418872,17.768973827568527],[-93.95836962695309,17.82062416087767],[-93.9786560661572,17.851723481285642],[-94.02651938365442,17.840629571666426],[-94.03729655448161,17.87081955522036],[-94.083574993916,17.86972835099552],[-94.09023148177985,17.96830046597283],[-94.0613867010365,17.987032805165935],[-94.08389196952857,18.00649261384227],[-94.07438270115163,18.059052284005446],[-94.10132562821961,18.12852561965366],[-94.10164260383218,18.172537523388918],[-94.12034416497346,18.16489909381503],[-94.13017040896297,18.198726424785104],[-94.08452592075369,18.21054780388755],[-94.04141723744495,18.18672317831185],[-93.99640670046081,18.192906668919285],[-93.99038416382209,18.16035240954486],[-94.02303265191621,18.141983805093368],[-94.01891196895288,18.120341587967353],[-93.9564677732777,18.15125904100452],[-93.91050630945587,18.154896388420653],[-93.88705011412611,18.09397081920036],[-93.84584328449274,18.10615593304442],[-93.74346016163446,18.077602755827744],[-93.68640455137287,18.089606002300997],[-93.6835517708598,18.044321026970092],[-93.60811157506947,18.044321026970092],[-93.60811157506947,17.99721737793112],[-93.58909303831562,17.95447854579151],[-93.54186367204353,17.952478004712635],[-93.53045254999121,17.972847150243002]]]}},{"type":"Feature","properties":{"cvegeo":"27007","cve_ent":"27","state_code":"TAB","nom_mun":"Emiliano Zapata"},"geometry":{"type":"Polygon","coordinates":[[[-91.73890638777752,17.93592807396921],[-91.67202453352644,17.89446231342525],[-91.67868102139029,17.84390318434095],[-91.71037858264673,17.78606936042437],[-91.70911068019646,17.71404988158486],[-91.68533750925414,17.70823012571904],[-91.65839458218616,17.73878384401459],[-91.6181386793905,17.726598730170533],[-91.65490785044796,17.756424978982857],[-91.57059233750584,17.76188100010706],[-91.57407906924405,17.7018647677408],[-91.56647165454251,17.62984528890129],[-91.5541096056525,17.61838764454046],[-91.58453926445867,17.568374117568577],[-91.56837350821789,17.499810118774395],[-91.62035750867845,17.43142798735102],[-91.67202453352644,17.443976835936695],[-91.6821677531285,17.469256400478844],[-91.6501532162595,17.495263434504224],[-91.63525536246897,17.533455582373662],[-91.63842511859461,17.579286159816988],[-91.66314921637463,17.61256788867464],[-91.64634950890873,17.617842042428038],[-91.67836404577773,17.67131104944525],[-91.73858941216496,17.702592237224028],[-91.8216370226568,17.73187288392393],[-91.78296599792395,17.77733972662564],[-91.78803760772499,17.807165975437965],[-91.77947926618575,17.849722940206767],[-91.81434658356783,17.90028206929107],[-91.77123790025908,17.944293973026326],[-91.73890638777752,17.93592807396921]]]}},{"type":"Feature","properties":{"cvegeo":"27011","cve_ent":"27","state_code":"TAB","nom_mun":"Jonuta"},"geometry":{"type":"Polygon","coordinates":[[[-92.17601575750375,18.458251162926473],[-92.17157809892785,18.338946167677182],[-92.17918551362939,18.26874536254574],[-92.14907283043578,18.210184069145935],[-92.16080092810066,18.155260123162268],[-92.10818297641498,18.093607084458746],[-92.04161809777646,18.09797190135811],[-92.01309029264567,18.05141385443156],[-91.9791739021013,18.04286608800364],[-91.96681185321128,18.015767849753416],[-91.9097562429497,18.01376730867454],[-91.86728151086608,17.98321359037899],[-91.80452033957833,17.97230154813058],[-91.77123790025908,17.944293973026326],[-91.81434658356783,17.90028206929107],[-91.84953087656247,17.882822801693614],[-91.9132429746879,17.89973646717865],[-91.94430658471921,17.86281739090486],[-91.93891799930562,17.902282610369944],[-91.98646434119027,17.923015490641927],[-92.01562609754619,17.897554058728968],[-92.07236473219521,17.87482063737811],[-92.05810082962981,17.84663119490305],[-92.09043234211137,17.856633900297428],[-92.12054502530499,17.795708331077133],[-92.13988053767142,17.80971211862926],[-92.14938980604835,17.845358123307403],[-92.1782345867917,17.86627287095019],[-92.17062717209015,17.902282610369944],[-92.21944141642507,17.882822801693614],[-92.3151680514195,17.927562174912097],[-92.31865478315771,17.98103118192931],[-92.30724366110539,18.045957833307355],[-92.34116005164978,18.069964326253857],[-92.30787761233051,18.09342521708794],[-92.29139488047717,18.12979869124931],[-92.324994295409,18.172355656018112],[-92.31294922213155,18.209274732291902],[-92.33165078327285,18.217822498719823],[-92.31548502703207,18.257469585555715],[-92.28125166087511,18.27456511841156],[-92.21627166029943,18.266199219354444],[-92.22292814816328,18.29056944704256],[-92.2964664902782,18.307119377785984],[-92.27269331933587,18.32748852331635],[-92.31390014896924,18.374046570242903],[-92.35288814931465,18.394233848402465],[-92.31358317335668,18.427515577260117],[-92.33165078327285,18.460251704005348],[-92.17601575750375,18.458251162926473]]]}},{"type":"Feature","properties":{"cvegeo":"27014","cve_ent":"27","state_code":"TAB","nom_mun":"Paraíso"},"geometry":{"type":"Polygon","coordinates":[[[-93.09682991200319,18.442792436407892],[-93.07147186299804,18.425696903552048],[-93.01663508202441,18.422423290877525],[-92.9988844477208,18.402781614830385],[-93.08795459485138,18.374046570242903],[-93.08605274117599,18.321850634821338],[-93.11045986334345,18.27456511841156],[-93.1136296194691,18.274746985782365],[-93.15420249787734,18.28420408906432],[-93.17353801024376,18.32021382848408],[-93.22045040090327,18.330580268620068],[-93.27243440136384,18.319122624259236],[-93.2825776209659,18.368226814377085],[-93.32188259692387,18.412420585483147],[-93.38115703647341,18.42387822984398],[-93.38084006086085,18.424241964585594],[-93.38020610963571,18.424241964585594],[-93.38084006086085,18.424241964585594],[-93.38179098769854,18.424241964585594],[-93.38717957311212,18.42387822984398],[-93.40239440251521,18.422423290877525],[-93.40366230496548,18.421332086652683],[-93.42806942713293,18.427697444630923],[-93.43504289060934,18.420604617169456],[-93.4461370370491,18.417876606607354],[-93.44677098827422,18.41751287186574],[-93.44772191511191,18.413693657078795],[-93.44328425653602,18.417149137124127],[-93.43599381744704,18.419331545573808],[-93.43377498815909,18.41805847397816],[-93.43599381744704,18.414966728674443],[-93.43884659796012,18.40987444229185],[-93.43852962234756,18.40987444229185],[-93.4372617198973,18.40987444229185],[-93.43599381744704,18.397689328447793],[-93.46040093961449,18.382412469300018],[-93.49336640332119,18.40987444229185],[-93.51238494007505,18.384958612491314],[-93.52664884264044,18.40769203384217],[-93.39447001220111,18.43369906786755],[-93.09682991200319,18.442792436407892]]]}},{"type":"Feature","properties":{"cvegeo":"27002","cve_ent":"27","state_code":"TAB","nom_mun":"Cárdenas"},"geometry":{"type":"Polygon","coordinates":[[[-93.51238494007505,18.384958612491314],[-93.52855069631583,18.343310984576547],[-93.51080006201222,18.336400024485886],[-93.46927625676629,18.233099357867598],[-93.47878552514322,18.210911538629162],[-93.43979752479781,18.184177035120555],[-93.42109596365651,18.19090612784041],[-93.40841693915394,18.154714521049847],[-93.40271137812778,18.12634321120398],[-93.37386659738442,18.11706797529283],[-93.31173937732181,18.038501271104273],[-93.32822210917516,18.03577326054217],[-93.2816266941282,17.981394916670922],[-93.29842640159411,17.947385718330043],[-93.3412181092903,17.950659331004566],[-93.36213849971955,17.9302901854742],[-93.38717957311212,17.98266798826657],[-93.42014503681882,17.97357461972623],[-93.43504289060934,17.973029017613808],[-93.53045254999121,17.972847150243002],[-93.54186367204353,17.952478004712635],[-93.58909303831562,17.95447854579151],[-93.60811157506947,17.99721737793112],[-93.60811157506947,18.044321026970092],[-93.6835517708598,18.044321026970092],[-93.68640455137287,18.089606002300997],[-93.74346016163446,18.077602755827744],[-93.84584328449274,18.10615593304442],[-93.88705011412611,18.09397081920036],[-93.91050630945587,18.154896388420653],[-93.9564677732777,18.15125904100452],[-94.01891196895288,18.120341587967353],[-94.02303265191621,18.141983805093368],[-93.99038416382209,18.16035240954486],[-93.99640670046081,18.192906668919285],[-94.04141723744495,18.18672317831185],[-94.08452592075369,18.21054780388755],[-94.13017040896297,18.198726424785104],[-94.13048738457553,18.21273021233723],[-93.85693743093249,18.29875347872887],[-93.64234494122643,18.373500968130482],[-93.52664884264044,18.40769203384217],[-93.51238494007505,18.384958612491314]]]}},{"type":"Feature","properties":{"cvegeo":"27006","cve_ent":"27","state_code":"TAB","nom_mun":"Cunduacán"},"geometry":{"type":"Polygon","coordinates":[[[-93.21759762039021,18.168172706489553],[-93.19857908363635,18.152713979970972],[-93.13835371724912,18.148349163071607],[-93.12028610733294,18.12852561965366],[-93.14817996123861,18.091970278121487],[-93.08605274117599,18.087787328592928],[-93.0264613260139,18.067781917804176],[-93.0229745942757,18.033590852092487],[-93.05277030185674,18.018132125573906],[-93.0549891311447,17.990670152582073],[-93.11489752191935,17.97357461972623],[-93.15578737594015,18.01049369600002],[-93.19160562015992,17.962844444848624],[-93.24295566939534,17.97121034390574],[-93.2185485472279,17.956115352128773],[-93.24137079133253,17.95047746363376],[-93.2816266941282,17.981394916670922],[-93.32822210917516,18.03577326054217],[-93.31173937732181,18.038501271104273],[-93.37386659738442,18.11706797529283],[-93.40271137812778,18.12634321120398],[-93.40841693915394,18.154714521049847],[-93.33392767020132,18.225824663035326],[-93.31586006028515,18.170536982310043],[-93.29430571863077,18.185995708828624],[-93.23756708398176,18.152713979970972],[-93.21759762039021,18.168172706489553]]]}},{"type":"Feature","properties":{"cvegeo":"27010","cve_ent":"27","state_code":"TAB","nom_mun":"Jalpa de Méndez"},"geometry":{"type":"Polygon","coordinates":[[[-92.9988844477208,18.402781614830385],[-93.01726903324953,18.319668226371657],[-93.03184991142749,18.3154852768431],[-93.03026503336467,18.24692127804892],[-93.06196259462111,18.229280143080654],[-93.02487644795107,18.176174870805056],[-93.03914035051648,18.1534414494542],[-93.00649186242235,18.107429004640068],[-93.0264613260139,18.067781917804176],[-93.08605274117599,18.087787328592928],[-93.14817996123861,18.091970278121487],[-93.12028610733294,18.12852561965366],[-93.13835371724912,18.148349163071607],[-93.19857908363635,18.152713979970972],[-93.21759762039021,18.168172706489553],[-93.17258708340606,18.22491532618129],[-93.10570522915499,18.234918031575667],[-93.11045986334345,18.27456511841156],[-93.08605274117599,18.321850634821338],[-93.08795459485138,18.374046570242903],[-92.9988844477208,18.402781614830385]]]}},{"type":"Feature","properties":{"cvegeo":"27005","cve_ent":"27","state_code":"TAB","nom_mun":"Comalcalco"},"geometry":{"type":"Polygon","coordinates":[[[-93.1136296194691,18.274746985782365],[-93.11045986334345,18.27456511841156],[-93.10570522915499,18.234918031575667],[-93.17258708340606,18.22491532618129],[-93.21759762039021,18.168172706489553],[-93.23756708398176,18.152713979970972],[-93.29430571863077,18.185995708828624],[-93.31586006028515,18.170536982310043],[-93.33392767020132,18.225824663035326],[-93.40841693915394,18.154714521049847],[-93.42109596365651,18.19090612784041],[-93.43979752479781,18.184177035120555],[-93.47878552514322,18.210911538629162],[-93.46927625676629,18.233099357867598],[-93.51080006201222,18.336400024485886],[-93.52855069631583,18.343310984576547],[-93.51238494007505,18.384958612491314],[-93.49336640332119,18.40987444229185],[-93.46040093961449,18.382412469300018],[-93.43599381744704,18.397689328447793],[-93.4372617198973,18.40987444229185],[-93.43852962234756,18.40987444229185],[-93.43884659796012,18.40987444229185],[-93.43599381744704,18.414966728674443],[-93.43377498815909,18.41805847397816],[-93.43599381744704,18.419331545573808],[-93.44328425653602,18.417149137124127],[-93.44772191511191,18.413693657078795],[-93.44677098827422,18.41751287186574],[-93.4461370370491,18.417876606607354],[-93.43504289060934,18.420604617169456],[-93.42806942713293,18.427697444630923],[-93.40366230496548,18.421332086652683],[-93.40239440251521,18.422423290877525],[-93.38717957311212,18.42387822984398],[-93.38179098769854,18.424241964585594],[-93.38084006086085,18.424241964585594],[-93.38020610963571,18.424241964585594],[-93.38084006086085,18.424241964585594],[-93.38115703647341,18.42387822984398],[-93.32188259692387,18.412420585483147],[-93.2825776209659,18.368226814377085],[-93.27243440136384,18.319122624259236],[-93.22045040090327,18.330580268620068],[-93.17353801024376,18.32021382848408],[-93.15420249787734,18.28420408906432],[-93.1136296194691,18.274746985782365]]]}},{"type":"Feature","properties":{"cvegeo":"27017","cve_ent":"27","state_code":"TAB","nom_mun":"Tenosique"},"geometry":{"type":"Polygon","coordinates":[[[-91.46218667800883,17.633664503688234],[-91.43904745829164,17.61766017505723],[-91.38833136028134,17.62402553303547],[-91.35473194534953,17.600564642201387],[-91.35219614044901,17.559644483769848],[-91.32905692073182,17.561645024848723],[-91.29767633508794,17.591653141031852],[-91.26059018841791,17.58255977249151],[-91.25298277371637,17.53872973612706],[-91.2073382855071,17.562190626961144],[-91.17310491935015,17.56128129010711],[-91.17659165108836,17.51963366219234],[-91.14552804105705,17.505629874640213],[-91.13855457758063,17.47762229953596],[-91.05804277198929,17.483078320660166],[-91.03173379614645,17.46725585939997],[-91.03205077175902,17.42233461881068],[-90.98799116161257,17.423062088293907],[-90.98735721038744,17.25101555551063],[-91.43968140951677,17.25101555551063],[-91.42541750695138,17.302120286707353],[-91.38389370170545,17.30975871628124],[-91.41685916541213,17.345404720959383],[-91.41971194592521,17.374139765546865],[-91.51004999550605,17.391962767885936],[-91.55791331300327,17.42233461881068],[-91.55918121545352,17.40032866694305],[-91.62035750867845,17.43142798735102],[-91.56837350821789,17.499810118774395],[-91.58453926445867,17.568374117568577],[-91.5541096056525,17.61838764454046],[-91.51417067846938,17.656943527151512],[-91.46725828780987,17.66494569146701],[-91.46218667800883,17.633664503688234]]]}},{"type":"Feature","properties":{"cvegeo":"27016","cve_ent":"27","state_code":"TAB","nom_mun":"Teapa"},"geometry":{"type":"Polygon","coordinates":[[[-92.89872015415047,17.689134051784322],[-92.90569361762688,17.62347993092305],[-92.86163400748043,17.592744345256694],[-92.86512073921864,17.561645024848723],[-92.83500805602503,17.519451794821535],[-92.83374015357478,17.481805249064518],[-92.85973215380506,17.500355720886816],[-92.92059147141741,17.502719996707306],[-92.9446816179723,17.483078320660166],[-93.0042730331344,17.555279666870483],[-93.00459000874696,17.578922425075373],[-93.04452893593006,17.62002445087772],[-93.04199313102956,17.687315378076253],[-93.05815888727034,17.720233372192293],[-93.03343478949031,17.77006503179337],[-92.9988844477208,17.748422814667354],[-93.01346532589876,17.730963547069898],[-92.9269309836687,17.75606124424124],[-92.89872015415047,17.689134051784322]]]}},{"type":"Feature","properties":{"cvegeo":"27009","cve_ent":"27","state_code":"TAB","nom_mun":"Jalapa"},"geometry":{"type":"Polygon","coordinates":[[[-92.68571254250722,17.64948696494843],[-92.74625488450701,17.64494028067826],[-92.7614697139101,17.626026074114346],[-92.79411820200423,17.64712268912794],[-92.87146025146993,17.63857492270002],[-92.87431303198301,17.67312972315332],[-92.89872015415047,17.689134051784322],[-92.9269309836687,17.75606124424124],[-92.93612327643307,17.782977615120654],[-92.91139917865304,17.801346219572146],[-92.88192044668456,17.79243471840261],[-92.87494698320813,17.83062686627205],[-92.84895498297786,17.844630653824176],[-92.8220120559099,17.897190323987353],[-92.75703205533421,17.883732138547646],[-92.71804405498878,17.914831458955618],[-92.68222581076901,17.856270165555813],[-92.6939539084339,17.839538367441584],[-92.66922981065387,17.78370508460388],[-92.68666346934492,17.76588208226481],[-92.68381068883184,17.722233913271168],[-92.7028292255857,17.68640604122222],[-92.68571254250722,17.64948696494843]]]}},{"type":"Feature","properties":{"cvegeo":"27003","cve_ent":"27","state_code":"TAB","nom_mun":"Centla"},"geometry":{"type":"Polygon","coordinates":[[[-92.33165078327285,18.460251704005348],[-92.31358317335668,18.427515577260117],[-92.35288814931465,18.394233848402465],[-92.31390014896924,18.374046570242903],[-92.27269331933587,18.32748852331635],[-92.2964664902782,18.307119377785984],[-92.22292814816328,18.29056944704256],[-92.21627166029943,18.266199219354444],[-92.28125166087511,18.27456511841156],[-92.31548502703207,18.257469585555715],[-92.33165078327285,18.217822498719823],[-92.31294922213155,18.209274732291902],[-92.324994295409,18.172355656018112],[-92.29139488047717,18.12979869124931],[-92.31992268560796,18.140346998756108],[-92.3417940028749,18.123797068012685],[-92.38585361302135,18.16035240954486],[-92.41406444253958,18.156533194757916],[-92.39092522282237,18.12525200697914],[-92.44100736960755,18.096698829762463],[-92.49774600425657,18.14580301988031],[-92.50218366283246,18.167627104377132],[-92.53641702898942,18.15980680743244],[-92.52595683377479,18.14125633561014],[-92.55353371206789,18.096153227650042],[-92.5560695169684,18.062144029309163],[-92.61027234671691,18.06869125465821],[-92.62421927366974,18.081421970614688],[-92.61883068825614,18.130526160732536],[-92.65147917635028,18.159079337949212],[-92.73167400632906,18.19545281211058],[-92.69427088404646,18.230371347305496],[-92.69775761578467,18.25492344236442],[-92.67493537168004,18.294934263941926],[-92.71804405498878,18.302027091403392],[-92.79221634832885,18.254741574993613],[-92.81091790947013,18.297298539762416],[-92.86924142218199,18.341674178239284],[-92.88667508087302,18.319304491630042],[-92.94087791062152,18.348585138329945],[-92.94943625216077,18.302572693515813],[-93.01980483815005,18.308392449381632],[-93.01726903324953,18.319668226371657],[-92.9988844477208,18.402781614830385],[-93.01663508202441,18.422423290877525],[-93.07147186299804,18.425696903552048],[-93.09682991200319,18.442792436407892],[-93.0308989845898,18.431152924676255],[-92.9028408371138,18.441519364812244],[-92.81472161682092,18.474982961040702],[-92.75037556747036,18.525542090125008],[-92.68729742057005,18.61920378609053],[-92.64545663971155,18.611383489145837],[-92.573820151272,18.622841133506668],[-92.46921819912578,18.650848708610923],[-92.46604844300013,18.61647577552843],[-92.42610951581702,18.55700514527459],[-92.41438141815215,18.48734994225557],[-92.36208044207902,18.461524775600996],[-92.33165078327285,18.460251704005348]]]}},{"type":"Feature","properties":{"cvegeo":"27001","cve_ent":"27","state_code":"TAB","nom_mun":"Balancán"},"geometry":{"type":"Polygon","coordinates":[[[-91.32842296950668,18.06287149879239],[-91.21779848072173,17.974847691321877],[-91.14457711421936,17.975029558692682],[-91.1201699920519,17.963390046961045],[-90.98799116161257,17.962298842736203],[-90.987674186,17.815350007124273],[-90.98799116161257,17.423062088293907],[-91.03205077175902,17.42233461881068],[-91.03173379614645,17.46725585939997],[-91.05804277198929,17.483078320660166],[-91.13855457758063,17.47762229953596],[-91.14552804105705,17.505629874640213],[-91.17659165108836,17.51963366219234],[-91.17310491935015,17.56128129010711],[-91.2073382855071,17.562190626961144],[-91.25298277371637,17.53872973612706],[-91.26059018841791,17.58255977249151],[-91.29767633508794,17.591653141031852],[-91.32905692073182,17.561645024848723],[-91.35219614044901,17.559644483769848],[-91.35473194534953,17.600564642201387],[-91.38833136028134,17.62402553303547],[-91.43904745829164,17.61766017505723],[-91.46218667800883,17.633664503688234],[-91.46725828780987,17.66494569146701],[-91.51417067846938,17.656943527151512],[-91.5541096056525,17.61838764454046],[-91.56647165454251,17.62984528890129],[-91.57407906924405,17.7018647677408],[-91.57059233750584,17.76188100010706],[-91.65490785044796,17.756424978982857],[-91.6181386793905,17.726598730170533],[-91.65839458218616,17.73878384401459],[-91.68533750925414,17.70823012571904],[-91.70911068019646,17.71404988158486],[-91.71037858264673,17.78606936042437],[-91.67868102139029,17.84390318434095],[-91.67202453352644,17.89446231342525],[-91.63874209420717,17.873911300524078],[-91.6127500939769,17.912830917876743],[-91.62194238674127,17.942657166689067],[-91.61116521591408,18.09524389079601],[-91.57249419118124,18.141983805093368],[-91.53445711767351,18.146166754621927],[-91.51575555653221,18.169991380197622],[-91.51638950775734,18.130526160732536],[-91.43746258022881,18.083786246435178],[-91.3851616041557,18.064144570388038],[-91.32842296950668,18.06287149879239]]]}},{"type":"Feature","properties":{"cvegeo":"27015","cve_ent":"27","state_code":"TAB","nom_mun":"Tacotalpa"},"geometry":{"type":"Polygon","coordinates":[[[-92.68571254250722,17.64948696494843],[-92.63848317623514,17.649668832319236],[-92.61534395651793,17.61438656238271],[-92.5471941998166,17.56928345442261],[-92.56304298044482,17.54564069621772],[-92.59727634660177,17.520179264304762],[-92.59410659047613,17.492171689200507],[-92.65940356666438,17.444704305419922],[-92.67778815219312,17.379777654041877],[-92.7348437624547,17.347223394667452],[-92.73547771367983,17.347223394667452],[-92.75386229920856,17.34340417988051],[-92.78587683607756,17.414332454495177],[-92.85656239767941,17.418697271394542],[-92.81947625100938,17.43270105894667],[-92.83374015357478,17.481805249064518],[-92.83500805602503,17.519451794821535],[-92.86512073921864,17.561645024848723],[-92.86163400748043,17.592744345256694],[-92.90569361762688,17.62347993092305],[-92.89872015415047,17.689134051784322],[-92.87431303198301,17.67312972315332],[-92.87146025146993,17.63857492270002],[-92.79411820200423,17.64712268912794],[-92.7614697139101,17.626026074114346],[-92.74625488450701,17.64494028067826],[-92.68571254250722,17.64948696494843]]]}},{"type":"Feature","properties":{"cvegeo":"27012","cve_ent":"27","state_code":"TAB","nom_mun":"Macuspana"},"geometry":{"type":"Polygon","coordinates":[[[-92.29139488047717,18.12979869124931],[-92.30787761233051,18.09342521708794],[-92.34116005164978,18.069964326253857],[-92.30724366110539,18.045957833307355],[-92.31865478315771,17.98103118192931],[-92.3151680514195,17.927562174912097],[-92.21944141642507,17.882822801693614],[-92.17062717209015,17.902282610369944],[-92.1782345867917,17.86627287095019],[-92.14938980604835,17.845358123307403],[-92.13988053767142,17.80971211862926],[-92.13068824490705,17.76588208226481],[-92.15192561094887,17.764427143298356],[-92.17189507454042,17.78661496253679],[-92.23116951408994,17.74405799776799],[-92.27459517301126,17.69222579708804],[-92.3284810271472,17.71350427947244],[-92.35035234441415,17.702592237224028],[-92.34908444196388,17.65639792503909],[-92.35066932002671,17.617842042428038],[-92.43593575980651,17.570010923905837],[-92.47936141872783,17.574921342917623],[-92.52025127274864,17.573102669209554],[-92.53007751673813,17.550005513117085],[-92.56304298044482,17.54564069621772],[-92.5471941998166,17.56928345442261],[-92.61534395651793,17.61438656238271],[-92.63848317623514,17.649668832319236],[-92.68571254250722,17.64948696494843],[-92.7028292255857,17.68640604122222],[-92.68381068883184,17.722233913271168],[-92.68666346934492,17.76588208226481],[-92.66922981065387,17.78370508460388],[-92.6939539084339,17.839538367441584],[-92.68222581076901,17.856270165555813],[-92.71804405498878,17.914831458955618],[-92.6147100052928,17.987032805165935],[-92.59283868802586,17.970301007051706],[-92.59537449292638,18.02195134036085],[-92.67049771310414,18.04741277227381],[-92.64070200552308,18.07560221474887],[-92.61027234671691,18.06869125465821],[-92.5560695169684,18.062144029309163],[-92.55353371206789,18.096153227650042],[-92.52595683377479,18.14125633561014],[-92.53641702898942,18.15980680743244],[-92.50218366283246,18.167627104377132],[-92.49774600425657,18.14580301988031],[-92.44100736960755,18.096698829762463],[-92.39092522282237,18.12525200697914],[-92.41406444253958,18.156533194757916],[-92.38585361302135,18.16035240954486],[-92.3417940028749,18.123797068012685],[-92.31992268560796,18.140346998756108],[-92.29139488047717,18.12979869124931]]]}}]}