{"type":"FeatureCollection","features":[{"type":"Feature","properties":{"cvegeo":"28016","cve_ent":"28","state_code":"TAM","nom_mun":"Hidalgo"},"geometry":{"type":"Polygon","coordinates":[[[-99.12095142878863,24.17888931165581],[-99.13996996554249,24.141060898527986],[-99.14726040463148,24.086864422027546],[-99.17769006343765,24.095957790567887],[-99.1976595270292,24.04976347838295],[-99.18212772201356,24.01229879999674],[-99.27183182036927,24.020664699053853],[-99.34378528442137,24.005751574647693],[-99.40369367519604,23.965740753070186],[-99.42081035827451,23.966831957295028],[-99.43031962665144,23.92391125778461],[-99.48705826130046,23.96046659931679],[-99.54126109104897,23.997203808219773],[-99.54189504227409,24.033395415010332],[-99.57105679863001,24.03939703824696],[-99.65695718963495,24.117781875064708],[-99.64966675054598,24.206896886760063],[-99.59451299395977,24.330748566279524],[-99.59007533538387,24.39622081976999],[-99.41637269969861,24.37385113316075],[-99.40813133377193,24.40549605568114],[-99.33554391849471,24.40040376929855],[-99.24552284452642,24.40949713783889],[-99.22016479552127,24.4044048514563],[-99.19068606355279,24.358574274012973],[-99.14060391676763,24.308742614411898],[-99.08164645283065,24.267458721238743],[-99.08703503824425,24.255273607394685],[-99.04456030616063,24.213807846850724],[-99.12729094103992,24.2158083879296],[-99.12095142878863,24.17888931165581]]]}},{"type":"Feature","properties":{"cvegeo":"28027","cve_ent":"28","state_code":"TAM","nom_mun":"Nuevo Laredo"},"geometry":{"type":"Polygon","coordinates":[[[-99.49656752967739,27.27136208485542],[-99.61226362826338,27.278273044946076],[-99.6049731891744,27.28918508719449],[-99.73176343420013,27.294459240947887],[-99.74919709289118,27.28900321982368],[-99.76029123933093,27.437043259660452],[-99.91941299683823,27.491603470902508],[-99.92638646031465,27.54907356007747],[-99.72827670246193,27.679108730204366],[-99.7108430437709,27.657648380449157],[-99.66297972627368,27.656557176224318],[-99.63762167726853,27.626549060041185],[-99.59990157937337,27.64146218444735],[-99.55552499361436,27.614545813567936],[-99.51146538346791,27.566169092933315],[-99.52858206654639,27.498150696251553],[-99.47913387098635,27.479054622316834],[-99.49625055406483,27.439407535480942],[-99.48769221252559,27.41303676671395],[-99.50417494437893,27.339380481537177],[-99.53840831053589,27.315919590703096],[-99.494665676002,27.303734476859034],[-99.49656752967739,27.27136208485542]]]}},{"type":"Feature","properties":{"cvegeo":"28012","cve_ent":"28","state_code":"TAM","nom_mun":"González"},"geometry":{"type":"Polygon","coordinates":[[[-98.33136517789085,23.108417967086716],[-98.33073122666572,23.08568454573586],[-98.36781737333574,23.06222365490178],[-98.32787844615264,23.023122170178304],[-98.35260254393265,22.85453111744036],[-98.33643678769187,22.798334099861044],[-98.3006185434721,22.797242895636202],[-98.28952439703235,22.7706902594984],[-98.30125249469722,22.75123045082207],[-98.30917688501134,22.65156713161992],[-98.33199912911597,22.653931407440407],[-98.34372722678086,22.561724650441334],[-98.32217288512648,22.559724109362463],[-98.32914634860289,22.512802327694295],[-98.30822595817365,22.510074317132194],[-98.29206020193287,22.467699219734197],[-98.3193201046134,22.4651530765429],[-98.31266361674955,22.414230212716983],[-98.35418742199548,22.389314382916446],[-98.40965815419423,22.399862690423245],[-98.4429405935135,22.43241694979767],[-98.46100820342966,22.41222967163811],[-98.49080391101072,22.427506530785884],[-98.54564069198435,22.497343601175714],[-98.53201074064408,22.569726814756837],[-98.56275737506282,22.589368490803977],[-98.6242506439003,22.595188246669796],[-98.6838420590624,22.625196362852925],[-98.68669483957548,22.59900746145674],[-98.77576498670606,22.61046510581757],[-98.83599035309328,22.58445807179219],[-98.874027426601,22.611010707929992],[-98.85627679229741,22.715766313514735],[-98.83694127993098,22.757413941429505],[-98.8474014751456,22.787240190241825],[-98.89019318284178,22.78105669963439],[-98.90509103663231,22.804517590468475],[-98.874027426601,22.81361095900882],[-98.8882913291664,22.88672164207317],[-98.849303328821,22.895087541130284],[-98.84486567024508,22.91909403407679],[-98.78907796243377,22.91054626764887],[-98.76340293781605,23.037671559842853],[-98.77925171844427,23.04240011148383],[-98.76371991342862,23.094232312163783],[-98.75516157188937,23.058768174856446],[-98.68986459570112,23.063860461239038],[-98.69398527866446,23.038217161955274],[-98.62678644880081,23.020212292245397],[-98.62266576583748,23.047310530495615],[-98.55483298474871,23.048401734720457],[-98.54817649688486,23.095141649017815],[-98.45720449607889,23.0867757499607],[-98.41472976399527,23.17043474053185],[-98.41726556889579,23.188439610241726],[-98.36940225139857,23.16225070884554],[-98.38937171499012,23.09768779220911],[-98.36654947088549,23.09041309737684],[-98.35767415373368,23.120057478818353],[-98.33136517789085,23.108417967086716]]]}},{"type":"Feature","properties":{"cvegeo":"28041","cve_ent":"28","state_code":"TAM","nom_mun":"Victoria"},"geometry":{"type":"Polygon","coordinates":[[[-98.94090928085208,23.687119940994098],[-98.94312811014004,23.64910966049547],[-99.04170752564755,23.564541333070284],[-99.03631894023395,23.54235351383185],[-99.09495942855835,23.517801418772926],[-99.15676967300841,23.3975870866696],[-99.18656538058946,23.42595839651547],[-99.24900957626463,23.431414417639672],[-99.27912225945825,23.534896951628767],[-99.28768060099749,23.617101003233465],[-99.26105464954207,23.613463655817327],[-99.25883582025413,23.64547231307933],[-99.28768060099749,23.634742138201727],[-99.27088089353157,23.67257055132955],[-99.30701611336391,23.682755124094733],[-99.30669913775135,23.726585160459184],[-99.32635162573034,23.76605037992427],[-99.28419386925927,23.78787446442109],[-99.30574821091365,23.821701795391164],[-99.35266060157318,23.82606661229053],[-99.36882635781396,23.893721274230675],[-99.3158914305157,23.89808609113004],[-99.26992996669388,23.95682925190065],[-99.21857991745846,23.983200020667645],[-99.194172795291,23.978107734285054],[-99.17737308782509,23.938460647449162],[-99.09717825784631,23.848618166270576],[-98.94090928085208,23.687119940994098]]]}},{"type":"Feature","properties":{"cvegeo":"28039","cve_ent":"28","state_code":"TAM","nom_mun":"Tula"},"geometry":{"type":"Polygon","coordinates":[[[-99.64934977493341,23.277190887195466],[-99.61258060387594,23.21826585905405],[-99.64713094564546,23.220266400132925],[-99.63255006746749,23.168797934194586],[-99.59926762814824,23.17043474053185],[-99.5960978720226,23.112419049244465],[-99.54157806666153,23.114783325064955],[-99.49973728580304,23.085502678365053],[-99.48769221252559,23.034216079797524],[-99.46011533423248,23.024940843886373],[-99.4867412856879,23.001298085681483],[-99.47437923679789,22.970198765273512],[-99.54221201788665,22.92600499416745],[-99.51273328591817,22.89181392845576],[-99.51717094449407,22.837981186696936],[-99.49973728580304,22.82034005172867],[-99.53967621298614,22.805790662064123],[-99.53460460318512,22.768144116307106],[-99.56440031076616,22.748138705518354],[-99.53935923737357,22.72922449895444],[-99.494665676002,22.62083154595356],[-99.51368421275586,22.615011790087742],[-99.56059660341539,22.641200691483927],[-99.68263221425266,22.681211513061434],[-99.7241560194986,22.65956929593542],[-99.78311348343556,22.668480797104955],[-99.80561875192762,22.65775062222735],[-99.84809348401126,22.678119767757718],[-99.84270489859766,22.73049757055009],[-99.88359475261846,22.74832057288916],[-99.9571330947334,22.751594185563683],[-100.02243007092164,22.725950886279918],[-100.1019909496753,22.762869962553708],[-100.02940353439806,22.824159266515615],[-100.04430138818859,22.91782096248114],[-100.11023231560196,22.9167297582563],[-100.11118324243967,22.97565478639772],[-100.08931192517272,22.96856195893625],[-100.09945514477478,23.00784531103053],[-100.07409709576963,22.996569534040503],[-100.06680665668065,23.03148806923542],[-100.02243007092164,23.060041246452094],[-100.06965943719374,23.09677845535508],[-100.01640753428292,23.10859983445752],[-99.98851368037725,23.167161127857327],[-100.02084519285883,23.207717551547255],[-99.9650574850475,23.211718633705004],[-99.94762382635646,23.24136301514652],[-99.90831885039847,23.181528650151066],[-99.89690772834616,23.141699695944368],[-99.85696880116305,23.16697926048652],[-99.86552714270229,23.216992787458402],[-99.8005471421266,23.22572242125713],[-99.80149806896429,23.179709976443],[-99.74951406850374,23.17043474053185],[-99.72732577562424,23.19753297878207],[-99.71623162918448,23.160977637249893],[-99.69277543385472,23.27700901982466],[-99.64934977493341,23.277190887195466]]]}},{"type":"Feature","properties":{"cvegeo":"28008","cve_ent":"28","state_code":"TAM","nom_mun":"Casas"},"geometry":{"type":"Polygon","coordinates":[[[-99.03631894023395,23.54235351383185],[-99.04170752564755,23.564541333070284],[-98.94312811014004,23.64910966049547],[-98.94090928085208,23.687119940994098],[-98.91174752449616,23.677480970341335],[-98.84962030443356,23.69639517690525],[-98.77925171844427,23.74640870387713],[-98.73677698636064,23.76550477781185],[-98.69683805917754,23.781327239072045],[-98.73138840094705,23.803151323568866],[-98.7345581570727,23.83970666510104],[-98.7025436202037,23.825521010178107],[-98.7060303519419,23.87735321085806],[-98.69588713233985,23.916636562952338],[-98.68764576641317,23.959557262462752],[-98.67781952242368,23.956101782417424],[-98.6740158150729,23.95682925190065],[-98.61791113164901,23.979562673251507],[-98.5877984484554,23.947190281247888],[-98.54278791147127,23.94173426012368],[-98.5202826429792,23.955556180305003],[-98.48700020365993,23.906451990187154],[-98.54025210657075,23.877535078228867],[-98.52725610645561,23.793512352916103],[-98.48192859385891,23.816973243750187],[-98.45688752046632,23.773143207385736],[-98.46291005710505,23.72094727196417],[-98.49555854519917,23.724766486751115],[-98.50475083796354,23.64674538467498],[-98.4882681061102,23.63565147505576],[-98.51330917950278,23.60818950206393],[-98.41726556889579,23.50598003967048],[-98.4153637152204,23.478154331937034],[-98.4473782520894,23.413409547929795],[-98.36686644649805,23.410135935255273],[-98.35545532444573,23.381764625409403],[-98.3646476172101,23.33538844585366],[-98.29935064102185,23.280828234611604],[-98.28223395794338,23.29610509375938],[-98.24071015269745,23.2833743778029],[-98.21281629879178,23.293013348455663],[-98.2099635182787,23.253002526878156],[-98.2321518111582,23.226086155998743],[-98.26099659190156,23.234815789797473],[-98.3041052752103,23.145882645472923],[-98.32851239737776,23.166069923632485],[-98.33992351943009,23.14497330861889],[-98.31234664113698,23.124786030459333],[-98.33136517789085,23.108417967086716],[-98.35767415373368,23.120057478818353],[-98.36654947088549,23.09041309737684],[-98.38937171499012,23.09768779220911],[-98.36940225139857,23.16225070884554],[-98.41726556889579,23.188439610241726],[-98.40807327613142,23.20608074520999],[-98.46449493516786,23.236270728763927],[-98.46924956935634,23.28573865362339],[-98.51584498440329,23.298651236950676],[-98.50475083796354,23.33302417003317],[-98.56244039945025,23.32611320994251],[-98.57511942395283,23.30119738014197],[-98.65658215638186,23.2806463672408],[-98.67148001017239,23.208081286288866],[-98.72504888869577,23.183892925971556],[-98.72599981553346,23.247546505753952],[-98.745969279125,23.24645530152911],[-98.74755415718784,23.284829316769354],[-98.72758469359628,23.28573865362339],[-98.73138840094705,23.38667504442119],[-98.75167484015117,23.395586545590724],[-98.84645054830791,23.392676667657817],[-98.82965084084199,23.50488883544564],[-98.87117464608792,23.506343774412095],[-98.88131786569,23.554720495046716],[-98.90857776837052,23.546172728618792],[-98.9336188417631,23.574907773206274],[-98.97577659823416,23.574180303723047],[-99.03631894023395,23.54235351383185]]]}},{"type":"Feature","properties":{"cvegeo":"28019","cve_ent":"28","state_code":"TAM","nom_mun":"Llera"},"geometry":{"type":"Polygon","coordinates":[[[-98.41726556889579,23.188439610241726],[-98.41472976399527,23.17043474053185],[-98.45720449607889,23.0867757499607],[-98.54817649688486,23.095141649017815],[-98.55483298474871,23.048401734720457],[-98.62266576583748,23.047310530495615],[-98.62678644880081,23.020212292245397],[-98.69398527866446,23.038217161955274],[-98.68986459570112,23.063860461239038],[-98.75516157188937,23.058768174856446],[-98.76371991342862,23.094232312163783],[-98.76435386465374,23.107326762861874],[-98.91523425623437,23.13133325580838],[-98.97577659823416,23.15424854453004],[-98.99035747641213,23.174253955318793],[-99.002085574077,23.139335420123878],[-99.0696013795532,23.12824151050466],[-99.14789435585661,23.127514041021435],[-99.18561445375177,23.126968438909014],[-99.1862484049769,23.15079306448471],[-99.2670771861808,23.14315463491082],[-99.20970460030665,23.16625179100329],[-99.21667806378306,23.202261530423048],[-99.18149377078842,23.219538930649698],[-99.18339562446381,23.26900685550916],[-99.14472459973096,23.26609697757625],[-99.18688235620202,23.312473157131997],[-99.19258791722818,23.399405760377668],[-99.15676967300841,23.3975870866696],[-99.09495942855835,23.517801418772926],[-99.03631894023395,23.54235351383185],[-98.97577659823416,23.574180303723047],[-98.9336188417631,23.574907773206274],[-98.90857776837052,23.546172728618792],[-98.88131786569,23.554720495046716],[-98.87117464608792,23.506343774412095],[-98.82965084084199,23.50488883544564],[-98.84645054830791,23.392676667657817],[-98.75167484015117,23.395586545590724],[-98.73138840094705,23.38667504442119],[-98.72758469359628,23.28573865362339],[-98.74755415718784,23.284829316769354],[-98.745969279125,23.24645530152911],[-98.72599981553346,23.247546505753952],[-98.72504888869577,23.183892925971556],[-98.67148001017239,23.208081286288866],[-98.65658215638186,23.2806463672408],[-98.57511942395283,23.30119738014197],[-98.56244039945025,23.32611320994251],[-98.50475083796354,23.33302417003317],[-98.51584498440329,23.298651236950676],[-98.46924956935634,23.28573865362339],[-98.46449493516786,23.236270728763927],[-98.40807327613142,23.20608074520999],[-98.41726556889579,23.188439610241726]]]}},{"type":"Feature","properties":{"cvegeo":"28023","cve_ent":"28","state_code":"TAM","nom_mun":"Méndez"},"geometry":{"type":"Polygon","coordinates":[[[-98.15195698117942,25.446141151437914],[-98.05908312669807,25.446504886179525],[-98.05908312669807,25.425953873278353],[-98.05908312669807,25.344477291156885],[-98.07873561467706,25.344477291156885],[-98.07873561467706,25.30337526535454],[-98.1085313222581,25.308649419107937],[-98.1085313222581,25.254452942607497],[-98.17446224967149,25.259727096360894],[-98.17826595702226,25.220443744266618],[-98.20837864021587,25.222989887457913],[-98.2508533722995,25.156608297113415],[-98.31583337287519,25.157881368709063],[-98.32375776318929,25.104048626950235],[-98.38303220273883,25.073676776025493],[-98.38778683692729,25.03966757768461],[-98.41663161767065,25.017661625816984],[-98.3789115197755,24.988744713858694],[-98.40426956878065,24.97928761057674],[-98.4286766909481,24.93763998266197],[-98.51774683807868,24.919453245581288],[-98.5503953261728,24.957645393450726],[-98.60681698520926,24.95910033241718],[-98.59065122896848,25.031847280739917],[-98.68130625416188,25.046760405146077],[-98.71807542521935,25.014388013142458],[-98.7611841085281,25.027118729098937],[-98.73867884003603,25.079314664520503],[-98.86325025577382,25.099501942680064],[-98.86388420699895,25.127145783042703],[-98.42360508114707,25.44741422303356],[-98.43374830074913,25.489425585689943],[-98.3779605929378,25.489789320431555],[-98.37447386119959,25.458508132652778],[-98.29776576295902,25.46651029696828],[-98.26258146996437,25.504156842725294],[-98.23849132340949,25.475421798137816],[-98.23944225024718,25.445959284067104],[-98.15195698117942,25.446141151437914]]]}},{"type":"Feature","properties":{"cvegeo":"28001","cve_ent":"28","state_code":"TAM","nom_mun":"Abasolo"},"geometry":{"type":"Polygon","coordinates":[[[-98.18460546927355,24.46260241011449],[-98.18460546927355,24.42259158853698],[-98.11138410277118,24.41822677163762],[-98.11106712715862,24.402222443006615],[-98.01914419951495,24.404222984085493],[-98.01185376042598,24.3645758972496],[-98.06890937068756,24.324383208301285],[-98.05369454128447,24.30055858272559],[-98.0197781507401,24.322200799851604],[-98.0197781507401,24.262912036968572],[-98.00202751643648,24.23363139026867],[-98.03594390698088,24.233449522897864],[-98.03721180943113,24.197621650848916],[-98.07493190732629,24.169977810486273],[-98.00139356521136,24.122510426705688],[-98.13293844442556,24.115053864502606],[-98.13991190790198,24.056856305844416],[-98.20045424990177,24.056310703731995],[-98.19443171326304,24.003569166198012],[-98.21091444511639,24.007570248355762],[-98.23817434779693,23.95173696551806],[-98.2641663480272,23.925002462009452],[-98.48192859385891,23.816973243750187],[-98.52725610645561,23.793512352916103],[-98.54025210657075,23.877535078228867],[-98.48700020365993,23.906451990187154],[-98.5202826429792,23.955556180305003],[-98.50316595990073,24.067950215463632],[-98.46386098394274,24.09704899479273],[-98.46924956935634,24.117600007693902],[-98.43184644707374,24.1494267975851],[-98.35006673903214,24.16161191142916],[-98.31868615338827,24.231085247077374],[-98.28508673845644,24.333112842100014],[-98.27811327498003,24.41749930215439],[-98.23722342095922,24.423137190649406],[-98.18460546927355,24.46260241011449]]]}},{"type":"Feature","properties":{"cvegeo":"28002","cve_ent":"28","state_code":"TAM","nom_mun":"Aldama"},"geometry":{"type":"Polygon","coordinates":[[[-97.76936741681425,23.272098600812875],[-97.76112605088758,23.00202555516471],[-97.76588068507604,22.894541939017863],[-97.78838595356811,22.792878078736837],[-97.84132088086636,22.671936277150287],[-97.86002244200766,22.54881206711405],[-97.87365239334792,22.574273499027008],[-97.90978761318026,22.579002050667988],[-97.92119873523258,22.652294601103144],[-97.96113766241568,22.646656712608134],[-97.98332595529519,22.669208266588182],[-98.00995190675059,22.632834792426813],[-98.03467600453061,22.64174629359635],[-98.05718127302268,22.75177605293449],[-98.04957385832114,22.799789038827498],[-98.1104331759335,22.797424763007008],[-98.11645571257222,22.758505145654343],[-98.16210020078148,22.743046419135762],[-98.20837864021587,22.74850244025997],[-98.21757093298024,22.67902910461175],[-98.2365894697341,22.67575549193723],[-98.26099659190156,22.680665910949013],[-98.25624195771309,22.718494324076836],[-98.2793811774303,22.729770101066862],[-98.28952439703235,22.7706902594984],[-98.3006185434721,22.797242895636202],[-98.33643678769187,22.798334099861044],[-98.35260254393265,22.85453111744036],[-98.32787844615264,23.023122170178304],[-98.36781737333574,23.06222365490178],[-98.33073122666572,23.08568454573586],[-98.33136517789085,23.108417967086716],[-98.31234664113698,23.124786030459333],[-98.33992351943009,23.14497330861889],[-98.32851239737776,23.166069923632485],[-98.3041052752103,23.145882645472923],[-98.26099659190156,23.234815789797473],[-98.2321518111582,23.226086155998743],[-98.2099635182787,23.253002526878156],[-98.21281629879178,23.293013348455663],[-98.21091444511639,23.347209824956103],[-98.18302059121073,23.357576265092092],[-98.12976868829992,23.349574100776593],[-98.12057639553555,23.370125113677766],[-98.04893990709601,23.33338790477478],[-98.00646517501238,23.34211753857351],[-97.98744663825852,23.30247045173762],[-97.94592283301259,23.288466664185492],[-97.88759932030075,23.316474239289747],[-97.86287522252074,23.297560032725833],[-97.85590175904431,23.327931883650578],[-97.81786468553659,23.338298323786567],[-97.80613658787172,23.29210401160163],[-97.76936741681425,23.272098600812875]]]}},{"type":"Feature","properties":{"cvegeo":"28004","cve_ent":"28","state_code":"TAM","nom_mun":"Antiguo Morelos"},"geometry":{"type":"Polygon","coordinates":[[[-98.91047962204591,22.371491380577375],[-98.91903796358514,22.371491380577375],[-98.93235093931285,22.392769862961778],[-99.06104303801398,22.415321416941826],[-99.11492889214992,22.406773650513905],[-99.11017425796145,22.44278338993366],[-99.14789435585661,22.542264841765004],[-99.18878420987741,22.621195280695176],[-99.20938762469409,22.624105158628083],[-99.19702557580408,22.710674027132143],[-99.16722986822303,22.714129507177475],[-99.1390190387048,22.766871044711458],[-99.12538908736454,22.76614357522823],[-99.08671806263169,22.746865633922706],[-99.06421279413962,22.628651842898257],[-99.03631894023395,22.636108405101336],[-99.02712664746959,22.59955306356916],[-98.96880313475775,22.502799622299918],[-98.95897689076826,22.45660531011498],[-98.9390074271767,22.455695973260944],[-98.92537747583643,22.372764452173023],[-98.91047962204591,22.371491380577375]]]}},{"type":"Feature","properties":{"cvegeo":"28005","cve_ent":"28","state_code":"TAM","nom_mun":"Burgos"},"geometry":{"type":"Polygon","coordinates":[[[-98.4286766909481,24.93763998266197],[-98.42709181288528,24.898174763196884],[-98.48192859385891,24.875986943958452],[-98.4828795206966,24.842887082471606],[-98.53296166748177,24.862528758518742],[-98.59508888754438,24.839431602426274],[-98.70286059581626,24.743587498011067],[-98.70729825439216,24.724491424076348],[-98.78717610875837,24.74740671279801],[-98.8429638165697,24.74049575270735],[-98.83884313360636,24.767957725699183],[-98.9247435246113,24.78032470691405],[-98.9247435246113,24.769412664665637],[-98.95517318341749,24.77686922686872],[-98.95549015903005,24.8534353899784],[-99.00050069601419,24.879624291374586],[-98.99923279356392,24.84652442988774],[-99.07657484302963,24.859073278473414],[-99.11334401408709,24.84034093928031],[-99.20526694173076,24.864165564856005],[-99.15898850229635,24.916543367648377],[-99.1799088927256,25.005294644602117],[-99.16691289261047,25.04657853777527],[-99.08228040405578,25.073676776025493],[-99.07340508690399,25.108231576478794],[-99.03600196462139,25.120052955581237],[-99.01825133031778,25.08695309409439],[-99.02268898889369,25.073494908654684],[-98.9478827443285,25.074040510767105],[-98.93425279298823,25.072767439171457],[-98.86388420699895,25.127145783042703],[-98.86325025577382,25.099501942680064],[-98.73867884003603,25.079314664520503],[-98.7611841085281,25.027118729098937],[-98.71807542521935,25.014388013142458],[-98.68130625416188,25.046760405146077],[-98.59065122896848,25.031847280739917],[-98.60681698520926,24.95910033241718],[-98.5503953261728,24.957645393450726],[-98.51774683807868,24.919453245581288],[-98.4286766909481,24.93763998266197]]]}},{"type":"Feature","properties":{"cvegeo":"28010","cve_ent":"28","state_code":"TAM","nom_mun":"Cruillas"},"geometry":{"type":"Polygon","coordinates":[[[-98.18460546927355,24.46260241011449],[-98.23722342095922,24.423137190649406],[-98.27811327498003,24.41749930215439],[-98.41663161767065,24.44005085613444],[-98.41314488593244,24.45678265424867],[-98.51394313072791,24.471695778654833],[-98.51711288685355,24.456055184765443],[-98.58811542406796,24.467512829126274],[-98.64675591239236,24.464421083822558],[-98.657216107607,24.50243136432119],[-98.64802381484263,24.567176148328425],[-98.6917664493765,24.579179394801677],[-98.6917664493765,24.634103340785344],[-98.66133679057033,24.677387775037374],[-98.67021210772214,24.721763413514246],[-98.70286059581626,24.743587498011067],[-98.59508888754438,24.839431602426274],[-98.53296166748177,24.862528758518742],[-98.4828795206966,24.842887082471606],[-98.48192859385891,24.875986943958452],[-98.42709181288528,24.898174763196884],[-98.38905473937756,24.87762375029571],[-98.35260254393265,24.8108784252096],[-98.33295005595366,24.815243242108963],[-98.29142625070773,24.678660846633022],[-98.32217288512648,24.632830269189697],[-98.28413581161875,24.58936396756686],[-98.22105766471844,24.62391876802016],[-98.17953385947251,24.580998068509746],[-98.13896098106429,24.573723373677474],[-98.10028995633144,24.50406817065845],[-98.14498351770301,24.47224138076725],[-98.18460546927355,24.46260241011449]]]}},{"type":"Feature","properties":{"cvegeo":"28018","cve_ent":"28","state_code":"TAM","nom_mun":"Jiménez"},"geometry":{"type":"Polygon","coordinates":[[[-98.5202826429792,23.955556180305003],[-98.54278791147127,23.94173426012368],[-98.5877984484554,23.947190281247888],[-98.61791113164901,23.979562673251507],[-98.63407688788979,24.041215711955026],[-98.66133679057033,24.067404613351215],[-98.6011114241831,24.112689588682116],[-98.65658215638186,24.098322066388377],[-98.68986459570112,24.158883900867057],[-98.72631679114602,24.350390242326664],[-98.71902635205704,24.414589424221482],[-98.6784534736488,24.40913340309728],[-98.64675591239236,24.464421083822558],[-98.58811542406796,24.467512829126274],[-98.51711288685355,24.456055184765443],[-98.51394313072791,24.471695778654833],[-98.41314488593244,24.45678265424867],[-98.41663161767065,24.44005085613444],[-98.27811327498003,24.41749930215439],[-98.28508673845644,24.333112842100014],[-98.31868615338827,24.231085247077374],[-98.35006673903214,24.16161191142916],[-98.43184644707374,24.1494267975851],[-98.46924956935634,24.117600007693902],[-98.46386098394274,24.09704899479273],[-98.50316595990073,24.067950215463632],[-98.5202826429792,23.955556180305003]]]}},{"type":"Feature","properties":{"cvegeo":"28028","cve_ent":"28","state_code":"TAM","nom_mun":"Nuevo Morelos"},"geometry":{"type":"Polygon","coordinates":[[[-99.11492889214992,22.406773650513905],[-99.23220986879872,22.412411539008914],[-99.26327347883003,22.46969976081307],[-99.2724657715944,22.513166062435907],[-99.30543123530109,22.58845915394994],[-99.20938762469409,22.624105158628083],[-99.18878420987741,22.621195280695176],[-99.14789435585661,22.542264841765004],[-99.11017425796145,22.44278338993366],[-99.11492889214992,22.406773650513905]]]}},{"type":"Feature","properties":{"cvegeo":"28029","cve_ent":"28","state_code":"TAM","nom_mun":"Ocampo"},"geometry":{"type":"Polygon","coordinates":[[[-99.35900011382446,23.0602231138229],[-99.35836616259934,23.016393077458453],[-99.33015533308111,22.978564664330626],[-99.20558391734332,22.942373057540067],[-99.16342616087226,22.948920282889112],[-99.11841562388813,22.83889052355097],[-99.09495942855835,22.775600678510187],[-99.12538908736454,22.76614357522823],[-99.1390190387048,22.766871044711458],[-99.16722986822303,22.714129507177475],[-99.19702557580408,22.710674027132143],[-99.20938762469409,22.624105158628083],[-99.30543123530109,22.58845915394994],[-99.32983835746855,22.634835333505688],[-99.37358099200242,22.62901557763987],[-99.38562606527987,22.670117603442215],[-99.44236469992889,22.66357037809317],[-99.47754899292353,22.740682143315272],[-99.54474782278717,22.743955755989795],[-99.53935923737357,22.72922449895444],[-99.56440031076616,22.748138705518354],[-99.53460460318512,22.768144116307106],[-99.53967621298614,22.805790662064123],[-99.49973728580304,22.82034005172867],[-99.51717094449407,22.837981186696936],[-99.51273328591817,22.89181392845576],[-99.54221201788665,22.92600499416745],[-99.47437923679789,22.970198765273512],[-99.4867412856879,23.001298085681483],[-99.46011533423248,23.024940843886373],[-99.48769221252559,23.034216079797524],[-99.49973728580304,23.085502678365053],[-99.47279435873506,23.07804611616197],[-99.46011533423248,23.098415261692338],[-99.42207826072477,23.091868036343293],[-99.41098411428501,23.06076871593532],[-99.35900011382446,23.0602231138229]]]}},{"type":"Feature","properties":{"cvegeo":"28037","cve_ent":"28","state_code":"TAM","nom_mun":"Soto la Marina"},"geometry":{"type":"Polygon","coordinates":[[[-97.6809312209088,24.47860673874549],[-97.70375346501343,24.34256994538197],[-97.72499083105524,24.126693376234243],[-97.73766985555781,23.953555639226128],[-97.736084977495,23.796785965590626],[-97.74242448974628,23.6685694691718],[-97.76905044120168,23.37794541062246],[-97.76936741681425,23.272098600812875],[-97.80613658787172,23.29210401160163],[-97.81786468553659,23.338298323786567],[-97.85590175904431,23.327931883650578],[-97.86287522252074,23.297560032725833],[-97.88759932030075,23.316474239289747],[-97.94592283301259,23.288466664185492],[-97.98744663825852,23.30247045173762],[-98.00646517501238,23.34211753857351],[-98.04893990709601,23.33338790477478],[-98.12057639553555,23.370125113677766],[-98.12976868829992,23.349574100776593],[-98.18302059121073,23.357576265092092],[-98.21091444511639,23.347209824956103],[-98.21281629879178,23.293013348455663],[-98.24071015269745,23.2833743778029],[-98.28223395794338,23.29610509375938],[-98.29935064102185,23.280828234611604],[-98.3646476172101,23.33538844585366],[-98.35545532444573,23.381764625409403],[-98.36686644649805,23.410135935255273],[-98.4473782520894,23.413409547929795],[-98.4153637152204,23.478154331937034],[-98.41726556889579,23.50598003967048],[-98.51330917950278,23.60818950206393],[-98.4882681061102,23.63565147505576],[-98.50475083796354,23.64674538467498],[-98.49555854519917,23.724766486751115],[-98.46291005710505,23.72094727196417],[-98.45688752046632,23.773143207385736],[-98.48192859385891,23.816973243750187],[-98.2641663480272,23.925002462009452],[-98.23817434779693,23.95173696551806],[-98.21091444511639,24.007570248355762],[-98.19443171326304,24.003569166198012],[-98.20045424990177,24.056310703731995],[-98.13991190790198,24.056856305844416],[-98.13293844442556,24.115053864502606],[-98.00139356521136,24.122510426705688],[-98.07493190732629,24.169977810486273],[-98.03721180943113,24.197621650848916],[-98.03594390698088,24.233449522897864],[-98.00202751643648,24.23363139026867],[-98.0197781507401,24.262912036968572],[-98.0197781507401,24.322200799851604],[-97.84417366137944,24.433867365527007],[-97.82990975881404,24.41586249581713],[-97.77443902661528,24.424773996986666],[-97.74305844097141,24.478424871374685],[-97.6809312209088,24.47860673874549]]]}},{"type":"Feature","properties":{"cvegeo":"28040","cve_ent":"28","state_code":"TAM","nom_mun":"Valle Hermoso"},"geometry":{"type":"Polygon","coordinates":[[[-97.86921473477202,25.503974975354488],[-97.9395833207613,25.50743045539982],[-97.9395833207613,25.61564154102989],[-97.95955278435287,25.61564154102989],[-97.96240556486595,25.71839660553576],[-97.93451171096028,25.757498090259233],[-97.91961385716975,25.80551107615224],[-97.91897990594462,25.861162491619133],[-97.93768146708592,25.861162491619133],[-97.91264039369334,25.991015794375222],[-97.90851971073,26.057579252090527],[-97.90249717409128,26.060852864765053],[-97.90661785705461,25.963917556125004],[-97.9164441010441,25.933727572571065],[-97.80455170980889,25.89189807728549],[-97.73576800188243,25.812603903613706],[-97.73671892872012,25.503974975354488],[-97.86921473477202,25.503974975354488]]]}},{"type":"Feature","properties":{"cvegeo":"28020","cve_ent":"28","state_code":"TAM","nom_mun":"Mainero"},"geometry":{"type":"Polygon","coordinates":[[[-99.40496157764629,24.734857864212337],[-99.44458352921684,24.616280338446273],[-99.46233416352044,24.595911192915906],[-99.45567767565659,24.53516749106642],[-99.49973728580304,24.55371796288872],[-99.60845992091261,24.514252743423633],[-99.61765221367698,24.464057349080946],[-99.63667075043084,24.506614313849745],[-99.72003533653526,24.483517157757277],[-99.73334831226296,24.553899830259525],[-99.70482050713217,24.575905782127155],[-99.60972782336286,24.622463829053707],[-99.57264167669284,24.620099553233217],[-99.49973728580304,24.64119616824681],[-99.5000542614156,24.678842714003828],[-99.45092304146813,24.731038649425393],[-99.40496157764629,24.734857864212337]]]}},{"type":"Feature","properties":{"cvegeo":"28015","cve_ent":"28","state_code":"TAM","nom_mun":"Gustavo Díaz Ordaz"},"geometry":{"type":"Polygon","coordinates":[[[-98.52345239910484,26.220532416333462],[-98.53835025289537,26.209256639343437],[-98.5522971798482,26.117049882344368],[-98.5637083019005,26.10068181897175],[-98.56212342383769,26.038846912897423],[-98.58526264355488,26.017932165254635],[-98.73677698636064,26.036846371818548],[-98.76340293781605,26.094498328364317],[-98.72536586430833,26.109047718028865],[-98.74184859616167,26.171064491474],[-98.69461922988958,26.2003451381739],[-98.71427171786857,26.22853458064896],[-98.68003835171163,26.24835812406691],[-98.66545747353366,26.235263673368816],[-98.58557961916745,26.25763335997806],[-98.56497620435077,26.227079641682508],[-98.52345239910484,26.220532416333462]]]}},{"type":"Feature","properties":{"cvegeo":"28017","cve_ent":"28","state_code":"TAM","nom_mun":"Jaumave"},"geometry":{"type":"Polygon","coordinates":[[[-99.35266060157318,23.82606661229053],[-99.30574821091365,23.821701795391164],[-99.28419386925927,23.78787446442109],[-99.32635162573034,23.76605037992427],[-99.30669913775135,23.726585160459184],[-99.30701611336391,23.682755124094733],[-99.27088089353157,23.67257055132955],[-99.28768060099749,23.634742138201727],[-99.25883582025413,23.64547231307933],[-99.26105464954207,23.613463655817327],[-99.28768060099749,23.617101003233465],[-99.27912225945825,23.534896951628767],[-99.24900957626463,23.431414417639672],[-99.18656538058946,23.42595839651547],[-99.15676967300841,23.3975870866696],[-99.19258791722818,23.399405760377668],[-99.18688235620202,23.312473157131997],[-99.14472459973096,23.26609697757625],[-99.18339562446381,23.26900685550916],[-99.18149377078842,23.219538930649698],[-99.21667806378306,23.202261530423048],[-99.20970460030665,23.16625179100329],[-99.2670771861808,23.14315463491082],[-99.34632108932189,23.144063971764858],[-99.35900011382446,23.0602231138229],[-99.41098411428501,23.06076871593532],[-99.42207826072477,23.091868036343293],[-99.46011533423248,23.098415261692338],[-99.47279435873506,23.07804611616197],[-99.49276382232662,23.118238805110284],[-99.50068821264072,23.2488195773496],[-99.53523855441024,23.248637709978794],[-99.53587250563537,23.273189805037717],[-99.4911789442638,23.271189263958842],[-99.51653699326894,23.3497559681474],[-99.50037123702816,23.35666692823806],[-99.50163913947841,23.41595569112109],[-99.55298918871384,23.45578464532779],[-99.55172128626359,23.42359412069498],[-99.5818339694572,23.423775988065785],[-99.64237631145699,23.598004929298746],[-99.68041338496471,23.67493482715004],[-99.64522909197007,23.69966878957977],[-99.66646645801188,23.749500449180847],[-99.65980997014803,23.77059706419444],[-99.61955406735235,23.75968502194603],[-99.57676235965617,23.775507483206226],[-99.49371474916431,23.87862628245371],[-99.46772274893404,23.869532913913364],[-99.45028909024299,23.816427641637766],[-99.3764337725155,23.815336437412924],[-99.35266060157318,23.82606661229053]]]}},{"type":"Feature","properties":{"cvegeo":"28026","cve_ent":"28","state_code":"TAM","nom_mun":"Miquihuana"},"geometry":{"type":"Polygon","coordinates":[[[-99.5818339694572,23.423775988065785],[-99.61923709173979,23.427231468111117],[-99.63191611624237,23.39813268878202],[-99.64301026268213,23.39776895404041],[-99.66107787259828,23.479245536161873],[-99.71274489744627,23.537261227449257],[-99.7675816784199,23.510890458682265],[-99.76884958087017,23.482519148836396],[-99.79547553232557,23.485610894140112],[-99.81702987397995,23.52562171571762],[-99.84714255717356,23.49615920164691],[-99.88137592333051,23.50888991760339],[-99.87123270372845,23.551083147630578],[-99.90895280162361,23.53016839998779],[-99.9251185578644,23.491976252118352],[-99.94794080196903,23.497250405871753],[-99.96125377769673,23.556902903496397],[-99.91592626510003,23.664932121755662],[-99.8832777770059,23.723493415155467],[-99.8610894841264,23.774416278981384],[-99.80561875192762,23.784237117004956],[-99.65980997014803,23.77059706419444],[-99.66646645801188,23.749500449180847],[-99.64522909197007,23.69966878957977],[-99.68041338496471,23.67493482715004],[-99.64237631145699,23.598004929298746],[-99.5818339694572,23.423775988065785]]]}},{"type":"Feature","properties":{"cvegeo":"28007","cve_ent":"28","state_code":"TAM","nom_mun":"Camargo"},"geometry":{"type":"Polygon","coordinates":[[[-98.68003835171163,26.24835812406691],[-98.71427171786857,26.22853458064896],[-98.69461922988958,26.2003451381739],[-98.74184859616167,26.171064491474],[-98.72536586430833,26.109047718028865],[-98.76340293781605,26.094498328364317],[-98.73677698636064,26.036846371818548],[-98.82362830420328,26.047394679325343],[-98.84613357269535,26.024297523232875],[-98.90097035366898,25.968282373024365],[-99.02395689134394,26.10413729901708],[-98.94217718330235,26.298189783667986],[-98.9478827443285,26.37057299724911],[-98.92759630512438,26.394397622824805],[-98.89780059754334,26.353477464393265],[-98.80365884061172,26.36711751720378],[-98.77639893793119,26.325288021918205],[-98.68003835171163,26.24835812406691]]]}},{"type":"Feature","properties":{"cvegeo":"28034","cve_ent":"28","state_code":"TAM","nom_mun":"San Carlos"},"geometry":{"type":"Polygon","coordinates":[[[-98.9247435246113,24.769412664665637],[-98.90287220734436,24.769048929924026],[-98.91396635378412,24.717034861873266],[-98.87529532905127,24.66683946753058],[-98.83091874329226,24.56972229151972],[-98.81823971878968,24.496975343196983],[-98.72536586430833,24.52079996877268],[-98.72061123011986,24.473332584992093],[-98.64675591239236,24.464421083822558],[-98.6784534736488,24.40913340309728],[-98.71902635205704,24.414589424221482],[-98.72631679114602,24.350390242326664],[-98.68986459570112,24.158883900867057],[-98.91269845133385,24.195802977140847],[-98.91079659765848,24.176888770576934],[-98.96246362250646,24.182162924330335],[-98.9434450857526,24.160156972462705],[-98.95041854922901,24.115963201356642],[-99.12095142878863,24.17888931165581],[-99.12729094103992,24.2158083879296],[-99.04456030616063,24.213807846850724],[-99.08703503824425,24.255273607394685],[-99.08164645283065,24.267458721238743],[-99.14060391676763,24.308742614411898],[-99.19068606355279,24.358574274012973],[-99.22016479552127,24.4044048514563],[-99.24552284452642,24.40949713783889],[-99.19702557580408,24.4682402986095],[-99.1976595270292,24.53516749106642],[-99.17959191711304,24.58427168118427],[-99.14757738024404,24.599548540332044],[-99.1976595270292,24.601003479298498],[-99.18276167323869,24.737404007403633],[-99.2128743564323,24.77159507311532],[-99.18244469762612,24.775778022643877],[-99.20526694173076,24.864165564856005],[-99.11334401408709,24.84034093928031],[-99.07657484302963,24.859073278473414],[-98.99923279356392,24.84652442988774],[-99.00050069601419,24.879624291374586],[-98.95549015903005,24.8534353899784],[-98.95517318341749,24.77686922686872],[-98.9247435246113,24.769412664665637]]]}},{"type":"Feature","properties":{"cvegeo":"28036","cve_ent":"28","state_code":"TAM","nom_mun":"San Nicolás"},"geometry":{"type":"Polygon","coordinates":[[[-98.9247435246113,24.769412664665637],[-98.9247435246113,24.78032470691405],[-98.83884313360636,24.767957725699183],[-98.8429638165697,24.74049575270735],[-98.78717610875837,24.74740671279801],[-98.70729825439216,24.724491424076348],[-98.70286059581626,24.743587498011067],[-98.67021210772214,24.721763413514246],[-98.66133679057033,24.677387775037374],[-98.6917664493765,24.634103340785344],[-98.6917664493765,24.579179394801677],[-98.64802381484263,24.567176148328425],[-98.657216107607,24.50243136432119],[-98.64675591239236,24.464421083822558],[-98.72061123011986,24.473332584992093],[-98.72536586430833,24.52079996877268],[-98.81823971878968,24.496975343196983],[-98.83091874329226,24.56972229151972],[-98.87529532905127,24.66683946753058],[-98.91396635378412,24.717034861873266],[-98.90287220734436,24.769048929924026],[-98.9247435246113,24.769412664665637]]]}},{"type":"Feature","properties":{"cvegeo":"28042","cve_ent":"28","state_code":"TAM","nom_mun":"Villagrán"},"geometry":{"type":"Polygon","coordinates":[[[-99.2128743564323,24.77159507311532],[-99.18276167323869,24.737404007403633],[-99.1976595270292,24.601003479298498],[-99.14757738024404,24.599548540332044],[-99.17959191711304,24.58427168118427],[-99.1976595270292,24.53516749106642],[-99.19702557580408,24.4682402986095],[-99.24552284452642,24.40949713783889],[-99.33554391849471,24.40040376929855],[-99.40813133377193,24.40549605568114],[-99.41637269969861,24.37385113316075],[-99.59007533538387,24.39622081976999],[-99.61765221367698,24.464057349080946],[-99.60845992091261,24.514252743423633],[-99.49973728580304,24.55371796288872],[-99.45567767565659,24.53516749106642],[-99.46233416352044,24.595911192915906],[-99.44458352921684,24.616280338446273],[-99.40496157764629,24.734857864212337],[-99.36597357730088,24.77050386889048],[-99.29497104008647,24.803967465118937],[-99.2128743564323,24.77159507311532]]]}},{"type":"Feature","properties":{"cvegeo":"28006","cve_ent":"28","state_code":"TAM","nom_mun":"Bustamante"},"geometry":{"type":"Polygon","coordinates":[[[-99.63191611624237,23.39813268878202],[-99.65125162860879,23.356303193496444],[-99.64934977493341,23.277190887195466],[-99.69277543385472,23.27700901982466],[-99.71623162918448,23.160977637249893],[-99.72732577562424,23.19753297878207],[-99.74951406850374,23.17043474053185],[-99.80149806896429,23.179709976443],[-99.8005471421266,23.22572242125713],[-99.86552714270229,23.216992787458402],[-99.85696880116305,23.16697926048652],[-99.89690772834616,23.141699695944368],[-99.90831885039847,23.181528650151066],[-99.94762382635646,23.24136301514652],[-99.9650574850475,23.211718633705004],[-100.02084519285883,23.207717551547255],[-99.98851368037725,23.167161127857327],[-100.01640753428292,23.10859983445752],[-100.06965943719374,23.09677845535508],[-100.06902548596861,23.121148683043195],[-100.11562090101556,23.12605910205498],[-100.11815670591608,23.20044285671498],[-100.10420977896325,23.23154217712295],[-100.0779008031204,23.30592593178295],[-100.1454166085966,23.339571395382215],[-100.08011963240835,23.395586545590724],[-99.9828081193511,23.3923129329162],[-99.92163182612619,23.3790366148473],[-99.94794080196903,23.497250405871753],[-99.9251185578644,23.491976252118352],[-99.90895280162361,23.53016839998779],[-99.87123270372845,23.551083147630578],[-99.88137592333051,23.50888991760339],[-99.84714255717356,23.49615920164691],[-99.81702987397995,23.52562171571762],[-99.79547553232557,23.485610894140112],[-99.76884958087017,23.482519148836396],[-99.7675816784199,23.510890458682265],[-99.71274489744627,23.537261227449257],[-99.66107787259828,23.479245536161873],[-99.64301026268213,23.39776895404041],[-99.63191611624237,23.39813268878202]]]}},{"type":"Feature","properties":{"cvegeo":"28031","cve_ent":"28","state_code":"TAM","nom_mun":"Palmillas"},"geometry":{"type":"Polygon","coordinates":[[[-99.47279435873506,23.07804611616197],[-99.49973728580304,23.085502678365053],[-99.54157806666153,23.114783325064955],[-99.5960978720226,23.112419049244465],[-99.59926762814824,23.17043474053185],[-99.63255006746749,23.168797934194586],[-99.64713094564546,23.220266400132925],[-99.61258060387594,23.21826585905405],[-99.64934977493341,23.277190887195466],[-99.65125162860879,23.356303193496444],[-99.63191611624237,23.39813268878202],[-99.61923709173979,23.427231468111117],[-99.5818339694572,23.423775988065785],[-99.55172128626359,23.42359412069498],[-99.55298918871384,23.45578464532779],[-99.50163913947841,23.41595569112109],[-99.50037123702816,23.35666692823806],[-99.51653699326894,23.3497559681474],[-99.4911789442638,23.271189263958842],[-99.53587250563537,23.273189805037717],[-99.53523855441024,23.248637709978794],[-99.50068821264072,23.2488195773496],[-99.49276382232662,23.118238805110284],[-99.47279435873506,23.07804611616197]]]}},{"type":"Feature","properties":{"cvegeo":"28035","cve_ent":"28","state_code":"TAM","nom_mun":"San Fernando"},"geometry":{"type":"Polygon","coordinates":[[[-98.05908312669807,25.425953873278353],[-98.02897044350445,25.44395874298823],[-97.97920527233185,25.44395874298823],[-97.94972654036337,25.425953873278353],[-97.94116819882413,25.381396367430675],[-97.87840702753638,25.39612762446603],[-97.6701540500816,25.224444826424367],[-97.51768878043816,25.0420318535051],[-97.56460117109768,24.912360418119817],[-97.65398829384083,24.60173094878173],[-97.6809312209088,24.47860673874549],[-97.74305844097141,24.478424871374685],[-97.77443902661528,24.424773996986666],[-97.82990975881404,24.41586249581713],[-97.84417366137944,24.433867365527007],[-98.0197781507401,24.322200799851604],[-98.05369454128447,24.30055858272559],[-98.06890937068756,24.324383208301285],[-98.01185376042598,24.3645758972496],[-98.01914419951495,24.404222984085493],[-98.11106712715862,24.402222443006615],[-98.11138410277118,24.41822677163762],[-98.18460546927355,24.42259158853698],[-98.18460546927355,24.46260241011449],[-98.14498351770301,24.47224138076725],[-98.10028995633144,24.50406817065845],[-98.13896098106429,24.573723373677474],[-98.17953385947251,24.580998068509746],[-98.22105766471844,24.62391876802016],[-98.28413581161875,24.58936396756686],[-98.32217288512648,24.632830269189697],[-98.29142625070773,24.678660846633022],[-98.33295005595366,24.815243242108963],[-98.35260254393265,24.8108784252096],[-98.38905473937756,24.87762375029571],[-98.42709181288528,24.898174763196884],[-98.4286766909481,24.93763998266197],[-98.40426956878065,24.97928761057674],[-98.3789115197755,24.988744713858694],[-98.41663161767065,25.017661625816984],[-98.38778683692729,25.03966757768461],[-98.38303220273883,25.073676776025493],[-98.32375776318929,25.104048626950235],[-98.31583337287519,25.157881368709063],[-98.2508533722995,25.156608297113415],[-98.20837864021587,25.222989887457913],[-98.17826595702226,25.220443744266618],[-98.17446224967149,25.259727096360894],[-98.1085313222581,25.254452942607497],[-98.1085313222581,25.308649419107937],[-98.07873561467706,25.30337526535454],[-98.07873561467706,25.344477291156885],[-98.05908312669807,25.344477291156885],[-98.05908312669807,25.425953873278353]]]}},{"type":"Feature","properties":{"cvegeo":"28014","cve_ent":"28","state_code":"TAM","nom_mun":"Guerrero"},"geometry":{"type":"Polygon","coordinates":[[[-99.49656752967739,27.27136208485542],[-99.44204772431632,27.250811071954242],[-99.4261989436881,27.1778822562607],[-99.44014587064093,27.15114775275209],[-99.42905172420119,27.091677122498254],[-99.45282489514351,27.06239647579835],[-99.4449005048294,27.019293908917128],[-99.41573874847349,27.017293367838253],[-99.3764337725155,26.976918811519134],[-99.37833562619089,26.93381624463791],[-99.3212800159293,26.906536139016886],[-99.32920440624342,26.87961976813747],[-99.26802811301849,26.842700691863683],[-99.24267006401335,26.787231143767592],[-99.23981728350027,26.745037913740404],[-99.20875367346896,26.72448690083923],[-99.19987835631716,26.655741034674243],[-99.17864099027535,26.62082249947933],[-99.1675468438356,26.55971506288823],[-99.23791542982488,26.55553211335967],[-99.2483756250395,26.577174330485686],[-99.4005239190704,26.54989422486466],[-99.39703718733219,26.59663413916202],[-99.53840831053589,26.66465253584378],[-99.65949299453547,26.67029042433879],[-99.65727416524751,26.69520625413933],[-99.6182861649021,26.72685117665972],[-99.622723823478,26.770499345653363],[-99.5808830426195,26.829060639053168],[-99.58975835977131,26.861069296315172],[-99.6271614820539,26.87052639959713],[-99.67914548251446,26.895624096768472],[-99.74729523921579,26.91017348643302],[-99.76663075158221,26.889804340902653],[-99.77043445893298,26.928360223513707],[-99.73429923910065,26.920539926569013],[-99.6503007017711,27.06585195584368],[-99.67914548251446,27.10222543000505],[-99.74919709289118,27.28900321982368],[-99.73176343420013,27.294459240947887],[-99.6049731891744,27.28918508719449],[-99.61226362826338,27.278273044946076],[-99.49656752967739,27.27136208485542]]]}},{"type":"Feature","properties":{"cvegeo":"28024","cve_ent":"28","state_code":"TAM","nom_mun":"Mier"},"geometry":{"type":"Polygon","coordinates":[[[-99.1675468438356,26.55971506288823],[-99.16786381944816,26.536981641537373],[-99.12792489226506,26.525342129805736],[-99.09147269682015,26.47605607231708],[-99.11366098969965,26.434772179143927],[-99.09654430662118,26.41203875779307],[-99.11809864827556,26.376574620485734],[-99.11651377021273,26.262907513731456],[-99.1976595270292,26.258542696832095],[-99.26010372270439,26.252722940966272],[-99.33364206481932,26.306191947983486],[-99.36375474801292,26.32910723670515],[-99.41003318744733,26.31692212286109],[-99.43127055348913,26.351113188572775],[-99.41605572408605,26.438227659189256],[-99.4005239190704,26.54989422486466],[-99.2483756250395,26.577174330485686],[-99.23791542982488,26.55553211335967],[-99.1675468438356,26.55971506288823]]]}},{"type":"Feature","properties":{"cvegeo":"28038","cve_ent":"28","state_code":"TAM","nom_mun":"Tampico"},"geometry":{"type":"Polygon","coordinates":[[[-97.85558478343175,22.3216597209763],[-97.85748663710714,22.246366629462266],[-97.83624927106533,22.229998566089648],[-97.85146410046842,22.2074470121096],[-97.8952067350023,22.222178269144955],[-97.93546263779797,22.256369334856643],[-97.95670000383979,22.293652145872045],[-98.00075961398623,22.29747136065899],[-97.97032995518005,22.332935497966325],[-97.9503604915885,22.323114659942753],[-97.85558478343175,22.3216597209763]]]}},{"type":"Feature","properties":{"cvegeo":"28009","cve_ent":"28","state_code":"TAM","nom_mun":"Ciudad Madero"},"geometry":{"type":"Polygon","coordinates":[[[-97.78458224621734,22.262370958093268],[-97.83624927106533,22.229998566089648],[-97.85748663710714,22.246366629462266],[-97.85558478343175,22.3216597209763],[-97.81976653921198,22.32566080313405],[-97.78458224621734,22.262370958093268]]]}},{"type":"Feature","properties":{"cvegeo":"28003","cve_ent":"28","state_code":"TAM","nom_mun":"Altamira"},"geometry":{"type":"Polygon","coordinates":[[[-97.86002244200766,22.54881206711405],[-97.85812058833227,22.476428853532926],[-97.81976653921198,22.32566080313405],[-97.85558478343175,22.3216597209763],[-97.9503604915885,22.323114659942753],[-97.97032995518005,22.332935497966325],[-98.02833649227932,22.358396929879284],[-98.05844917547294,22.347121152889258],[-98.10662946858272,22.366762828936398],[-98.11645571257222,22.396952812490333],[-98.1858733717238,22.422596111774098],[-98.19284683520023,22.4651530765429],[-98.29206020193287,22.467699219734197],[-98.30822595817365,22.510074317132194],[-98.32914634860289,22.512802327694295],[-98.32217288512648,22.559724109362463],[-98.34372722678086,22.561724650441334],[-98.33199912911597,22.653931407440407],[-98.30917688501134,22.65156713161992],[-98.30125249469722,22.75123045082207],[-98.28952439703235,22.7706902594984],[-98.2793811774303,22.729770101066862],[-98.25624195771309,22.718494324076836],[-98.26099659190156,22.680665910949013],[-98.2365894697341,22.67575549193723],[-98.21757093298024,22.67902910461175],[-98.20837864021587,22.74850244025997],[-98.16210020078148,22.743046419135762],[-98.11645571257222,22.758505145654343],[-98.1104331759335,22.797424763007008],[-98.04957385832114,22.799789038827498],[-98.05718127302268,22.75177605293449],[-98.03467600453061,22.64174629359635],[-98.00995190675059,22.632834792426813],[-97.98332595529519,22.669208266588182],[-97.96113766241568,22.646656712608134],[-97.92119873523258,22.652294601103144],[-97.90978761318026,22.579002050667988],[-97.87365239334792,22.574273499027008],[-97.86002244200766,22.54881206711405]]]}},{"type":"Feature","properties":{"cvegeo":"28043","cve_ent":"28","state_code":"TAM","nom_mun":"Xicoténcatl"},"geometry":{"type":"Polygon","coordinates":[[[-99.0163494766424,22.833798237168377],[-98.99384420815034,22.982202011746764],[-99.10954030673632,23.04076330514657],[-99.14789435585661,23.127514041021435],[-99.0696013795532,23.12824151050466],[-99.002085574077,23.139335420123878],[-98.99035747641213,23.174253955318793],[-98.97577659823416,23.15424854453004],[-98.91523425623437,23.13133325580838],[-98.76435386465374,23.107326762861874],[-98.76371991342862,23.094232312163783],[-98.77925171844427,23.04240011148383],[-98.76340293781605,23.037671559842853],[-98.78907796243377,22.91054626764887],[-98.84486567024508,22.91909403407679],[-98.849303328821,22.895087541130284],[-98.8882913291664,22.88672164207317],[-98.874027426601,22.81361095900882],[-98.90509103663231,22.804517590468475],[-98.94915064677876,22.8052450599517],[-98.9567580614803,22.82270432754916],[-99.0163494766424,22.833798237168377]]]}},{"type":"Feature","properties":{"cvegeo":"28011","cve_ent":"28","state_code":"TAM","nom_mun":"Gómez Farías"},"geometry":{"type":"Polygon","coordinates":[[[-99.11841562388813,22.83889052355097],[-99.16342616087226,22.948920282889112],[-99.20558391734332,22.942373057540067],[-99.33015533308111,22.978564664330626],[-99.35836616259934,23.016393077458453],[-99.35900011382446,23.0602231138229],[-99.34632108932189,23.144063971764858],[-99.2670771861808,23.14315463491082],[-99.1862484049769,23.15079306448471],[-99.18561445375177,23.126968438909014],[-99.14789435585661,23.127514041021435],[-99.10954030673632,23.04076330514657],[-98.99384420815034,22.982202011746764],[-99.0163494766424,22.833798237168377],[-99.06738255026526,22.833980104539187],[-99.09495942855835,22.85671352589004],[-99.11841562388813,22.83889052355097]]]}},{"type":"Feature","properties":{"cvegeo":"28021","cve_ent":"28","state_code":"TAM","nom_mun":"El Mante"},"geometry":{"type":"Polygon","coordinates":[[[-99.0163494766424,22.833798237168377],[-98.9567580614803,22.82270432754916],[-98.94915064677876,22.8052450599517],[-98.90509103663231,22.804517590468475],[-98.89019318284178,22.78105669963439],[-98.8474014751456,22.787240190241825],[-98.83694127993098,22.757413941429505],[-98.85627679229741,22.715766313514735],[-98.874027426601,22.611010707929992],[-98.83599035309328,22.58445807179219],[-98.77576498670606,22.61046510581757],[-98.68669483957548,22.59900746145674],[-98.6838420590624,22.625196362852925],[-98.6242506439003,22.595188246669796],[-98.56275737506282,22.589368490803977],[-98.53201074064408,22.569726814756837],[-98.54564069198435,22.497343601175714],[-98.49080391101072,22.427506530785884],[-98.54595766759691,22.40004455779405],[-98.59001727774336,22.394406669299038],[-98.61379044868568,22.408956058963586],[-98.67084605894726,22.405682446289063],[-98.745969279125,22.38094848385933],[-98.75167484015117,22.36894523738608],[-98.82140947491533,22.356032654058794],[-98.91047962204591,22.371491380577375],[-98.92537747583643,22.372764452173023],[-98.9390074271767,22.455695973260944],[-98.95897689076826,22.45660531011498],[-98.96880313475775,22.502799622299918],[-99.02712664746959,22.59955306356916],[-99.03631894023395,22.636108405101336],[-99.06421279413962,22.628651842898257],[-99.08671806263169,22.746865633922706],[-99.12538908736454,22.76614357522823],[-99.09495942855835,22.775600678510187],[-99.11841562388813,22.83889052355097],[-99.09495942855835,22.85671352589004],[-99.06738255026526,22.833980104539187],[-99.0163494766424,22.833798237168377]]]}},{"type":"Feature","properties":{"cvegeo":"28013","cve_ent":"28","state_code":"TAM","nom_mun":"Güémez"},"geometry":{"type":"Polygon","coordinates":[[[-99.17769006343765,24.095957790567887],[-99.14726040463148,24.086864422027546],[-99.08671806263169,24.07158756287977],[-99.08861991630707,24.025756985436445],[-98.98211611048545,23.975197856352143],[-98.98560284222366,23.957011119271456],[-98.92886420757463,23.953010037113707],[-98.79541747468505,23.779690432734782],[-98.78305542579504,23.78969313812916],[-98.73677698636064,23.76550477781185],[-98.77925171844427,23.74640870387713],[-98.84962030443356,23.69639517690525],[-98.91174752449616,23.677480970341335],[-98.94090928085208,23.687119940994098],[-99.09717825784631,23.848618166270576],[-99.17737308782509,23.938460647449162],[-99.194172795291,23.978107734285054],[-99.21857991745846,23.983200020667645],[-99.26992996669388,23.95682925190065],[-99.3158914305157,23.89808609113004],[-99.36882635781396,23.893721274230675],[-99.35266060157318,23.82606661229053],[-99.3764337725155,23.815336437412924],[-99.45028909024299,23.816427641637766],[-99.46772274893404,23.869532913913364],[-99.45726255371942,23.866077433868035],[-99.48705826130046,23.96046659931679],[-99.43031962665144,23.92391125778461],[-99.42081035827451,23.966831957295028],[-99.40369367519604,23.965740753070186],[-99.34378528442137,24.005751574647693],[-99.27183182036927,24.020664699053853],[-99.18212772201356,24.01229879999674],[-99.1976595270292,24.04976347838295],[-99.17769006343765,24.095957790567887]]]}},{"type":"Feature","properties":{"cvegeo":"28030","cve_ent":"28","state_code":"TAM","nom_mun":"Padilla"},"geometry":{"type":"Polygon","coordinates":[[[-99.14726040463148,24.086864422027546],[-99.13996996554249,24.141060898527986],[-99.12095142878863,24.17888931165581],[-98.95041854922901,24.115963201356642],[-98.9434450857526,24.160156972462705],[-98.96246362250646,24.182162924330335],[-98.91079659765848,24.176888770576934],[-98.91269845133385,24.195802977140847],[-98.68986459570112,24.158883900867057],[-98.65658215638186,24.098322066388377],[-98.6011114241831,24.112689588682116],[-98.66133679057033,24.067404613351215],[-98.63407688788979,24.041215711955026],[-98.61791113164901,23.979562673251507],[-98.6740158150729,23.95682925190065],[-98.67781952242368,23.956101782417424],[-98.68764576641317,23.959557262462752],[-98.69588713233985,23.916636562952338],[-98.7060303519419,23.87735321085806],[-98.7025436202037,23.825521010178107],[-98.7345581570727,23.83970666510104],[-98.73138840094705,23.803151323568866],[-98.69683805917754,23.781327239072045],[-98.73677698636064,23.76550477781185],[-98.78305542579504,23.78969313812916],[-98.79541747468505,23.779690432734782],[-98.92886420757463,23.953010037113707],[-98.98560284222366,23.957011119271456],[-98.98211611048545,23.975197856352143],[-99.08861991630707,24.025756985436445],[-99.08671806263169,24.07158756287977],[-99.14726040463148,24.086864422027546]]]}},{"type":"Feature","properties":{"cvegeo":"28022","cve_ent":"28","state_code":"TAM","nom_mun":"Matamoros"},"geometry":{"type":"Polygon","coordinates":[[[-97.51768878043816,25.0420318535051],[-97.6701540500816,25.224444826424367],[-97.87840702753638,25.39612762446603],[-97.94116819882413,25.381396367430675],[-97.86033941762022,25.461963612698106],[-97.86921473477202,25.503974975354488],[-97.73671892872012,25.503974975354488],[-97.73576800188243,25.812603903613706],[-97.80455170980889,25.89189807728549],[-97.9164441010441,25.933727572571065],[-97.90661785705461,25.963917556125004],[-97.90249717409128,26.060852864765053],[-97.86065639323279,26.052486965707935],[-97.80169892929581,26.060125395281823],[-97.77792575835349,26.02920794224466],[-97.7075571723642,26.03775570867258],[-97.63718858637492,26.020296441075125],[-97.63275092779902,25.987924049071506],[-97.58298575662641,25.93809238947043],[-97.54685053679408,25.9346369094251],[-97.52117551217637,25.885896454048865],[-97.45746341405093,25.884259647711602],[-97.45270877986246,25.853524062045246],[-97.37251394988368,25.84006587660554],[-97.35793307170573,25.889170066723388],[-97.37441580355907,25.90571999746681],[-97.34810682771624,25.93118142937977],[-97.27678731488925,25.935546246279134],[-97.28946633939182,25.954460452843044],[-97.24635765608308,25.947913227494],[-97.20927150941304,25.963735688754195],[-97.14651033812531,25.95482418758466],[-97.15158194792633,25.824789017457764],[-97.1750381432561,25.70402908324202],[-97.20229804593663,25.629827195952828],[-97.32908829096237,25.41686050473801],[-97.44636926761117,25.204257548264806],[-97.51768878043816,25.0420318535051]]]}},{"type":"Feature","properties":{"cvegeo":"28032","cve_ent":"28","state_code":"TAM","nom_mun":"Reynosa"},"geometry":{"type":"Polygon","coordinates":[[[-98.1557606885302,26.056124313124073],[-98.14181376157737,26.02920794224466],[-98.15861346904327,25.97683013945229],[-98.15861346904327,25.70857576751219],[-98.1513230299543,25.688752224094245],[-98.15417581046738,25.590725711229354],[-98.17319434722123,25.59090757860016],[-98.14910420066634,25.542894592707153],[-98.15195698117942,25.446141151437914],[-98.23944225024718,25.445959284067104],[-98.23849132340949,25.475421798137816],[-98.26258146996437,25.504156842725294],[-98.29776576295902,25.46651029696828],[-98.37447386119959,25.458508132652778],[-98.3779605929378,25.489789320431555],[-98.43374830074913,25.489425585689943],[-98.58177591181668,25.489425585689943],[-98.58145893620411,25.706029624320895],[-98.58526264355488,26.017932165254635],[-98.56212342383769,26.038846912897423],[-98.5637083019005,26.10068181897175],[-98.5522971798482,26.117049882344368],[-98.53835025289537,26.209256639343437],[-98.52345239910484,26.220532416333462],[-98.50316595990073,26.20852916986021],[-98.46259308149249,26.22580657008686],[-98.38430010518908,26.156878836551066],[-98.33485190962905,26.16524473560818],[-98.33516888524161,26.137419027874735],[-98.2499024454618,26.072128641755075],[-98.19221288397509,26.053214435191165],[-98.17953385947251,26.07412918283395],[-98.1557606885302,26.056124313124073]]]}},{"type":"Feature","properties":{"cvegeo":"28033","cve_ent":"28","state_code":"TAM","nom_mun":"Río Bravo"},"geometry":{"type":"Polygon","coordinates":[[[-97.90851971073,26.057579252090527],[-97.91264039369334,25.991015794375222],[-97.93768146708592,25.861162491619133],[-97.91897990594462,25.861162491619133],[-97.91961385716975,25.80551107615224],[-97.93451171096028,25.757498090259233],[-97.96240556486595,25.71839660553576],[-97.95955278435287,25.61564154102989],[-97.9395833207613,25.61564154102989],[-97.9395833207613,25.50743045539982],[-97.86921473477202,25.503974975354488],[-97.86033941762022,25.461963612698106],[-97.94116819882413,25.381396367430675],[-97.94972654036337,25.425953873278353],[-97.97920527233185,25.44395874298823],[-98.02897044350445,25.44395874298823],[-98.05908312669807,25.425953873278353],[-98.05908312669807,25.446504886179525],[-98.15195698117942,25.446141151437914],[-98.14910420066634,25.542894592707153],[-98.17319434722123,25.59090757860016],[-98.15417581046738,25.590725711229354],[-98.1513230299543,25.688752224094245],[-98.15861346904327,25.70857576751219],[-98.15861346904327,25.97683013945229],[-98.14181376157737,26.02920794224466],[-98.1557606885302,26.056124313124073],[-98.07619980977654,26.067581957484904],[-98.07112819997552,26.037028239189354],[-98.0330911264678,26.062489671102313],[-97.97952224794442,26.066490753260062],[-97.96620927221672,26.051395761483093],[-97.90851971073,26.057579252090527]]]}},{"type":"Feature","properties":{"cvegeo":"28025","cve_ent":"28","state_code":"TAM","nom_mun":"Miguel Alemán"},"geometry":{"type":"Polygon","coordinates":[[[-98.9478827443285,26.37057299724911],[-98.94217718330235,26.298189783667986],[-99.02395689134394,26.10413729901708],[-99.09305757488298,26.0701281006762],[-99.0955933797835,26.08049454081219],[-99.16057338035918,26.061216599506665],[-99.16691289261047,26.075402254429598],[-99.1976595270292,26.258542696832095],[-99.11651377021273,26.262907513731456],[-99.11809864827556,26.376574620485734],[-99.09654430662118,26.41203875779307],[-99.08164645283065,26.39658003127449],[-99.03980567197216,26.413129962017912],[-99.01317972051676,26.39294268385835],[-98.97799542752212,26.40058111343224],[-98.9478827443285,26.37057299724911]]]}}]}