{"type":"FeatureCollection","features":[{"type":"Feature","properties":{"cvegeo":"29020","cve_ent":"29","state_code":"TLA","nom_mun":"Sanctórum de Lázaro Cárdenas"},"geometry":{"type":"MultiPolygon","coordinates":[[[[-98.50475083796354,19.494167707042266],[-98.49333971591122,19.430877862001484],[-98.50823756970175,19.426876779843735],[-98.54183698463358,19.460704110813808],[-98.50475083796354,19.494167707042266]]],[[[-98.40965815419423,19.616564447595273],[-98.45910634975428,19.59655903680652],[-98.38556800763935,19.57600802390535],[-98.39349239795345,19.54181695819366],[-98.42011834940887,19.529449976978796],[-98.3957112272414,19.48943915540129],[-98.43026156901092,19.499259993424857],[-98.44611034963914,19.48361939953547],[-98.50316595990073,19.499623728166473],[-98.47970976457096,19.51308191360618],[-98.47717395967044,19.5136275157186],[-98.44832917892708,19.539270815002364],[-98.43628410564965,19.56727839010662],[-98.4730532767071,19.575280554422122],[-98.4917548378484,19.607289211684126],[-98.40965815419423,19.616564447595273]]]]}},{"type":"Feature","properties":{"cvegeo":"29060","cve_ent":"29","state_code":"TLA","nom_mun":"Santa Isabel Xiloxoxtla"},"geometry":{"type":"Polygon","coordinates":[[[-98.20679376215305,19.24901049119464],[-98.21662000614255,19.260286268184664],[-98.22264254278127,19.2771999336697],[-98.21566907930486,19.27829113789454],[-98.18872615223688,19.257921992364174],[-98.20679376215305,19.24901049119464]]]}},{"type":"Feature","properties":{"cvegeo":"29059","cve_ent":"29","state_code":"TLA","nom_mun":"Santa Cruz Quilehtla"},"geometry":{"type":"Polygon","coordinates":[[[-98.17541317650918,19.20336178112212],[-98.1956996157133,19.20445298534696],[-98.23088390870794,19.207180995909063],[-98.23183483554564,19.221002916090384],[-98.21313327440434,19.216456231820214],[-98.17541317650918,19.20336178112212]]]}},{"type":"Feature","properties":{"cvegeo":"29058","cve_ent":"29","state_code":"TLA","nom_mun":"Santa Catarina Ayometla"},"geometry":{"type":"Polygon","coordinates":[[[-98.22612927451948,19.174444869163832],[-98.23088390870794,19.18662998300789],[-98.23088390870794,19.207180995909063],[-98.1956996157133,19.20445298534696],[-98.22612927451948,19.174444869163832]]]}},{"type":"Feature","properties":{"cvegeo":"29057","cve_ent":"29","state_code":"TLA","nom_mun":"Santa Apolonia Teacalco"},"geometry":{"type":"Polygon","coordinates":[[[-98.29903366540928,19.220639181348773],[-98.3326330803411,19.244645674295274],[-98.30252039714749,19.263014278746766],[-98.29903366540928,19.220639181348773]]]}},{"type":"Feature","properties":{"cvegeo":"29056","cve_ent":"29","state_code":"TLA","nom_mun":"Santa Ana Nopalucan"},"geometry":{"type":"Polygon","coordinates":[[[-98.32090498267623,19.316665153134785],[-98.32090498267623,19.300297089762168],[-98.32122195828879,19.292476792817475],[-98.34848186096931,19.270107106208233],[-98.34911581219444,19.270652708320654],[-98.34436117800598,19.311572866752194],[-98.32090498267623,19.316665153134785]]]}},{"type":"Feature","properties":{"cvegeo":"29055","cve_ent":"29","state_code":"TLA","nom_mun":"San Lucas Tecopilco"},"geometry":{"type":"Polygon","coordinates":[[[-98.28667161651927,19.512354444122952],[-98.24768361617386,19.51417311783102],[-98.21820488420538,19.48361939953547],[-98.24578176249847,19.45124700753185],[-98.28667161651927,19.48307379742305],[-98.28698859213183,19.48307379742305],[-98.28667161651927,19.512354444122952]]]}},{"type":"Feature","properties":{"cvegeo":"29053","cve_ent":"29","state_code":"TLA","nom_mun":"San Juan Huactzinco"},"geometry":{"type":"Polygon","coordinates":[[[-98.27113981150362,19.2240946613941],[-98.27018888466593,19.226640804585397],[-98.24831756739898,19.25228410386916],[-98.24229503076026,19.231187488855568],[-98.25814381138848,19.226095202472976],[-98.27113981150362,19.2240946613941]]]}},{"type":"Feature","properties":{"cvegeo":"29052","cve_ent":"29","state_code":"TLA","nom_mun":"San José Teacalco"},"geometry":{"type":"Polygon","coordinates":[[[-98.03372507769292,19.355402903116644],[-98.01629141900187,19.28920318014295],[-98.03974761433165,19.286111434839235],[-98.04418527290754,19.2904762517386],[-98.07936956590218,19.312664070977036],[-98.0907806879545,19.32284864374222],[-98.06193590721115,19.359403985274394],[-98.03372507769292,19.355402903116644]]]}},{"type":"Feature","properties":{"cvegeo":"29050","cve_ent":"29","state_code":"TLA","nom_mun":"San Francisco Tetlanohcan"},"geometry":{"type":"Polygon","coordinates":[[[-98.03974761433165,19.286111434839235],[-98.03372507769292,19.23173309096799],[-98.15005512750403,19.25355717546481],[-98.1681227374202,19.25464837968965],[-98.18397151804842,19.25774012499337],[-98.16178322516892,19.27319885151195],[-98.09363346846759,19.249737960677866],[-98.04418527290754,19.2904762517386],[-98.03974761433165,19.286111434839235]]]}},{"type":"Feature","properties":{"cvegeo":"29049","cve_ent":"29","state_code":"TLA","nom_mun":"San Damián Texóloc"},"geometry":{"type":"Polygon","coordinates":[[[-98.32122195828879,19.292476792817475],[-98.32090498267623,19.300297089762168],[-98.30030156785953,19.31921129632608],[-98.29491298244594,19.289566914884567],[-98.2739925920167,19.27901860737777],[-98.30252039714749,19.263014278746766],[-98.32122195828879,19.292476792817475]]]}},{"type":"Feature","properties":{"cvegeo":"29048","cve_ent":"29","state_code":"TLA","nom_mun":"La Magdalena Tlaltelulco"},"geometry":{"type":"Polygon","coordinates":[[[-98.16178322516892,19.27319885151195],[-98.18397151804842,19.25774012499337],[-98.18872615223688,19.257921992364174],[-98.21566907930486,19.27829113789454],[-98.2099635182787,19.28920318014295],[-98.1956996157133,19.302297630841046],[-98.16178322516892,19.27319885151195]]]}},{"type":"Feature","properties":{"cvegeo":"29047","cve_ent":"29","state_code":"TLA","nom_mun":"Lázaro Cárdenas"},"geometry":{"type":"Polygon","coordinates":[[[-97.98332595529519,19.57182507437679],[-97.9484586379131,19.54236256030608],[-97.97286576008057,19.541635090822854],[-97.98110712600723,19.50671655562794],[-98.02263093125316,19.514354985201827],[-98.00551424817469,19.539816417114785],[-97.98332595529519,19.57182507437679]]]}},{"type":"Feature","properties":{"cvegeo":"29046","cve_ent":"29","state_code":"TLA","nom_mun":"Emiliano Zapata"},"geometry":{"type":"Polygon","coordinates":[[[-97.9538472233267,19.60419746638041],[-97.88284468611229,19.572188809118405],[-97.86984868599716,19.54236256030608],[-97.91549317420642,19.537997743406716],[-97.9484586379131,19.54236256030608],[-97.98332595529519,19.57182507437679],[-97.9538472233267,19.60419746638041]]]}},{"type":"Feature","properties":{"cvegeo":"29045","cve_ent":"29","state_code":"TLA","nom_mun":"Benito Juárez"},"geometry":{"type":"Polygon","coordinates":[[[-98.40965815419423,19.616564447595273],[-98.38208127590114,19.609289752763],[-98.37225503191165,19.5800091060631],[-98.38556800763935,19.57600802390535],[-98.45910634975428,19.59655903680652],[-98.40965815419423,19.616564447595273]]]}},{"type":"Feature","properties":{"cvegeo":"29044","cve_ent":"29","state_code":"TLA","nom_mun":"Zacatelco"},"geometry":{"type":"Polygon","coordinates":[[[-98.26258146996437,19.16080481635332],[-98.28793951896952,19.17389926705141],[-98.30632410449826,19.188812391457574],[-98.27367561640413,19.211727680179237],[-98.24229503076026,19.231187488855568],[-98.23183483554564,19.221002916090384],[-98.23088390870794,19.207180995909063],[-98.23088390870794,19.18662998300789],[-98.26258146996437,19.16080481635332]]]}},{"type":"Feature","properties":{"cvegeo":"29043","cve_ent":"29","state_code":"TLA","nom_mun":"Yauhquemehcan"},"geometry":{"type":"Polygon","coordinates":[[[-98.16400205445687,19.370316027522804],[-98.18397151804842,19.366314945365055],[-98.20203912796458,19.376499518130238],[-98.17826595702226,19.435424546271655],[-98.14720234699095,19.434515209417622],[-98.16400205445687,19.370316027522804]]]}},{"type":"Feature","properties":{"cvegeo":"29042","cve_ent":"29","state_code":"TLA","nom_mun":"Xicohtzinco"},"geometry":{"type":"Polygon","coordinates":[[[-98.24229503076026,19.157349336307988],[-98.26258146996437,19.16080481635332],[-98.23088390870794,19.18662998300789],[-98.22612927451948,19.174444869163832],[-98.24229503076026,19.157349336307988]]]}},{"type":"Feature","properties":{"cvegeo":"29041","cve_ent":"29","state_code":"TLA","nom_mun":"Papalotla de Xicohténcatl"},"geometry":{"type":"Polygon","coordinates":[[[-98.22454439645665,19.138071395002463],[-98.24229503076026,19.157349336307988],[-98.22612927451948,19.174444869163832],[-98.1956996157133,19.20445298534696],[-98.17541317650918,19.20336178112212],[-98.17604712773431,19.20172497478486],[-98.17160946915841,19.17753661446755],[-98.17034156670816,19.178809686063197],[-98.14308166402762,19.187539319861926],[-98.15512673730507,19.168079511185592],[-98.2010882011269,19.16480589851107],[-98.22454439645665,19.138071395002463]]]}},{"type":"Feature","properties":{"cvegeo":"29040","cve_ent":"29","state_code":"TLA","nom_mun":"Xaltocan"},"geometry":{"type":"Polygon","coordinates":[[[-98.20203912796458,19.376499518130238],[-98.23024995748281,19.370861629635225],[-98.23722342095922,19.356857842083098],[-98.25275522597488,19.356675974712292],[-98.24863454301155,19.37977313080476],[-98.28033210426798,19.413236727033222],[-98.29586390928364,19.40341588900965],[-98.28667161651927,19.48307379742305],[-98.28698859213183,19.48307379742305],[-98.28667161651927,19.48307379742305],[-98.24578176249847,19.45124700753185],[-98.21820488420538,19.48361939953547],[-98.17826595702226,19.463795856117525],[-98.17826595702226,19.435424546271655],[-98.20203912796458,19.376499518130238]]]}},{"type":"Feature","properties":{"cvegeo":"29039","cve_ent":"29","state_code":"TLA","nom_mun":"Xaloztoc"},"geometry":{"type":"Polygon","coordinates":[[[-98.0838072244781,19.40396149112207],[-98.05908312669807,19.43851629157537],[-98.00741610185008,19.437788822092145],[-97.97128088201774,19.414873533370482],[-97.99442010173495,19.39832360262706],[-98.01629141900187,19.408508175392242],[-98.04164946800702,19.386502223524616],[-98.03594390698088,19.37704512024266],[-98.0838072244781,19.40396149112207]]]}},{"type":"Feature","properties":{"cvegeo":"29038","cve_ent":"29","state_code":"TLA","nom_mun":"Tzompantepec"},"geometry":{"type":"Polygon","coordinates":[[[-98.0838072244781,19.40396149112207],[-98.03594390698088,19.37704512024266],[-98.02833649227932,19.371407231747646],[-98.03372507769292,19.355402903116644],[-98.06193590721115,19.359403985274394],[-98.1227952248235,19.363041332690532],[-98.12469707849888,19.404507093234493],[-98.1272328833994,19.409053777504663],[-98.0838072244781,19.40396149112207]]]}},{"type":"Feature","properties":{"cvegeo":"29037","cve_ent":"29","state_code":"TLA","nom_mun":"Ziltlaltépec de Trinidad Sánchez Santos"},"geometry":{"type":"Polygon","coordinates":[[[-97.86509405180868,19.253920910206425],[-97.85114712485586,19.222821589798453],[-97.91517619859385,19.173171797568184],[-97.92848917432156,19.16426029639865],[-97.97920527233185,19.192631606244518],[-97.99822380908572,19.232096825709604],[-97.98522780897058,19.242827000587205],[-97.96050371119055,19.23809844894623],[-97.91359132053103,19.227913876181045],[-97.86509405180868,19.253920910206425]]]}},{"type":"Feature","properties":{"cvegeo":"29036","cve_ent":"29","state_code":"TLA","nom_mun":"Totolac"},"geometry":{"type":"Polygon","coordinates":[[[-98.25782683577592,19.316665153134785],[-98.26670215292772,19.326667858529163],[-98.25275522597488,19.356675974712292],[-98.23722342095922,19.356857842083098],[-98.22454439645665,19.3303052059453],[-98.25782683577592,19.316665153134785]]]}},{"type":"Feature","properties":{"cvegeo":"29035","cve_ent":"29","state_code":"TLA","nom_mun":"Tocatlán"},"geometry":{"type":"Polygon","coordinates":[[[-98.03594390698088,19.37704512024266],[-98.04164946800702,19.386502223524616],[-98.01629141900187,19.408508175392242],[-97.99442010173495,19.39832360262706],[-98.02833649227932,19.371407231747646],[-98.03594390698088,19.37704512024266]]]}},{"type":"Feature","properties":{"cvegeo":"29034","cve_ent":"29","state_code":"TLA","nom_mun":"Tlaxco"},"geometry":{"type":"Polygon","coordinates":[[[-98.2552910308754,19.718592042617914],[-98.23849132340949,19.6756713431075],[-98.15956439588096,19.66930598512926],[-98.11487083450939,19.687856456951558],[-98.10028995633144,19.67112465883733],[-98.06066800476088,19.728776615383097],[-98.04006458994421,19.699495968683195],[-98.04260039484473,19.640025338429357],[-97.9937861505098,19.629658898293368],[-97.98871454070878,19.629113296180947],[-97.9538472233267,19.60419746638041],[-97.98332595529519,19.57182507437679],[-98.00551424817469,19.539816417114785],[-98.0578152242478,19.565277849027744],[-98.07207912681321,19.51144510726892],[-98.10124088316913,19.51999287369684],[-98.16431903006944,19.57237067648921],[-98.15797951781815,19.58692006615376],[-98.2464157137236,19.589829944086667],[-98.24166107953513,19.53836147814833],[-98.29903366540928,19.53781587603591],[-98.32217288512648,19.566550920623392],[-98.37225503191165,19.5800091060631],[-98.38208127590114,19.609289752763],[-98.36686644649805,19.628022091956105],[-98.32375776318929,19.68531031376026],[-98.33168215350341,19.72222939003405],[-98.26733610415285,19.720228848955177],[-98.26543425047745,19.716955236280654],[-98.2552910308754,19.718592042617914]]]}},{"type":"Feature","properties":{"cvegeo":"29033","cve_ent":"29","state_code":"TLA","nom_mun":"Tlaxcala"},"geometry":{"type":"Polygon","coordinates":[[[-98.2739925920167,19.27901860737777],[-98.29491298244594,19.289566914884567],[-98.25782683577592,19.316665153134785],[-98.22454439645665,19.3303052059453],[-98.23722342095922,19.356857842083098],[-98.23024995748281,19.370861629635225],[-98.2188388354305,19.370316027522804],[-98.19411473765048,19.32557665430432],[-98.1956996157133,19.32557665430432],[-98.2099635182787,19.28920318014295],[-98.21566907930486,19.27829113789454],[-98.22264254278127,19.2771999336697],[-98.2533891772,19.261195605038697],[-98.25750986016335,19.263559880859187],[-98.25750986016335,19.263741748229993],[-98.25750986016335,19.263559880859187],[-98.25782683577592,19.263741748229993],[-98.25750986016335,19.263741748229993],[-98.2739925920167,19.27901860737777]]]}},{"type":"Feature","properties":{"cvegeo":"29032","cve_ent":"29","state_code":"TLA","nom_mun":"Tetlatlahuca"},"geometry":{"type":"Polygon","coordinates":[[[-98.30632410449826,19.188812391457574],[-98.31202966552442,19.190449197794834],[-98.29903366540928,19.220639181348773],[-98.30252039714749,19.263014278746766],[-98.2739925920167,19.27901860737777],[-98.25750986016335,19.263741748229993],[-98.25782683577592,19.263741748229993],[-98.27018888466593,19.226640804585397],[-98.27113981150362,19.2240946613941],[-98.27367561640413,19.211727680179237],[-98.30632410449826,19.188812391457574]]]}},{"type":"Feature","properties":{"cvegeo":"29031","cve_ent":"29","state_code":"TLA","nom_mun":"Tetla de la Solidaridad"},"geometry":{"type":"Polygon","coordinates":[[[-98.00551424817469,19.539816417114785],[-98.02263093125316,19.514354985201827],[-98.03530995575574,19.49907812605405],[-97.98269200407006,19.480345786860948],[-98.00741610185008,19.437788822092145],[-98.05908312669807,19.43851629157537],[-98.14530049331557,19.42760424932696],[-98.16051532271865,19.479982052119333],[-98.17953385947251,19.474162296253514],[-98.1814357131479,19.48943915540129],[-98.10124088316913,19.51999287369684],[-98.07207912681321,19.51144510726892],[-98.0578152242478,19.565277849027744],[-98.00551424817469,19.539816417114785]]]}},{"type":"Feature","properties":{"cvegeo":"29030","cve_ent":"29","state_code":"TLA","nom_mun":"Terrenate"},"geometry":{"type":"Polygon","coordinates":[[[-97.86984868599716,19.54236256030608],[-97.8898181495887,19.504170412436643],[-97.84861131995534,19.48252819531063],[-97.8622412712956,19.456157426543637],[-97.88918419836358,19.449246466452976],[-97.91961385716975,19.42251196294437],[-97.97128088201774,19.414873533370482],[-98.00741610185008,19.437788822092145],[-97.98269200407006,19.480345786860948],[-98.03530995575574,19.49907812605405],[-98.02263093125316,19.514354985201827],[-97.98110712600723,19.50671655562794],[-97.97286576008057,19.541635090822854],[-97.9484586379131,19.54236256030608],[-97.91549317420642,19.537997743406716],[-97.86984868599716,19.54236256030608]]]}},{"type":"Feature","properties":{"cvegeo":"29029","cve_ent":"29","state_code":"TLA","nom_mun":"Tepeyanco"},"geometry":{"type":"Polygon","coordinates":[[[-98.21313327440434,19.216456231820214],[-98.23183483554564,19.221002916090384],[-98.24229503076026,19.231187488855568],[-98.24831756739898,19.25228410386916],[-98.2533891772,19.261195605038697],[-98.22264254278127,19.2771999336697],[-98.21662000614255,19.260286268184664],[-98.20679376215305,19.24901049119464],[-98.21123142072895,19.225731467731364],[-98.21313327440434,19.216456231820214]]]}},{"type":"Feature","properties":{"cvegeo":"29028","cve_ent":"29","state_code":"TLA","nom_mun":"Teolocholco"},"geometry":{"type":"Polygon","coordinates":[[[-98.03372507769292,19.23173309096799],[-98.03182322401753,19.231005621484762],[-98.04228341923216,19.210090873841974],[-98.100606931944,19.163350959544616],[-98.1104331759335,19.216456231820214],[-98.12691590778684,19.214637558112145],[-98.1912619571374,19.228823213035078],[-98.21123142072895,19.225731467731364],[-98.20679376215305,19.24901049119464],[-98.18872615223688,19.257921992364174],[-98.18397151804842,19.25774012499337],[-98.1681227374202,19.25464837968965],[-98.15005512750403,19.25355717546481],[-98.03372507769292,19.23173309096799]]]}},{"type":"Feature","properties":{"cvegeo":"29027","cve_ent":"29","state_code":"TLA","nom_mun":"Tenancingo"},"geometry":{"type":"Polygon","coordinates":[[[-98.18936010346201,19.13698019077762],[-98.22454439645665,19.137889527631657],[-98.22454439645665,19.138071395002463],[-98.2010882011269,19.16480589851107],[-98.15512673730507,19.168079511185592],[-98.18936010346201,19.13698019077762]]]}},{"type":"Feature","properties":{"cvegeo":"29026","cve_ent":"29","state_code":"TLA","nom_mun":"Santa Cruz Tlaxcala"},"geometry":{"type":"Polygon","coordinates":[[[-98.12469707849888,19.404507093234493],[-98.1227952248235,19.363041332690532],[-98.09236556601732,19.323576113225446],[-98.10028995633144,19.32102997003415],[-98.100606931944,19.321393704775765],[-98.10028995633144,19.32102997003415],[-98.10028995633144,19.32048436792173],[-98.10472761490733,19.32157557214657],[-98.10567854174502,19.32157557214657],[-98.15354185924224,19.3383073702608],[-98.1494211762789,19.372680303343294],[-98.12469707849888,19.404507093234493]]]}},{"type":"Feature","properties":{"cvegeo":"29025","cve_ent":"29","state_code":"TLA","nom_mun":"San Pablo del Monte"},"geometry":{"type":"Polygon","coordinates":[[[-98.100606931944,19.163350959544616],[-98.11962546869786,19.13534338444036],[-98.16622088374481,19.104971533515616],[-98.18936010346201,19.13698019077762],[-98.15512673730507,19.168079511185592],[-98.14308166402762,19.187539319861926],[-98.12913473707479,19.211727680179237],[-98.12691590778684,19.214637558112145],[-98.1104331759335,19.216456231820214],[-98.100606931944,19.163350959544616]]]}},{"type":"Feature","properties":{"cvegeo":"29024","cve_ent":"29","state_code":"TLA","nom_mun":"Panotla"},"geometry":{"type":"Polygon","coordinates":[[[-98.32090498267623,19.300297089762168],[-98.32090498267623,19.316665153134785],[-98.3094938606239,19.38741156037865],[-98.29586390928364,19.40341588900965],[-98.28033210426798,19.413236727033222],[-98.24863454301155,19.37977313080476],[-98.25275522597488,19.356675974712292],[-98.26670215292772,19.326667858529163],[-98.25782683577592,19.316665153134785],[-98.29491298244594,19.289566914884567],[-98.30030156785953,19.31921129632608],[-98.32090498267623,19.300297089762168]]]}},{"type":"Feature","properties":{"cvegeo":"29023","cve_ent":"29","state_code":"TLA","nom_mun":"Natívitas"},"geometry":{"type":"Polygon","coordinates":[[[-98.31202966552442,19.190449197794834],[-98.32375776318929,19.168625113298013],[-98.34024049504265,19.185902513524663],[-98.33104820227828,19.19990630107679],[-98.369085275786,19.226095202472976],[-98.3779605929378,19.25464837968965],[-98.35006673903214,19.270107106208233],[-98.34911581219444,19.270652708320654],[-98.34848186096931,19.270107106208233],[-98.32122195828879,19.292476792817475],[-98.30252039714749,19.263014278746766],[-98.3326330803411,19.244645674295274],[-98.29903366540928,19.220639181348773],[-98.31202966552442,19.190449197794834]]]}},{"type":"Feature","properties":{"cvegeo":"29022","cve_ent":"29","state_code":"TLA","nom_mun":"Acuamanala de Miguel Hidalgo"},"geometry":{"type":"Polygon","coordinates":[[[-98.21313327440434,19.216456231820214],[-98.21123142072895,19.225731467731364],[-98.1912619571374,19.228823213035078],[-98.12691590778684,19.214637558112145],[-98.12913473707479,19.211727680179237],[-98.13293844442556,19.211727680179237],[-98.14530049331557,19.206999128538257],[-98.14720234699095,19.20627165905503],[-98.15639463975532,19.20445298534696],[-98.17604712773431,19.20172497478486],[-98.17541317650918,19.20336178112212],[-98.21313327440434,19.216456231820214]]]}},{"type":"Feature","properties":{"cvegeo":"29021","cve_ent":"29","state_code":"TLA","nom_mun":"Nanacamilpa de Mariano Arista"},"geometry":{"type":"Polygon","coordinates":[[[-98.54183698463358,19.460704110813808],[-98.59128518019361,19.449246466452976],[-98.63407688788979,19.467796938275274],[-98.637563619628,19.486893012209993],[-98.60333025347106,19.50144240187454],[-98.5069696672515,19.56327730794887],[-98.48351347192173,19.53545160021542],[-98.44832917892708,19.539270815002364],[-98.47717395967044,19.5136275157186],[-98.47970976457096,19.51308191360618],[-98.50316595990073,19.499623728166473],[-98.50475083796354,19.494167707042266],[-98.54183698463358,19.460704110813808]]]}},{"type":"Feature","properties":{"cvegeo":"29019","cve_ent":"29","state_code":"TLA","nom_mun":"Tepetitla de Lardizábal"},"geometry":{"type":"Polygon","coordinates":[[[-98.3779605929378,19.25464837968965],[-98.41060908103194,19.291749323334248],[-98.40807327613142,19.31593768365156],[-98.35196859270752,19.285383965356008],[-98.35006673903214,19.270107106208233],[-98.3779605929378,19.25464837968965]]]}},{"type":"Feature","properties":{"cvegeo":"29018","cve_ent":"29","state_code":"TLA","nom_mun":"Contla de Juan Cuamatzi"},"geometry":{"type":"Polygon","coordinates":[[[-98.17826595702226,19.343217789272586],[-98.15354185924224,19.3383073702608],[-98.10567854174502,19.32157557214657],[-98.10472761490733,19.32157557214657],[-98.10028995633144,19.32048436792173],[-98.10028995633144,19.32102997003415],[-98.100606931944,19.321393704775765],[-98.10028995633144,19.32102997003415],[-98.09236556601732,19.323576113225446],[-98.0907806879545,19.32284864374222],[-98.07936956590218,19.312664070977036],[-98.10662946858272,19.29738721182926],[-98.18650732294894,19.329032134349653],[-98.18650732294894,19.32921400172046],[-98.19157893274996,19.335033757586277],[-98.17826595702226,19.343217789272586]]]}},{"type":"Feature","properties":{"cvegeo":"29017","cve_ent":"29","state_code":"TLA","nom_mun":"Mazatecochco de José María Morelos"},"geometry":{"type":"Polygon","coordinates":[[[-98.12913473707479,19.211727680179237],[-98.14308166402762,19.187539319861926],[-98.17034156670816,19.178809686063197],[-98.17160946915841,19.17753661446755],[-98.17604712773431,19.20172497478486],[-98.15639463975532,19.20445298534696],[-98.14720234699095,19.20627165905503],[-98.14530049331557,19.206999128538257],[-98.13293844442556,19.211727680179237],[-98.12913473707479,19.211727680179237]]]}},{"type":"Feature","properties":{"cvegeo":"29016","cve_ent":"29","state_code":"TLA","nom_mun":"Ixtenco"},"geometry":{"type":"Polygon","coordinates":[[[-97.87048263722228,19.270652708320654],[-97.86509405180868,19.253920910206425],[-97.91359132053103,19.227913876181045],[-97.96050371119055,19.23809844894623],[-97.98522780897058,19.242827000587205],[-97.89647463745256,19.291749323334248],[-97.87048263722228,19.270652708320654]]]}},{"type":"Feature","properties":{"cvegeo":"29015","cve_ent":"29","state_code":"TLA","nom_mun":"Ixtacuixtla de Mariano Matamoros"},"geometry":{"type":"Polygon","coordinates":[[[-98.40807327613142,19.31593768365156],[-98.4419896666758,19.32739532801239],[-98.45530264240351,19.345400197722267],[-98.48700020365993,19.389412101457523],[-98.48763415488507,19.389957703569944],[-98.48763415488507,19.392321979390434],[-98.42297112992193,19.393231316244467],[-98.41504673960783,19.4179652786742],[-98.36528156843522,19.423421299798406],[-98.34404420239342,19.376317650759432],[-98.3094938606239,19.38741156037865],[-98.32090498267623,19.316665153134785],[-98.34436117800598,19.311572866752194],[-98.34911581219444,19.270652708320654],[-98.35006673903214,19.270107106208233],[-98.35196859270752,19.285383965356008],[-98.40807327613142,19.31593768365156]]]}},{"type":"Feature","properties":{"cvegeo":"29014","cve_ent":"29","state_code":"TLA","nom_mun":"Hueyotlipan"},"geometry":{"type":"Polygon","coordinates":[[[-98.29903366540928,19.53781587603591],[-98.28667161651927,19.512354444122952],[-98.28698859213183,19.48307379742305],[-98.28667161651927,19.48307379742305],[-98.29586390928364,19.40341588900965],[-98.3094938606239,19.38741156037865],[-98.34404420239342,19.376317650759432],[-98.36528156843522,19.423421299798406],[-98.35450439760804,19.45124700753185],[-98.3957112272414,19.48943915540129],[-98.42011834940887,19.529449976978796],[-98.39349239795345,19.54181695819366],[-98.38556800763935,19.57600802390535],[-98.37225503191165,19.5800091060631],[-98.32217288512648,19.566550920623392],[-98.29903366540928,19.53781587603591]]]}},{"type":"Feature","properties":{"cvegeo":"29013","cve_ent":"29","state_code":"TLA","nom_mun":"Huamantla"},"geometry":{"type":"Polygon","coordinates":[[[-97.97920527233185,19.192631606244518],[-97.99188429683443,19.19590521891904],[-98.03182322401753,19.231005621484762],[-98.03372507769292,19.23173309096799],[-98.03974761433165,19.286111434839235],[-98.01629141900187,19.28920318014295],[-98.03372507769292,19.355402903116644],[-98.02833649227932,19.371407231747646],[-97.99442010173495,19.39832360262706],[-97.97128088201774,19.414873533370482],[-97.91961385716975,19.42251196294437],[-97.88918419836358,19.449246466452976],[-97.87460332018561,19.39195824464882],[-97.86667892987151,19.377772589725886],[-97.80169892929581,19.34412712612662],[-97.82071746604967,19.304480039290727],[-97.83846810035328,19.287202639064077],[-97.86160732007048,19.285383965356008],[-97.87048263722228,19.270652708320654],[-97.89647463745256,19.291749323334248],[-97.98522780897058,19.242827000587205],[-97.99822380908572,19.232096825709604],[-97.97920527233185,19.192631606244518]]]}},{"type":"Feature","properties":{"cvegeo":"29012","cve_ent":"29","state_code":"TLA","nom_mun":"Españita"},"geometry":{"type":"Polygon","coordinates":[[[-98.48763415488507,19.392321979390434],[-98.50823756970175,19.426876779843735],[-98.49333971591122,19.430877862001484],[-98.50475083796354,19.494167707042266],[-98.50316595990073,19.499623728166473],[-98.44611034963914,19.48361939953547],[-98.43026156901092,19.499259993424857],[-98.3957112272414,19.48943915540129],[-98.35450439760804,19.45124700753185],[-98.36528156843522,19.423421299798406],[-98.41504673960783,19.4179652786742],[-98.42297112992193,19.393231316244467],[-98.48763415488507,19.392321979390434]]]}},{"type":"Feature","properties":{"cvegeo":"29011","cve_ent":"29","state_code":"TLA","nom_mun":"Muñoz de Domingo Arenas"},"geometry":{"type":"Polygon","coordinates":[[[-98.21820488420538,19.48361939953547],[-98.24768361617386,19.51417311783102],[-98.28667161651927,19.512354444122952],[-98.29903366540928,19.53781587603591],[-98.24166107953513,19.53836147814833],[-98.1814357131479,19.48943915540129],[-98.17953385947251,19.474162296253514],[-98.17826595702226,19.463795856117525],[-98.21820488420538,19.48361939953547]]]}},{"type":"Feature","properties":{"cvegeo":"29010","cve_ent":"29","state_code":"TLA","nom_mun":"Chiautempan"},"geometry":{"type":"Polygon","coordinates":[[[-98.2099635182787,19.28920318014295],[-98.1956996157133,19.32557665430432],[-98.19411473765048,19.32557665430432],[-98.18650732294894,19.329032134349653],[-98.18650732294894,19.32921400172046],[-98.18650732294894,19.329032134349653],[-98.10662946858272,19.29738721182926],[-98.07936956590218,19.312664070977036],[-98.04418527290754,19.2904762517386],[-98.09363346846759,19.249737960677866],[-98.16178322516892,19.27319885151195],[-98.1956996157133,19.302297630841046],[-98.2099635182787,19.28920318014295]]]}},{"type":"Feature","properties":{"cvegeo":"29009","cve_ent":"29","state_code":"TLA","nom_mun":"Cuaxomulco"},"geometry":{"type":"Polygon","coordinates":[[[-98.06193590721115,19.359403985274394],[-98.0907806879545,19.32284864374222],[-98.09236556601732,19.323576113225446],[-98.1227952248235,19.363041332690532],[-98.06193590721115,19.359403985274394]]]}},{"type":"Feature","properties":{"cvegeo":"29008","cve_ent":"29","state_code":"TLA","nom_mun":"Cuapiaxtla"},"geometry":{"type":"Polygon","coordinates":[[[-97.71991922125422,19.304843774032342],[-97.77126927048964,19.28356529164794],[-97.82071746604967,19.304480039290727],[-97.80169892929581,19.34412712612662],[-97.86667892987151,19.377772589725886],[-97.85526780781919,19.393231316244467],[-97.8115251732853,19.36249573057811],[-97.80708751470941,19.360495189499236],[-97.75034888006039,19.359949587386815],[-97.75637141669911,19.334670022844662],[-97.72942848963115,19.326122256416742],[-97.71009297726472,19.36831548644393],[-97.6907574648983,19.372134701230873],[-97.71991922125422,19.304843774032342]]]}},{"type":"Feature","properties":{"cvegeo":"29007","cve_ent":"29","state_code":"TLA","nom_mun":"El Carmen Tequexquitla"},"geometry":{"type":"Polygon","coordinates":[[[-97.704070440626,19.39304944887366],[-97.66444848905546,19.365041873769407],[-97.63148302534876,19.355402903116644],[-97.64638087913929,19.306480580369602],[-97.69107444051086,19.28592956746843],[-97.71991922125422,19.304843774032342],[-97.6907574648983,19.372134701230873],[-97.71009297726472,19.36831548644393],[-97.704070440626,19.39304944887366]]]}},{"type":"Feature","properties":{"cvegeo":"29006","cve_ent":"29","state_code":"TLA","nom_mun":"Calpulalpan"},"geometry":{"type":"Polygon","coordinates":[[[-98.53581444799485,19.63420558256354],[-98.51933171614151,19.60237879267234],[-98.4917548378484,19.607289211684126],[-98.4730532767071,19.575280554422122],[-98.43628410564965,19.56727839010662],[-98.44832917892708,19.539270815002364],[-98.48351347192173,19.53545160021542],[-98.5069696672515,19.56327730794887],[-98.60333025347106,19.50144240187454],[-98.637563619628,19.486893012209993],[-98.63407688788979,19.467796938275274],[-98.65309542464365,19.4657963971964],[-98.70856615684242,19.55454767415014],[-98.68130625416188,19.598195843143785],[-98.6705290833347,19.598559577885396],[-98.66545747353366,19.606198007459284],[-98.61347347307311,19.601105721076692],[-98.57924010691616,19.637842929979676],[-98.5503953261728,19.61856498867415],[-98.53581444799485,19.63420558256354]]]}},{"type":"Feature","properties":{"cvegeo":"29005","cve_ent":"29","state_code":"TLA","nom_mun":"Apizaco"},"geometry":{"type":"Polygon","coordinates":[[[-98.1272328833994,19.409053777504663],[-98.12469707849888,19.404507093234493],[-98.1494211762789,19.372680303343294],[-98.16400205445687,19.370316027522804],[-98.14720234699095,19.434515209417622],[-98.17826595702226,19.435424546271655],[-98.17826595702226,19.463795856117525],[-98.17953385947251,19.474162296253514],[-98.16051532271865,19.479982052119333],[-98.14530049331557,19.42760424932696],[-98.05908312669807,19.43851629157537],[-98.0838072244781,19.40396149112207],[-98.1272328833994,19.409053777504663]]]}},{"type":"Feature","properties":{"cvegeo":"29004","cve_ent":"29","state_code":"TLA","nom_mun":"Atltzayanca"},"geometry":{"type":"Polygon","coordinates":[[[-97.8622412712956,19.456157426543637],[-97.79440849020683,19.498350656570825],[-97.79694429510735,19.472343622545445],[-97.75510351424886,19.45761236551009],[-97.73893775800808,19.432696535709553],[-97.73576800188243,19.432514668338747],[-97.704070440626,19.39304944887366],[-97.71009297726472,19.36831548644393],[-97.72942848963115,19.326122256416742],[-97.75637141669911,19.334670022844662],[-97.75034888006039,19.359949587386815],[-97.80708751470941,19.360495189499236],[-97.8115251732853,19.36249573057811],[-97.85526780781919,19.393231316244467],[-97.86667892987151,19.377772589725886],[-97.87460332018561,19.39195824464882],[-97.88918419836358,19.449246466452976],[-97.8622412712956,19.456157426543637]]]}},{"type":"Feature","properties":{"cvegeo":"29003","cve_ent":"29","state_code":"TLA","nom_mun":"Atlangatepec"},"geometry":{"type":"Polygon","coordinates":[[[-98.10124088316913,19.51999287369684],[-98.1814357131479,19.48943915540129],[-98.24166107953513,19.53836147814833],[-98.2464157137236,19.589829944086667],[-98.15797951781815,19.58692006615376],[-98.16431903006944,19.57237067648921],[-98.10124088316913,19.51999287369684]]]}},{"type":"Feature","properties":{"cvegeo":"29002","cve_ent":"29","state_code":"TLA","nom_mun":"Apetatitlán de Antonio Carvajal"},"geometry":{"type":"Polygon","coordinates":[[[-98.18397151804842,19.366314945365055],[-98.17826595702226,19.343217789272586],[-98.19157893274996,19.335033757586277],[-98.18650732294894,19.32921400172046],[-98.18650732294894,19.329032134349653],[-98.19411473765048,19.32557665430432],[-98.2188388354305,19.370316027522804],[-98.20203912796458,19.376499518130238],[-98.18397151804842,19.366314945365055]]]}},{"type":"Feature","properties":{"cvegeo":"29001","cve_ent":"29","state_code":"TLA","nom_mun":"Amaxac de Guerrero"},"geometry":{"type":"Polygon","coordinates":[[[-98.18397151804842,19.366314945365055],[-98.16400205445687,19.370316027522804],[-98.1494211762789,19.372680303343294],[-98.15354185924224,19.3383073702608],[-98.17826595702226,19.343217789272586],[-98.18397151804842,19.366314945365055]]]}}]}