{"type":"FeatureCollection","features":[{"type":"Feature","properties":{"cvegeo":"32027","cve_ent":"32","state_code":"ZAC","nom_mun":"Melchor Ocampo"},"geometry":{"type":"Polygon","coordinates":[[[-101.60033467026697,24.754135805517862],[-101.59779886536646,24.753953938147056],[-101.59082540189004,24.719581005064562],[-101.62981340223546,24.67720590766657],[-101.67165418309395,24.67938831611625],[-101.68401623198396,24.712488177603095],[-101.75026413500991,24.713215647086322],[-101.78703330606737,24.687026745690137],[-101.87800530687335,24.723036485109894],[-101.98387516146984,24.77505055316065],[-102.10083916250608,24.819244324266712],[-102.12334443099815,24.860528217439867],[-102.21082970006591,24.937821850032776],[-102.2571081395003,24.951280035472486],[-102.3078242375106,24.9436416058986],[-102.31257887169906,24.973285987340113],[-102.3816795552381,25.03966757768461],[-102.42288638487146,25.033484087077177],[-102.45394999490277,25.048215344112535],[-102.46377623889227,25.11587000605268],[-102.29546218862059,25.12514524196383],[-102.23777262713388,25.118416149243977],[-102.08182062575221,25.070766898092582],[-101.84916052612999,25.017661625816984],[-101.83204384305151,24.972012915744465],[-101.77340335472711,24.875623209216837],[-101.68560111004679,24.839977204538695],[-101.65675632930343,24.860710084810677],[-101.60128559710466,24.83561238763933],[-101.60920998741878,24.7895999428252],[-101.64122452428778,24.800693852444418],[-101.62252296314648,24.759046224529648],[-101.60033467026697,24.754135805517862]]]}},{"type":"Feature","properties":{"cvegeo":"32007","cve_ent":"32","state_code":"ZAC","nom_mun":"Concepción del Oro"},"geometry":{"type":"Polygon","coordinates":[[[-101.08081164127401,24.59118264127493],[-100.9876208111801,24.43259429393136],[-101.01297886018523,24.390582931274977],[-101.06527983625836,24.206896886760063],[-101.17368549575536,24.164158054620454],[-101.21679417906411,24.159611370350284],[-101.20950373997513,24.086864422027546],[-101.32203008243548,24.129057652054733],[-101.43360549805813,24.25145439260774],[-101.38922891229912,24.37439673527317],[-101.37021037554526,24.51279780445718],[-101.43011876631992,24.52825653097576],[-101.41743974181735,24.568449219924073],[-101.46688793737738,24.597184264511554],[-101.4542089128748,24.629011054402753],[-101.41553788814196,24.667930671755418],[-101.42092647355555,24.71212444286148],[-101.44882032746122,24.746133641202363],[-101.40222491241425,24.788145003858745],[-101.34231652163959,24.813242701030088],[-101.20157934966102,24.765411582507888],[-101.164493202991,24.681388857195124],[-101.12772403193352,24.623191298536934],[-101.08081164127401,24.59118264127493]]]}},{"type":"Feature","properties":{"cvegeo":"32041","cve_ent":"32","state_code":"ZAC","nom_mun":"El Salvador"},"geometry":{"type":"Polygon","coordinates":[[[-100.799971248542,24.556264106080015],[-100.74228168705528,24.460420001664808],[-100.85068734655229,24.343297414865198],[-100.94546305470902,24.281280641420064],[-101.00663934793394,24.33565898529131],[-101.01012607967216,24.385126910150774],[-100.9876208111801,24.43259429393136],[-101.08081164127401,24.59118264127493],[-100.9590930060493,24.542442185898693],[-100.90235437140028,24.583907946442658],[-100.84783456603921,24.555536636596788],[-100.799971248542,24.556264106080015]]]}},{"type":"Feature","properties":{"cvegeo":"32005","cve_ent":"32","state_code":"ZAC","nom_mun":"Calera"},"geometry":{"type":"Polygon","coordinates":[[[-102.60990199628442,23.070407686588084],[-102.62511682568751,23.02057602698701],[-102.62448287446239,22.932006617404074],[-102.65332765520574,22.933825291112143],[-102.68470824084962,22.919275901447595],[-102.71196814353014,22.877446406162022],[-102.77948394900635,22.879265079870088],[-102.795015754022,22.835616910876446],[-102.84319604713178,22.837981186696936],[-102.86633526684898,22.850711902653416],[-102.85841087653488,22.8901771221185],[-102.89708190126773,22.90454464441224],[-102.90849302332005,22.937280771157475],[-102.89454609636721,22.979110266443048],[-102.81752102251407,22.981292674892728],[-102.77219350991737,22.95692244720461],[-102.69485146045167,22.981656409634343],[-102.68312336278679,23.02330403754911],[-102.71133419230502,23.057676970631604],[-102.66600667970832,23.119875611447547],[-102.60990199628442,23.070407686588084]]]}},{"type":"Feature","properties":{"cvegeo":"32006","cve_ent":"32","state_code":"ZAC","nom_mun":"Cañitas de Felipe Pescador"},"geometry":{"type":"Polygon","coordinates":[[[-102.70150794831552,23.672934286071165],[-102.64825604540471,23.670024408138254],[-102.60609828893365,23.581091263813708],[-102.55474823969823,23.54235351383185],[-102.56774423981336,23.516710214548084],[-102.59880784984468,23.53016839998779],[-102.59880784984468,23.49106691526432],[-102.64445233805394,23.53671562533684],[-102.68248941156166,23.515619010323242],[-102.74683546091222,23.538534299044905],[-102.77694814410584,23.484519689915274],[-102.83907536416845,23.467060422317815],[-102.87838034012643,23.494886130051263],[-102.86570131562385,23.538534299044905],[-102.87742941328874,23.559449046687693],[-102.84446394958205,23.574725905835468],[-102.79247994912149,23.685665002027644],[-102.70150794831552,23.672934286071165]]]}},{"type":"Feature","properties":{"cvegeo":"32008","cve_ent":"32","state_code":"ZAC","nom_mun":"Cuauhtémoc"},"geometry":{"type":"Polygon","coordinates":[[[-102.2758097006416,22.512256725581874],[-102.30719028628548,22.50152655070427],[-102.29831496913367,22.459515188047888],[-102.31194492047393,22.456969044856592],[-102.32145418885086,22.38858691343322],[-102.35917428674603,22.384767698646275],[-102.37850979911245,22.36094307307058],[-102.46853087308072,22.35166783715943],[-102.47106667798124,22.336209110640848],[-102.49293799524818,22.367490298419625],[-102.5398503859077,22.37403752376867],[-102.4812098975833,22.446420737349797],[-102.4767722390074,22.469517893442266],[-102.44317282407557,22.435690562472193],[-102.39277370167784,22.44551140049576],[-102.41306014088197,22.46460747443048],[-102.38421536013861,22.481703007286324],[-102.41084131159401,22.52062262463899],[-102.3772418966622,22.527897319471265],[-102.36519682338475,22.585913010758645],[-102.31891838395035,22.554813690350677],[-102.26947018839032,22.562997722036982],[-102.2758097006416,22.512256725581874]]]}},{"type":"Feature","properties":{"cvegeo":"32010","cve_ent":"32","state_code":"ZAC","nom_mun":"Fresnillo"},"geometry":{"type":"Polygon","coordinates":[[[-102.87742941328874,23.559449046687693],[-102.86570131562385,23.538534299044905],[-102.87838034012643,23.494886130051263],[-102.83907536416845,23.467060422317815],[-102.77694814410584,23.484519689915274],[-102.74683546091222,23.538534299044905],[-102.68248941156166,23.515619010323242],[-102.64445233805394,23.53671562533684],[-102.59880784984468,23.49106691526432],[-102.59880784984468,23.53016839998779],[-102.56774423981336,23.516710214548084],[-102.53477877610668,23.503252029108378],[-102.54175223958309,23.47651752559977],[-102.48628150738433,23.46051319696877],[-102.48437965370894,23.439962184067596],[-102.558551947049,23.363396020957914],[-102.56108775194951,23.33702525219092],[-102.50466609291306,23.306835268636984],[-102.51797906864077,23.246637168899916],[-102.54492199570873,23.21826585905405],[-102.49325497086075,23.182437987005102],[-102.5186130198659,23.1691616689362],[-102.54999360550977,23.092777373197325],[-102.57598560574004,23.07931918775762],[-102.60990199628442,23.070407686588084],[-102.66600667970832,23.119875611447547],[-102.71133419230502,23.057676970631604],[-102.76680492450377,23.07131702344212],[-102.82322658354023,23.070407686588084],[-102.90151955984362,23.022758435436693],[-102.89454609636721,22.979110266443048],[-102.90849302332005,22.937280771157475],[-102.89708190126773,22.90454464441224],[-102.92814551129904,22.920730840414052],[-102.98234834104754,22.897997419063195],[-103.00643848760242,22.924368187830186],[-103.04827926846092,22.90218036859175],[-103.09170492738224,22.91782096248114],[-103.13988522049202,22.86126021016021],[-103.20359731861745,22.88672164207317],[-103.24353624580056,22.90218036859175],[-103.22071400169592,22.948010946035076],[-103.24860785560159,22.967652622082216],[-103.24163439212518,23.009663984738598],[-103.28062239247059,23.018029883795712],[-103.37413019817707,23.0602231138229],[-103.39473361299376,23.050584143170138],[-103.43245371088891,23.12078494830158],[-103.45052132080508,23.112419049244465],[-103.51169761403,23.12533163257175],[-103.51772015066872,23.162432576216347],[-103.49236210166357,23.209354357884514],[-103.49458093095153,23.25045638368686],[-103.4708077600092,23.302652319108425],[-103.52405966292001,23.349937835518205],[-103.51803712628129,23.381582758038597],[-103.48570561379972,23.410681537367694],[-103.37381322256451,23.414682619525443],[-103.34528541743371,23.406680455209944],[-103.30978414882651,23.44723687889987],[-103.25050970927697,23.445236337820994],[-103.23402697742362,23.413409547929795],[-103.18933341605205,23.401770036198158],[-103.13481361069098,23.42759520285273],[-103.0457434635604,23.453965971619724],[-103.04415858549758,23.468879096025884],[-102.9782276580842,23.477426862453804],[-102.95984307255547,23.466696687576203],[-102.95984307255547,23.59473131662422],[-102.87742941328874,23.559449046687693]]]}},{"type":"Feature","properties":{"cvegeo":"32012","cve_ent":"32","state_code":"ZAC","nom_mun":"Genaro Codina"},"geometry":{"type":"Polygon","coordinates":[[[-102.65713136255651,22.617194198537426],[-102.65079185030523,22.602099206760457],[-102.55031058112233,22.607373360513854],[-102.5629896056249,22.559542241991654],[-102.51100560516434,22.539718698573708],[-102.49959448311203,22.58336686756735],[-102.47423643410688,22.57772897907234],[-102.47296853165663,22.623559556515666],[-102.42859194589762,22.600280533052388],[-102.36519682338475,22.585913010758645],[-102.3772418966622,22.527897319471265],[-102.41084131159401,22.52062262463899],[-102.38421536013861,22.481703007286324],[-102.41306014088197,22.46460747443048],[-102.39277370167784,22.44551140049576],[-102.44317282407557,22.435690562472193],[-102.4767722390074,22.469517893442266],[-102.4812098975833,22.446420737349797],[-102.5398503859077,22.37403752376867],[-102.49293799524818,22.367490298419625],[-102.47106667798124,22.336209110640848],[-102.46219136082944,22.322932792571947],[-102.52590345895487,22.290924135309943],[-102.61212082557238,22.291469737422364],[-102.60990199628442,22.334208569561973],[-102.64413536244138,22.35166783715943],[-102.65522950888113,22.38913251554564],[-102.69580238728936,22.422414244403292],[-102.6634708748078,22.500071611737816],[-102.69485146045167,22.516803409852045],[-102.74398268039914,22.546265923922753],[-102.72052648506939,22.611920044784025],[-102.69453448483911,22.622286484920018],[-102.65713136255651,22.617194198537426]]]}},{"type":"Feature","properties":{"cvegeo":"32013","cve_ent":"32","state_code":"ZAC","nom_mun":"General Enrique Estrada"},"geometry":{"type":"Polygon","coordinates":[[[-102.71133419230502,23.057676970631604],[-102.68312336278679,23.02330403754911],[-102.69485146045167,22.981656409634343],[-102.77219350991737,22.95692244720461],[-102.81752102251407,22.981292674892728],[-102.89454609636721,22.979110266443048],[-102.90151955984362,23.022758435436693],[-102.82322658354023,23.070407686588084],[-102.76680492450377,23.07131702344212],[-102.71133419230502,23.057676970631604]]]}},{"type":"Feature","properties":{"cvegeo":"32016","cve_ent":"32","state_code":"ZAC","nom_mun":"General Pánfilo Natera"},"geometry":{"type":"Polygon","coordinates":[[[-101.94837389286263,22.651930866361532],[-102.00067486893575,22.661024234901873],[-102.03681008876808,22.59900746145674],[-102.08689223555325,22.55517742509229],[-102.08150365013965,22.52407810468432],[-102.12968394324943,22.530079727920945],[-102.12746511396149,22.56899934527361],[-102.14584969949021,22.57263669268975],[-102.19624882188795,22.649384723170236],[-102.16043057766818,22.71831245670603],[-102.19719974872564,22.745228827585443],[-102.24633096867312,22.734498652707842],[-102.21748618792977,22.8343438392808],[-102.19719974872564,22.88272055991542],[-102.19212813892462,22.86489755757635],[-102.12492930906097,22.782693505971654],[-101.94837389286263,22.651930866361532]]]}},{"type":"Feature","properties":{"cvegeo":"32020","cve_ent":"32","state_code":"ZAC","nom_mun":"Jerez"},"geometry":{"type":"Polygon","coordinates":[[[-102.89708190126773,22.90454464441224],[-102.85841087653488,22.8901771221185],[-102.86633526684898,22.850711902653416],[-102.84319604713178,22.837981186696936],[-102.84985253499563,22.810882948446714],[-102.76205029031532,22.781420434376006],[-102.77948394900635,22.76559797311581],[-102.76205029031532,22.722131671492974],[-102.78772531493303,22.675028022454],[-102.78265370513199,22.613011249008867],[-102.80801175413714,22.595188246669796],[-102.81435126638843,22.54426538284388],[-102.91388160873363,22.558269170396006],[-102.91356463312107,22.513893531919138],[-102.95572238959213,22.496252396950872],[-103.00802336566525,22.527897319471265],[-103.05398482948708,22.50661883708686],[-103.06254317102632,22.550994475563733],[-103.1097725372984,22.571909223206518],[-103.07934287849223,22.611192575300798],[-103.08631634196864,22.64101882411312],[-103.1195987812879,22.636108405101336],[-103.17031487929819,22.693396626905493],[-103.21659331873259,22.69521530061356],[-103.24955878243928,22.737226663269944],[-103.21881214802055,22.836162512988867],[-103.19757478197873,22.83998172777581],[-103.20359731861745,22.88672164207317],[-103.13988522049202,22.86126021016021],[-103.09170492738224,22.91782096248114],[-103.04827926846092,22.90218036859175],[-103.00643848760242,22.924368187830186],[-102.98234834104754,22.897997419063195],[-102.92814551129904,22.920730840414052],[-102.89708190126773,22.90454464441224]]]}},{"type":"Feature","properties":{"cvegeo":"32024","cve_ent":"32","state_code":"ZAC","nom_mun":"Loreto"},"geometry":{"type":"Polygon","coordinates":[[[-102.1122502845584,22.380221014376104],[-102.08403945504017,22.36094307307058],[-102.01874247885192,22.36039747095816],[-102.01937643007705,22.349121693968133],[-101.93030628294646,22.34766675500168],[-101.86342442869538,22.32347839468437],[-101.84947750174256,22.295470819580114],[-101.7921049158684,22.299290034367058],[-101.79178794025584,22.24891277265356],[-101.81587808681073,22.241274343079674],[-101.81841389171124,22.190897081366177],[-101.78418052555429,22.16598125156564],[-101.87198277023462,22.1728922116563],[-101.91699330721876,22.221087064920113],[-101.969928234517,22.23072603557288],[-101.99972394209806,22.219450258582853],[-102.02254618620269,22.24145621045048],[-102.0374440399932,22.298744432254637],[-102.07548111350093,22.306019127086913],[-102.12429535783585,22.286923053152194],[-102.15345711419177,22.290378533197522],[-102.162015455731,22.348394224484906],[-102.1122502845584,22.380221014376104]]]}},{"type":"Feature","properties":{"cvegeo":"32025","cve_ent":"32","state_code":"ZAC","nom_mun":"Luis Moya"},"geometry":{"type":"Polygon","coordinates":[[[-102.11161633333327,22.385858902871117],[-102.1122502845584,22.380221014376104],[-102.162015455731,22.348394224484906],[-102.18895838279897,22.362398012037033],[-102.25330443214953,22.37458312588109],[-102.29007360320699,22.419868101211996],[-102.29831496913367,22.459515188047888],[-102.30719028628548,22.50152655070427],[-102.2758097006416,22.512256725581874],[-102.22889730998207,22.517349011964466],[-102.19244511453718,22.48243047676955],[-102.21748618792977,22.41550328431263],[-102.11066540649557,22.400772027277277],[-102.11161633333327,22.385858902871117]]]}},{"type":"Feature","properties":{"cvegeo":"32026","cve_ent":"32","state_code":"ZAC","nom_mun":"Mazapil"},"geometry":{"type":"Polygon","coordinates":[[[-102.45394999490277,25.048215344112535],[-102.42288638487146,25.033484087077177],[-102.3816795552381,25.03966757768461],[-102.31257887169906,24.973285987340113],[-102.3078242375106,24.9436416058986],[-102.2571081395003,24.951280035472486],[-102.21082970006591,24.937821850032776],[-102.12334443099815,24.860528217439867],[-102.10083916250608,24.819244324266712],[-101.98387516146984,24.77505055316065],[-101.87800530687335,24.723036485109894],[-101.78703330606737,24.687026745690137],[-101.75026413500991,24.713215647086322],[-101.68401623198396,24.712488177603095],[-101.67165418309395,24.67938831611625],[-101.62981340223546,24.67720590766657],[-101.59082540189004,24.719581005064562],[-101.59779886536646,24.753953938147056],[-101.46181632757636,24.736676537920406],[-101.44882032746122,24.746133641202363],[-101.42092647355555,24.71212444286148],[-101.41553788814196,24.667930671755418],[-101.4542089128748,24.629011054402753],[-101.46688793737738,24.597184264511554],[-101.41743974181735,24.568449219924073],[-101.43011876631992,24.52825653097576],[-101.37021037554526,24.51279780445718],[-101.38922891229912,24.37439673527317],[-101.43360549805813,24.25145439260774],[-101.32203008243548,24.129057652054733],[-101.20950373997513,24.086864422027546],[-101.19302100812179,23.918637104031212],[-101.34073164357677,23.79714970033224],[-101.46657096176482,23.693667166343147],[-101.53440374285358,23.752410327113758],[-101.51538520609972,23.7642317062162],[-101.51665310854999,23.82297486698681],[-101.58004823106286,23.808971079434684],[-101.62347388998417,23.8306132965607],[-101.67609184166986,23.837160521909745],[-101.75977340338684,23.8120628247384],[-101.82570433080022,23.832795705010383],[-101.92079701456953,23.8438896146296],[-102.00986716170011,23.812790294221628],[-102.03839496683091,23.8598939432606],[-102.08530735749042,23.8571659326985],[-102.097986381993,23.916818430323147],[-102.13951018723893,23.90263277540021],[-102.1629663825687,23.956647384529845],[-102.1949809194377,23.95737485401307],[-102.27961340799237,24.008661452580604],[-102.2910245300447,24.05249148894505],[-102.28246618850545,24.132876866841677],[-102.34903106714397,24.14906306284349],[-102.35188384765705,24.207624356243294],[-102.41971662874582,24.223992419615907],[-102.42510521415942,24.250181321012093],[-102.51734511741563,24.344570486460846],[-102.54460502009617,24.33165790313356],[-102.56774423981336,24.35311825288877],[-102.57313282522696,24.389127992308524],[-102.61180384995981,24.40040376929855],[-102.60673224015878,24.410952076805344],[-102.53414482488155,24.40767846413082],[-102.48057594635817,24.427683874919573],[-102.48025897074561,24.490428117847937],[-102.494522873311,24.61246112365933],[-102.51227350761461,24.709578299670184],[-102.56647633736311,24.901993977983828],[-102.67298014318473,24.942732269044562],[-102.67298014318473,24.97856014109351],[-102.64318443560369,24.978378273722704],[-102.62892053303828,25.008386389905834],[-102.66981038705909,25.066402081193218],[-102.44665955581378,24.999474888736298],[-102.45394999490277,25.048215344112535]]]}},{"type":"Feature","properties":{"cvegeo":"32031","cve_ent":"32","state_code":"ZAC","nom_mun":"Monte Escobedo"},"geometry":{"type":"Polygon","coordinates":[[[-103.30185975851239,22.639200150405053],[-103.30566346586318,22.6244688933697],[-103.24068346528747,22.596461318265444],[-103.24290229457543,22.568817477902805],[-103.29964092922445,22.46297066809322],[-103.30566346586318,22.390405587141288],[-103.36462092980014,22.3694908394985],[-103.34306658814576,22.335117906416006],[-103.35447771019808,22.279466490949112],[-103.32816873435524,22.30729219868256],[-103.29773907554906,22.298380697513025],[-103.29932395361189,22.24891277265356],[-103.33799497834474,22.245093557866618],[-103.40899751555915,22.215449176425103],[-103.42643117425018,22.139064880686227],[-103.44988736957995,22.114330918256496],[-103.51581829699333,22.10996610135713],[-103.5383235654854,22.121423745717962],[-103.58048132195647,22.125788562617327],[-103.60457146851135,22.097780987513072],[-103.684132347265,22.109238631873904],[-103.69078883512886,22.128334705808623],[-103.66131010316037,22.166708721048867],[-103.63088044435419,22.238728199888378],[-103.59949985871032,22.277647817241043],[-103.63817088344318,22.295288952209308],[-103.6353181029301,22.343301938102314],[-103.60710727341187,22.338209651719723],[-103.5944282489093,22.407137385255517],[-103.57255693164235,22.43750923618026],[-103.58523595614493,22.52535117627997],[-103.61059400515008,22.559542241991654],[-103.53737263864771,22.570454284240064],[-103.48253585767408,22.556086761946325],[-103.46288336969509,22.606282156289012],[-103.383639466554,22.661024234901873],[-103.35828141754885,22.638472680921826],[-103.30185975851239,22.639200150405053]]]}},{"type":"Feature","properties":{"cvegeo":"32032","cve_ent":"32","state_code":"ZAC","nom_mun":"Morelos"},"geometry":{"type":"Polygon","coordinates":[[[-102.57059702032645,22.851984974249063],[-102.58581184972954,22.811428550559135],[-102.60546433770853,22.789604466062315],[-102.62892053303828,22.81524776534608],[-102.68502521646218,22.817066439054148],[-102.74746941213735,22.80488132521009],[-102.74556755846197,22.83307076768515],[-102.795015754022,22.835616910876446],[-102.77948394900635,22.879265079870088],[-102.71196814353014,22.877446406162022],[-102.68470824084962,22.919275901447595],[-102.65332765520574,22.933825291112143],[-102.65681438694395,22.90690892023273],[-102.61433965486033,22.87671893667879],[-102.60197760597032,22.89308700005141],[-102.57059702032645,22.851984974249063]]]}},{"type":"Feature","properties":{"cvegeo":"32035","cve_ent":"32","state_code":"ZAC","nom_mun":"Noria de Ángeles"},"geometry":{"type":"Polygon","coordinates":[[[-101.79939535495738,22.470609097667108],[-101.79812745250713,22.470063495554687],[-101.817145989261,22.407137385255517],[-101.80319906230815,22.372036982689796],[-101.83457964795203,22.37531059536432],[-101.84662472122947,22.35221343927185],[-101.75945642777428,22.35275904138427],[-101.777841013303,22.3003812385919],[-101.7921049158684,22.299290034367058],[-101.84947750174256,22.295470819580114],[-101.86342442869538,22.32347839468437],[-101.93030628294646,22.34766675500168],[-102.01937643007705,22.349121693968133],[-102.01874247885192,22.36039747095816],[-102.08403945504017,22.36094307307058],[-102.1122502845584,22.380221014376104],[-102.11161633333327,22.385858902871117],[-102.04505145469476,22.42768839815669],[-101.98197330779445,22.47515578193728],[-101.88846550208797,22.461333861755957],[-101.84535681877921,22.50152655070427],[-101.79939535495738,22.470609097667108]]]}},{"type":"Feature","properties":{"cvegeo":"32036","cve_ent":"32","state_code":"ZAC","nom_mun":"Ojocaliente"},"geometry":{"type":"Polygon","coordinates":[[[-102.08689223555325,22.55517742509229],[-102.04124774734399,22.53208026899982],[-102.06438696706118,22.499526009625395],[-102.04505145469476,22.42768839815669],[-102.11161633333327,22.385858902871117],[-102.11066540649557,22.400772027277277],[-102.21748618792977,22.41550328431263],[-102.19244511453718,22.48243047676955],[-102.22889730998207,22.517349011964466],[-102.2758097006416,22.512256725581874],[-102.26947018839032,22.562997722036982],[-102.31891838395035,22.554813690350677],[-102.36519682338475,22.585913010758645],[-102.42859194589762,22.600280533052388],[-102.40006414076683,22.662115439126715],[-102.36171009164654,22.676119226678843],[-102.3132128229242,22.690304881601776],[-102.25584023705005,22.68957741211855],[-102.24633096867312,22.734498652707842],[-102.19719974872564,22.745228827585443],[-102.16043057766818,22.71831245670603],[-102.19624882188795,22.649384723170236],[-102.14584969949021,22.57263669268975],[-102.12746511396149,22.56899934527361],[-102.12968394324943,22.530079727920945],[-102.08150365013965,22.52407810468432],[-102.08689223555325,22.55517742509229]]]}},{"type":"Feature","properties":{"cvegeo":"32037","cve_ent":"32","state_code":"ZAC","nom_mun":"Pánuco"},"geometry":{"type":"Polygon","coordinates":[[[-102.25996092001338,23.04585559152916],[-102.23396891978311,23.024940843886373],[-102.26186277368878,22.98874923709581],[-102.32082023762574,22.98420255282564],[-102.34269155489268,22.955649375608964],[-102.41020736036889,22.954376304013316],[-102.44951233632686,22.930915413179235],[-102.42669009222223,22.894360071647057],[-102.46821389746816,22.873263456633463],[-102.50688492220101,22.873263456633463],[-102.54777477622181,22.84743828997889],[-102.57059702032645,22.851984974249063],[-102.60197760597032,22.89308700005141],[-102.61433965486033,22.87671893667879],[-102.65681438694395,22.90690892023273],[-102.65332765520574,22.933825291112143],[-102.62448287446239,22.932006617404074],[-102.62511682568751,23.02057602698701],[-102.60990199628442,23.070407686588084],[-102.57598560574004,23.07931918775762],[-102.52526950772975,23.067861543396788],[-102.52463555650462,23.094232312163783],[-102.39087184800246,23.094596046905394],[-102.39087184800246,23.109691038682364],[-102.30623935944777,23.09550538375943],[-102.34839711591884,23.069680217104857],[-102.35917428674603,23.041308907258987],[-102.25996092001338,23.04585559152916]]]}},{"type":"Feature","properties":{"cvegeo":"32038","cve_ent":"32","state_code":"ZAC","nom_mun":"Pinos"},"geometry":{"type":"Polygon","coordinates":[[[-101.36608969258192,22.69175982056823],[-101.38003661953475,22.67575549193723],[-101.33724491183857,22.658659959081383],[-101.29350227730468,22.58445807179219],[-101.28589486260314,22.50789190868251],[-101.31410569212137,22.453513564811264],[-101.37464803412115,22.456241575373365],[-101.3822554488227,22.35730572565444],[-101.43328852244557,22.36312548152026],[-101.41997554671786,22.315112495627254],[-101.39176471719964,22.29983563647948],[-101.41617183936708,22.267281377105054],[-101.36989339993269,22.253277589552926],[-101.324565887336,22.20962942055928],[-101.3511918387914,22.176711426443244],[-101.3413655948019,22.151977464013513],[-101.32963749713701,22.13542753327009],[-101.35087486317883,22.087050812635468],[-101.35404461930447,22.044675715237474],[-101.32773564346164,21.99702646408608],[-101.37401408289603,21.989388034512192],[-101.43043574193248,21.932281680078844],[-101.41046627834093,21.908457054503145],[-101.48305369361816,21.867536896071606],[-101.49636666934586,21.809884939525837],[-101.51063057191126,21.798791029906617],[-101.53725652336666,21.810612409009064],[-101.56261457237181,21.855351782227547],[-101.57022198707337,21.91700482093107],[-101.65105076827727,21.90772958501992],[-101.6596091098165,21.94155691598999],[-101.71095915905192,21.97392930799361],[-101.75089808623504,22.014667599054345],[-101.777841013303,22.007211036851263],[-101.8019311598579,22.027762049752436],[-101.77150150105172,22.064681126026226],[-101.79907837934482,22.099781528591947],[-101.78418052555429,22.16598125156564],[-101.81841389171124,22.190897081366177],[-101.81587808681073,22.241274343079674],[-101.79178794025584,22.24891277265356],[-101.7921049158684,22.299290034367058],[-101.777841013303,22.3003812385919],[-101.7344153543817,22.292924676388818],[-101.68655203688448,22.316021832481287],[-101.6792615977955,22.335299773786815],[-101.61618345089519,22.3216597209763],[-101.6418584755129,22.361852409924612],[-101.62188901192135,22.412411539008914],[-101.58702169453927,22.428779602381532],[-101.63456803642393,22.456241575373365],[-101.61396462160724,22.48024806831987],[-101.66309584155472,22.491341977939086],[-101.6561223780783,22.513893531919138],[-101.57402569442414,22.612647514267252],[-101.56768618217285,22.656841285373318],[-101.49731759618356,22.7015806585918],[-101.49129505954484,22.74195521491092],[-101.41110022956606,22.747593103405933],[-101.34960696072858,22.711765231356985],[-101.36608969258192,22.69175982056823]]]}},{"type":"Feature","properties":{"cvegeo":"32039","cve_ent":"32","state_code":"ZAC","nom_mun":"Río Grande"},"geometry":{"type":"Polygon","coordinates":[[[-102.73035272905888,23.798059037186274],[-102.73320550957196,23.75150099025972],[-102.69611936290192,23.733859855291456],[-102.67361409440986,23.68602873676926],[-102.70150794831552,23.672934286071165],[-102.79247994912149,23.685665002027644],[-102.84446394958205,23.574725905835468],[-102.87742941328874,23.559449046687693],[-102.95984307255547,23.59473131662422],[-103.03116258538245,23.595095051365835],[-103.04732834162323,23.632923464493658],[-103.0974104884084,23.624011963324122],[-103.11737995199995,23.643653639371262],[-103.09931234208378,23.691302890522657],[-103.17094883052333,23.695485840051212],[-103.21722726995772,23.68530126728603],[-103.20454824545514,23.72222034355982],[-103.23371000181106,23.74004334589889],[-103.22039702608336,23.781872841184466],[-103.29425234381085,23.769323992598792],[-103.36018327122424,23.746044969135518],[-103.35859839316142,23.799150241411116],[-103.37349624695194,23.837160521909745],[-103.34782122233423,23.872806526587887],[-103.33355731976883,23.92172884933493],[-103.29488629503598,23.92809420731317],[-103.32816873435524,23.957920456125493],[-103.30978414882651,23.984836827004905],[-103.30059185606214,23.977198397431017],[-103.2609699044916,24.065404072272337],[-103.25843409959108,24.063767265935077],[-103.1560509767328,23.918091501918795],[-103.09836141524609,23.891902600522606],[-103.03528326834578,23.903360244883437],[-102.99027273136164,23.86462249490158],[-102.97252209705805,23.88590097728598],[-102.81149848587535,23.882809231982264],[-102.7363752656976,23.85316485054075],[-102.73035272905888,23.798059037186274]]]}},{"type":"Feature","properties":{"cvegeo":"32040","cve_ent":"32","state_code":"ZAC","nom_mun":"Sain Alto"},"geometry":{"type":"Polygon","coordinates":[[[-102.95984307255547,23.59473131662422],[-102.95984307255547,23.466696687576203],[-102.9782276580842,23.477426862453804],[-103.04415858549758,23.468879096025884],[-103.0457434635604,23.453965971619724],[-103.13481361069098,23.42759520285273],[-103.18933341605205,23.401770036198158],[-103.23402697742362,23.413409547929795],[-103.25050970927697,23.445236337820994],[-103.30978414882651,23.44723687889987],[-103.34528541743371,23.406680455209944],[-103.37381322256451,23.414682619525443],[-103.48570561379972,23.410681537367694],[-103.47936610154844,23.449055552607938],[-103.44259693049096,23.469424698138305],[-103.4574947842815,23.51125419342388],[-103.49236210166357,23.551810617113805],[-103.4698568331715,23.59527691873664],[-103.39917127156966,23.610008175771995],[-103.37000951521374,23.636197077168184],[-103.39314873493093,23.667114530205346],[-103.40551078382094,23.706943484412044],[-103.3703264908263,23.70094186117542],[-103.36018327122424,23.746044969135518],[-103.29425234381085,23.769323992598792],[-103.22039702608336,23.781872841184466],[-103.23371000181106,23.74004334589889],[-103.20454824545514,23.72222034355982],[-103.21722726995772,23.68530126728603],[-103.17094883052333,23.695485840051212],[-103.09931234208378,23.691302890522657],[-103.11737995199995,23.643653639371262],[-103.0974104884084,23.624011963324122],[-103.04732834162323,23.632923464493658],[-103.03116258538245,23.595095051365835],[-102.95984307255547,23.59473131662422]]]}},{"type":"Feature","properties":{"cvegeo":"32042","cve_ent":"32","state_code":"ZAC","nom_mun":"Sombrerete"},"geometry":{"type":"Polygon","coordinates":[[[-103.30978414882651,23.984836827004905],[-103.32816873435524,23.957920456125493],[-103.29488629503598,23.92809420731317],[-103.33355731976883,23.92172884933493],[-103.34782122233423,23.872806526587887],[-103.37349624695194,23.837160521909745],[-103.35859839316142,23.799150241411116],[-103.36018327122424,23.746044969135518],[-103.3703264908263,23.70094186117542],[-103.40551078382094,23.706943484412044],[-103.39314873493093,23.667114530205346],[-103.37000951521374,23.636197077168184],[-103.39917127156966,23.610008175771995],[-103.4698568331715,23.59527691873664],[-103.49236210166357,23.551810617113805],[-103.4574947842815,23.51125419342388],[-103.44259693049096,23.469424698138305],[-103.47936610154844,23.449055552607938],[-103.48570561379972,23.410681537367694],[-103.51803712628129,23.381582758038597],[-103.52405966292001,23.349937835518205],[-103.4708077600092,23.302652319108425],[-103.49458093095153,23.25045638368686],[-103.49236210166357,23.209354357884514],[-103.51772015066872,23.162432576216347],[-103.55861000468953,23.14951999288906],[-103.58238317563185,23.16061390250828],[-103.62137117597726,23.141154093831947],[-103.63278229802958,23.11223718187366],[-103.6752570301132,23.110054773423975],[-103.76115742111814,23.099324598546374],[-103.83120903149486,23.06095058330613],[-103.87875537337952,23.061132450676936],[-103.85846893417539,23.089503760522803],[-103.80490005565203,23.094232312163783],[-103.78112688470969,23.11496519243576],[-103.76971576265738,23.159340830912633],[-103.74087098191403,23.15715842246295],[-103.68730210339065,23.196623641928035],[-103.6584573226473,23.190985753433022],[-103.652117810396,23.232815248718598],[-103.68730210339065,23.216810920087596],[-103.69110581074142,23.25282065950735],[-103.73548239650043,23.264096436497375],[-103.72692405496119,23.29846936957987],[-103.74245585997684,23.441598990404856],[-103.80268122636407,23.414682619525443],[-103.7934889335997,23.503433896479184],[-103.78176083593482,23.544899657023144],[-103.81472629964152,23.58036379433048],[-103.87938932460465,23.611644982109258],[-103.84927664141102,23.640016291955128],[-103.81155654351588,23.613645523188133],[-103.78524756767303,23.676389766116493],[-103.85117849508642,23.67966337879102],[-103.84103527548436,23.701305595917034],[-103.86258961713874,23.752592194484563],[-103.81599420209177,23.80751614046823],[-103.84769176334821,23.860985147485444],[-103.81853000699229,23.964649548845344],[-103.83786551935872,23.964103946732926],[-103.8727328367408,24.00702464624334],[-103.81028864106561,24.039942640359378],[-103.74562561610249,24.08904683047723],[-103.75006327467838,24.048672274158108],[-103.65972522509755,23.989565378645885],[-103.56716834622875,23.98683736808378],[-103.57065507796696,24.008661452580604],[-103.53705566303515,24.01448120844642],[-103.4752454185851,23.994839532399283],[-103.43815927191507,23.999931818781874],[-103.41311819852248,23.968832498373903],[-103.37761692991528,23.971014906823584],[-103.33926288079499,24.00920705469302],[-103.30978414882651,23.984836827004905]]]}},{"type":"Feature","properties":{"cvegeo":"32043","cve_ent":"32","state_code":"ZAC","nom_mun":"Susticacán"},"geometry":{"type":"Polygon","coordinates":[[[-103.1097725372984,22.571909223206518],[-103.19155224534,22.6059184215474],[-103.20645009913054,22.571727355835712],[-103.24290229457543,22.568817477902805],[-103.24068346528747,22.596461318265444],[-103.30566346586318,22.6244688933697],[-103.30185975851239,22.639200150405053],[-103.27776961195751,22.67684669616207],[-103.22229887975875,22.679938441465787],[-103.21659331873259,22.69521530061356],[-103.17031487929819,22.693396626905493],[-103.1195987812879,22.636108405101336],[-103.08631634196864,22.64101882411312],[-103.07934287849223,22.611192575300798],[-103.1097725372984,22.571909223206518]]]}},{"type":"Feature","properties":{"cvegeo":"32046","cve_ent":"32","state_code":"ZAC","nom_mun":"Tepetongo"},"geometry":{"type":"Polygon","coordinates":[[[-103.1097725372984,22.571909223206518],[-103.06254317102632,22.550994475563733],[-103.05398482948708,22.50661883708686],[-103.00802336566525,22.527897319471265],[-102.95572238959213,22.496252396950872],[-102.97315604828317,22.448421278428672],[-103.01499682914167,22.454968503777717],[-103.02418912190603,22.40822858948036],[-103.07585614675402,22.368581502644467],[-103.02418912190603,22.273101132970872],[-103.05747156122528,22.237636995663536],[-103.07902590287966,22.258006141193903],[-103.09899536647121,22.292379074276397],[-103.19091829411488,22.29856256488383],[-103.22261585537132,22.28346757310686],[-103.2102538064813,22.32802507895454],[-103.16873000123537,22.35457771509234],[-103.16873000123537,22.384767698646275],[-103.19884268442898,22.38040288174691],[-103.21944609924567,22.41059286530085],[-103.23244209936081,22.39313359770339],[-103.28569400227161,22.413502743233757],[-103.30566346586318,22.390405587141288],[-103.29964092922445,22.46297066809322],[-103.24290229457543,22.568817477902805],[-103.20645009913054,22.571727355835712],[-103.19155224534,22.6059184215474],[-103.1097725372984,22.571909223206518]]]}},{"type":"Feature","properties":{"cvegeo":"32052","cve_ent":"32","state_code":"ZAC","nom_mun":"Villa García"},"geometry":{"type":"Polygon","coordinates":[[[-101.78418052555429,22.16598125156564],[-101.79907837934482,22.099781528591947],[-101.77150150105172,22.064681126026226],[-101.8019311598579,22.027762049752436],[-101.86183955063257,22.028853253977278],[-101.86437535553307,22.041583969933757],[-101.96802638084162,22.11123917295278],[-102.0260329179409,22.129789644775077],[-102.00099184454831,22.167981792644515],[-101.99972394209806,22.219450258582853],[-101.969928234517,22.23072603557288],[-101.91699330721876,22.221087064920113],[-101.87198277023462,22.1728922116563],[-101.78418052555429,22.16598125156564]]]}},{"type":"Feature","properties":{"cvegeo":"32053","cve_ent":"32","state_code":"ZAC","nom_mun":"Villa González Ortega"},"geometry":{"type":"Polygon","coordinates":[[[-101.94837389286263,22.651930866361532],[-101.94615506357468,22.650475927395078],[-101.85328120909332,22.65593194851928],[-101.87293369707231,22.562815854666177],[-101.82031574538664,22.55117634293454],[-101.83711545285254,22.499526009625395],[-101.79939535495738,22.470609097667108],[-101.84535681877921,22.50152655070427],[-101.88846550208797,22.461333861755957],[-101.98197330779445,22.47515578193728],[-102.04505145469476,22.42768839815669],[-102.06438696706118,22.499526009625395],[-102.04124774734399,22.53208026899982],[-102.08689223555325,22.55517742509229],[-102.03681008876808,22.59900746145674],[-102.00067486893575,22.661024234901873],[-101.94837389286263,22.651930866361532]]]}},{"type":"Feature","properties":{"cvegeo":"32054","cve_ent":"32","state_code":"ZAC","nom_mun":"Villa Hidalgo"},"geometry":{"type":"Polygon","coordinates":[[[-101.6561223780783,22.513893531919138],[-101.66309584155472,22.491341977939086],[-101.61396462160724,22.48024806831987],[-101.63456803642393,22.456241575373365],[-101.58702169453927,22.428779602381532],[-101.62188901192135,22.412411539008914],[-101.6418584755129,22.361852409924612],[-101.61618345089519,22.3216597209763],[-101.6792615977955,22.335299773786815],[-101.68655203688448,22.316021832481287],[-101.7344153543817,22.292924676388818],[-101.777841013303,22.3003812385919],[-101.75945642777428,22.35275904138427],[-101.84662472122947,22.35221343927185],[-101.83457964795203,22.37531059536432],[-101.80319906230815,22.372036982689796],[-101.817145989261,22.407137385255517],[-101.79812745250713,22.470063495554687],[-101.77150150105172,22.488068365264564],[-101.73536628121938,22.48024806831987],[-101.74614345204657,22.508619378165736],[-101.69606130526141,22.520440757268183],[-101.6561223780783,22.513893531919138]]]}},{"type":"Feature","properties":{"cvegeo":"32055","cve_ent":"32","state_code":"ZAC","nom_mun":"Villanueva"},"geometry":{"type":"Polygon","coordinates":[[[-102.69453448483911,22.622286484920018],[-102.72052648506939,22.611920044784025],[-102.74398268039914,22.546265923922753],[-102.69485146045167,22.516803409852045],[-102.6634708748078,22.500071611737816],[-102.69580238728936,22.422414244403292],[-102.65522950888113,22.38913251554564],[-102.64413536244138,22.35166783715943],[-102.60990199628442,22.334208569561973],[-102.61212082557238,22.291469737422364],[-102.66917643583396,22.29165160479317],[-102.67012736267165,22.24563915997904],[-102.6412825819283,22.22836175975239],[-102.69390053361398,22.104691947603733],[-102.74556755846197,22.080503587286422],[-102.8057929248492,21.996298994602853],[-102.85904482776,22.001936883097866],[-102.86823712052437,22.036491683551166],[-102.92117204782262,22.02576150867356],[-102.92465877956083,22.05813390067718],[-102.92497575517339,22.0905062926808],[-102.94811497489059,22.090142557939185],[-102.95096775540367,22.126516032100554],[-103.00675546321499,22.136336870124126],[-103.04479253672271,22.111057305581973],[-103.05018112213631,22.041765837304563],[-103.10628580556019,22.047039991057964],[-103.10787068362302,22.063408054430578],[-103.15414912305741,22.072319555600114],[-103.12688922037688,22.103964478120506],[-103.07712404920427,22.127607236325396],[-103.10248209820942,22.153432402979966],[-103.10596882994763,22.1914426834786],[-103.05271692703683,22.2207233301785],[-103.05747156122528,22.237636995663536],[-103.02418912190603,22.273101132970872],[-103.07585614675402,22.368581502644467],[-103.02418912190603,22.40822858948036],[-103.01499682914167,22.454968503777717],[-102.97315604828317,22.448421278428672],[-102.95572238959213,22.496252396950872],[-102.91356463312107,22.513893531919138],[-102.91388160873363,22.558269170396006],[-102.81435126638843,22.54426538284388],[-102.80801175413714,22.595188246669796],[-102.78265370513199,22.613011249008867],[-102.78772531493303,22.675028022454],[-102.70467770444117,22.65138526424911],[-102.69453448483911,22.622286484920018]]]}},{"type":"Feature","properties":{"cvegeo":"32057","cve_ent":"32","state_code":"ZAC","nom_mun":"Trancoso"},"geometry":{"type":"Polygon","coordinates":[[[-102.24633096867312,22.734498652707842],[-102.25584023705005,22.68957741211855],[-102.3132128229242,22.690304881601776],[-102.36171009164654,22.676119226678843],[-102.40323389689247,22.763597432036935],[-102.37026843318577,22.8025170493896],[-102.21748618792977,22.8343438392808],[-102.24633096867312,22.734498652707842]]]}},{"type":"Feature","properties":{"cvegeo":"32001","cve_ent":"32","state_code":"ZAC","nom_mun":"Apozol"},"geometry":{"type":"Polygon","coordinates":[[[-102.94653009682777,21.483614876298354],[-102.93511897477545,21.45906278123943],[-102.98044648737215,21.361763737857768],[-103.00009897535114,21.4077761826719],[-103.03940395130913,21.42614478712339],[-103.08346356145556,21.426326654494197],[-103.13417965946586,21.455789168564905],[-103.1969408307536,21.438511768338255],[-103.21976307485824,21.453606760115225],[-103.17760531838718,21.562909049970138],[-103.11230834219892,21.530900392708133],[-103.08346356145556,21.5352652096075],[-103.02767585364424,21.502529082862267],[-102.94653009682777,21.483614876298354]]]}},{"type":"Feature","properties":{"cvegeo":"32002","cve_ent":"32","state_code":"ZAC","nom_mun":"Apulco"},"geometry":{"type":"Polygon","coordinates":[[[-102.71735672894374,21.57145681639806],[-102.69675331412705,21.543085506552192],[-102.63177331355136,21.534355872753466],[-102.62479985007495,21.501437878637425],[-102.654595557656,21.447241402136985],[-102.6590332162319,21.409049254267547],[-102.64286745999112,21.367219758981975],[-102.6821724359491,21.33921218387772],[-102.72940180222119,21.387407037141532],[-102.69168170432603,21.41523274487498],[-102.71703975333118,21.458699046497816],[-102.74366570478658,21.453061158002804],[-102.76236726592788,21.49943733755855],[-102.73669224131017,21.529263586370874],[-102.7496882414253,21.547450323451557],[-102.71735672894374,21.57145681639806]]]}},{"type":"Feature","properties":{"cvegeo":"32003","cve_ent":"32","state_code":"ZAC","nom_mun":"Atolinga"},"geometry":{"type":"Polygon","coordinates":[[[-103.42738210108789,21.728226490033563],[-103.48190190644895,21.695854098029944],[-103.52088990679437,21.63511039618046],[-103.5491007363126,21.649659785845003],[-103.52691244343309,21.675484952499577],[-103.50852785790435,21.739684134394395],[-103.52913127272103,21.773147730622853],[-103.57255693164235,21.803519581547597],[-103.52627849220796,21.80497452051405],[-103.5028222968782,21.83316396298911],[-103.47049078439663,21.813340419571166],[-103.4698568331715,21.839347453596545],[-103.4191407351612,21.89609007328828],[-103.40107312524503,21.870628641375323],[-103.31453878301497,21.856079251710774],[-103.31263692933959,21.820978849145053],[-103.3614511736745,21.818432705953757],[-103.36525488102527,21.787878987658207],[-103.38966200319273,21.794244345636447],[-103.40170707647017,21.746958829226667],[-103.42738210108789,21.728226490033563]]]}},{"type":"Feature","properties":{"cvegeo":"32004","cve_ent":"32","state_code":"ZAC","nom_mun":"Benito Juárez"},"geometry":{"type":"Polygon","coordinates":[[[-103.55512327295132,21.576549102780653],[-103.52120688240693,21.578731511230334],[-103.50123741881538,21.55527062039625],[-103.48665654063741,21.50925817558212],[-103.46953985755894,21.467246812925737],[-103.51486737015564,21.396318538311068],[-103.53895751671054,21.44469525894569],[-103.57160600480466,21.439784839933903],[-103.58682083420776,21.392317456153318],[-103.62422395649034,21.418506357549504],[-103.66099312754781,21.441603513641972],[-103.65877429825986,21.463427598138793],[-103.70156600595604,21.466337476071704],[-103.67272122521268,21.505438960795175],[-103.69459254247963,21.52889985162926],[-103.68666815216552,21.556361824621092],[-103.64736317620753,21.57491229644339],[-103.59316034645903,21.559089835183194],[-103.59157546839621,21.588916083995517],[-103.55512327295132,21.576549102780653]]]}},{"type":"Feature","properties":{"cvegeo":"32011","cve_ent":"32","state_code":"ZAC","nom_mun":"Trinidad García de la Cadena"},"geometry":{"type":"Polygon","coordinates":[[[-103.41438610097275,21.278286614657425],[-103.40455985698325,21.240094466787987],[-103.43720834507738,21.177532091230432],[-103.46922288194638,21.143341025518744],[-103.50440717494102,21.127700431629357],[-103.51138063841744,21.146250903451655],[-103.55353839488849,21.116788389380947],[-103.59569615135955,21.13279271801195],[-103.61471468811341,21.158254149924907],[-103.6245409321029,21.192990817749013],[-103.58048132195647,21.196446297794346],[-103.5811152731816,21.246641692137032],[-103.48190190644895,21.30229310760393],[-103.47841517471075,21.322844120505103],[-103.43625741823968,21.329209478483342],[-103.41438610097275,21.278286614657425]]]}},{"type":"Feature","properties":{"cvegeo":"32015","cve_ent":"32","state_code":"ZAC","nom_mun":"El Plateado de Joaquín Amaro"},"geometry":{"type":"Polygon","coordinates":[[[-102.92465877956083,22.05813390067718],[-102.97410697512086,22.04667625631635],[-103.01626473159192,21.96756395001537],[-103.01246102424115,21.935191558011752],[-103.04067185375938,21.92264270942608],[-103.01499682914167,21.88172255099454],[-103.08726726880633,21.86444515076789],[-103.15034541570664,21.896271940659087],[-103.1506623913192,21.91700482093107],[-103.14305497661766,21.96756395001537],[-103.17253370858614,21.99648086197366],[-103.11135741536123,22.01430386431273],[-103.10628580556019,22.047039991057964],[-103.05018112213631,22.041765837304563],[-103.04479253672271,22.111057305581973],[-103.00675546321499,22.136336870124126],[-102.95096775540367,22.126516032100554],[-102.94811497489059,22.090142557939185],[-102.92497575517339,22.0905062926808],[-102.92465877956083,22.05813390067718]]]}},{"type":"Feature","properties":{"cvegeo":"32018","cve_ent":"32","state_code":"ZAC","nom_mun":"Huanusco"},"geometry":{"type":"Polygon","coordinates":[[[-102.87742941328874,21.85589738433997],[-102.86855409613693,21.860625935980945],[-102.8476337057077,21.83316396298911],[-102.8536562423464,21.798791029906617],[-102.74556755846197,21.720042458347255],[-102.74810336336249,21.715859508818696],[-102.76205029031532,21.692034883243],[-102.80515897362406,21.670938268229406],[-102.8698219985872,21.742594012327302],[-102.88979146217875,21.716405110931117],[-103.00009897535114,21.71513203933547],[-103.04479253672271,21.76932851583591],[-103.083146585843,21.777148812780602],[-103.07363731746607,21.82861727871894],[-103.08726726880633,21.86444515076789],[-103.01531380475423,21.85462431274432],[-102.93892268212622,21.81770523647053],[-102.88535380360284,21.831345289281042],[-102.87742941328874,21.85589738433997]]]}},{"type":"Feature","properties":{"cvegeo":"32019","cve_ent":"32","state_code":"ZAC","nom_mun":"Jalpa"},"geometry":{"type":"Polygon","coordinates":[[[-102.80515897362406,21.670938268229406],[-102.80325711994868,21.66730092081327],[-102.82290960792767,21.65293339851953],[-102.81752102251407,21.619833537032683],[-102.84858463254538,21.631109314022705],[-102.88376892554002,21.550542068755274],[-102.94462824315238,21.504165889199527],[-102.94653009682777,21.483614876298354],[-103.02767585364424,21.502529082862267],[-103.08346356145556,21.5352652096075],[-103.11230834219892,21.530900392708133],[-103.17760531838718,21.562909049970138],[-103.1978917575913,21.585096869208574],[-103.20898590403104,21.599828126243928],[-103.15890375724588,21.632927987730774],[-103.13005897650253,21.631654916135126],[-103.1240364398638,21.673120676679087],[-103.09519165912045,21.69549036328833],[-103.1008972201466,21.717678182526765],[-103.06951663450273,21.730954500595665],[-103.083146585843,21.777148812780602],[-103.04479253672271,21.76932851583591],[-103.00009897535114,21.71513203933547],[-102.88979146217875,21.716405110931117],[-102.8698219985872,21.742594012327302],[-102.80515897362406,21.670938268229406]]]}},{"type":"Feature","properties":{"cvegeo":"32023","cve_ent":"32","state_code":"ZAC","nom_mun":"Juchipila"},"geometry":{"type":"Polygon","coordinates":[[[-102.98044648737215,21.361763737857768],[-103.02038541455526,21.33284682589948],[-103.0333814146704,21.296291484367302],[-103.10850463484815,21.29938322967102],[-103.11452717148687,21.320116109943],[-103.223566782209,21.337575377540457],[-103.23656278232414,21.326117733179625],[-103.25875107520365,21.34084899021498],[-103.25843409959108,21.397591609906716],[-103.23244209936081,21.431237073505983],[-103.21976307485824,21.453606760115225],[-103.1969408307536,21.438511768338255],[-103.13417965946586,21.455789168564905],[-103.08346356145556,21.426326654494197],[-103.03940395130913,21.42614478712339],[-103.00009897535114,21.4077761826719],[-102.98044648737215,21.361763737857768]]]}},{"type":"Feature","properties":{"cvegeo":"32028","cve_ent":"32","state_code":"ZAC","nom_mun":"Mezquital del Oro"},"geometry":{"type":"Polygon","coordinates":[[[-103.25875107520365,21.34084899021498],[-103.23656278232414,21.326117733179625],[-103.26160385571673,21.275558604095323],[-103.22958931884773,21.246096090024615],[-103.24702297753876,21.201174849435322],[-103.29456931942342,21.201174849435322],[-103.28569400227161,21.134793259090824],[-103.24955878243928,21.122608145246765],[-103.25843409959108,21.08314292578168],[-103.27745263634495,21.05131613589048],[-103.2974220999365,21.06404685184696],[-103.3471872711091,21.044223308429014],[-103.36937556398861,21.052043605373708],[-103.41850678393608,21.115151583043684],[-103.41660493026069,21.137703137023735],[-103.46922288194638,21.143341025518744],[-103.43720834507738,21.177532091230432],[-103.40455985698325,21.240094466787987],[-103.41438610097275,21.278286614657425],[-103.39283175931837,21.27628607357855],[-103.3471872711091,21.309567802436202],[-103.34211566130807,21.33957591861933],[-103.25875107520365,21.34084899021498]]]}},{"type":"Feature","properties":{"cvegeo":"32030","cve_ent":"32","state_code":"ZAC","nom_mun":"Momax"},"geometry":{"type":"Polygon","coordinates":[[[-103.17253370858614,21.99648086197366],[-103.14305497661766,21.96756395001537],[-103.1506623913192,21.91700482093107],[-103.20264639177977,21.90245543126652],[-103.26921127041827,21.913913075627352],[-103.30059185606214,21.891907123759722],[-103.38934502758016,21.898636216479577],[-103.34528541743371,21.914094942998158],[-103.33862892956986,21.94228438547322],[-103.27903751440776,21.98884243239977],[-103.26604151429262,21.972292501656348],[-103.1925031721777,21.969746358465052],[-103.20201244055463,21.998299535681728],[-103.17253370858614,21.99648086197366]]]}},{"type":"Feature","properties":{"cvegeo":"32033","cve_ent":"32","state_code":"ZAC","nom_mun":"Moyahua de Estrada"},"geometry":{"type":"Polygon","coordinates":[[[-103.0333814146704,21.296291484367302],[-103.04986414652375,21.263191622880456],[-103.08473146390583,21.194082021973855],[-103.07173546379069,21.15334373091312],[-103.09867839085865,21.13097404430388],[-103.05842248806297,21.098419784929455],[-103.05778853683785,21.09914725441268],[-103.07490521991633,21.074231424612144],[-103.12625526915176,21.054771615935813],[-103.20993683086874,21.09405496803009],[-103.25843409959108,21.08314292578168],[-103.24955878243928,21.122608145246765],[-103.28569400227161,21.134793259090824],[-103.29456931942342,21.201174849435322],[-103.24702297753876,21.201174849435322],[-103.22958931884773,21.246096090024615],[-103.26160385571673,21.275558604095323],[-103.23656278232414,21.326117733179625],[-103.223566782209,21.337575377540457],[-103.11452717148687,21.320116109943],[-103.10850463484815,21.29938322967102],[-103.0333814146704,21.296291484367302]]]}},{"type":"Feature","properties":{"cvegeo":"32034","cve_ent":"32","state_code":"ZAC","nom_mun":"Nochistlán de Mejía"},"geometry":{"type":"Polygon","coordinates":[[[-102.71735672894374,21.57145681639806],[-102.7496882414253,21.547450323451557],[-102.73669224131017,21.529263586370874],[-102.76236726592788,21.49943733755855],[-102.74366570478658,21.453061158002804],[-102.71703975333118,21.458699046497816],[-102.69168170432603,21.41523274487498],[-102.72940180222119,21.387407037141532],[-102.72781692415836,21.35703518621679],[-102.77060863185456,21.315751293043636],[-102.7915290222838,21.327936406887694],[-102.81593614445126,21.294290943288427],[-102.83717351049306,21.303202444457963],[-102.86379946194847,21.252825182744466],[-102.89898375494312,21.23754832359669],[-102.91071185260799,21.204994064222266],[-102.94811497489059,21.21463303487503],[-102.99692921922549,21.259736142835127],[-103.02672492680655,21.242095007866862],[-103.04986414652375,21.263191622880456],[-103.0333814146704,21.296291484367302],[-103.02038541455526,21.33284682589948],[-102.98044648737215,21.361763737857768],[-102.93511897477545,21.45906278123943],[-102.94653009682777,21.483614876298354],[-102.94462824315238,21.504165889199527],[-102.88376892554002,21.550542068755274],[-102.84858463254538,21.631109314022705],[-102.81752102251407,21.619833537032683],[-102.82290960792767,21.65293339851953],[-102.80325711994868,21.66730092081327],[-102.76522004644096,21.5963726461986],[-102.71735672894374,21.57145681639806]]]}},{"type":"Feature","properties":{"cvegeo":"32044","cve_ent":"32","state_code":"ZAC","nom_mun":"Tabasco"},"geometry":{"type":"Polygon","coordinates":[[[-102.92465877956083,22.05813390067718],[-102.92117204782262,22.02576150867356],[-102.86823712052437,22.036491683551166],[-102.85904482776,22.001936883097866],[-102.8057929248492,21.996298994602853],[-102.84351302274435,21.926280056842216],[-102.86855409613693,21.860625935980945],[-102.87742941328874,21.85589738433997],[-102.88535380360284,21.831345289281042],[-102.93892268212622,21.81770523647053],[-103.01531380475423,21.85462431274432],[-103.08726726880633,21.86444515076789],[-103.01499682914167,21.88172255099454],[-103.04067185375938,21.92264270942608],[-103.01246102424115,21.935191558011752],[-103.01626473159192,21.96756395001537],[-102.97410697512086,22.04667625631635],[-102.92465877956083,22.05813390067718]]]}},{"type":"Feature","properties":{"cvegeo":"32045","cve_ent":"32","state_code":"ZAC","nom_mun":"Tepechitlán"},"geometry":{"type":"Polygon","coordinates":[[[-103.15890375724588,21.632927987730774],[-103.20898590403104,21.599828126243928],[-103.1978917575913,21.585096869208574],[-103.23402697742362,21.553815681429796],[-103.25399644101519,21.515441666189552],[-103.32785175874268,21.521807024167792],[-103.31517273424011,21.535992679090725],[-103.3703264908263,21.57036561217322],[-103.51169761403,21.59218969667004],[-103.50123741881538,21.55527062039625],[-103.52120688240693,21.578731511230334],[-103.55512327295132,21.576549102780653],[-103.5491007363126,21.649659785845003],[-103.52088990679437,21.63511039618046],[-103.48190190644895,21.695854098029944],[-103.42738210108789,21.728226490033563],[-103.3934657105435,21.705674936053512],[-103.31517273424011,21.712585896144173],[-103.24512112386338,21.664754777621972],[-103.22420073343413,21.67057453348779],[-103.15890375724588,21.632927987730774]]]}},{"type":"Feature","properties":{"cvegeo":"32047","cve_ent":"32","state_code":"ZAC","nom_mun":"Teúl de González Ortega"},"geometry":{"type":"Polygon","coordinates":[[[-103.48665654063741,21.50925817558212],[-103.42579722302506,21.48561541737723],[-103.31929341720344,21.48034126362383],[-103.27935449002032,21.470884160341875],[-103.23244209936081,21.431237073505983],[-103.25843409959108,21.397591609906716],[-103.25875107520365,21.34084899021498],[-103.34211566130807,21.33957591861933],[-103.3471872711091,21.309567802436202],[-103.39283175931837,21.27628607357855],[-103.41438610097275,21.278286614657425],[-103.43625741823968,21.329209478483342],[-103.47841517471075,21.322844120505103],[-103.48190190644895,21.30229310760393],[-103.5811152731816,21.246641692137032],[-103.58048132195647,21.196446297794346],[-103.6245409321029,21.192990817749013],[-103.6353181029301,21.197173767277572],[-103.64102366395625,21.28447010526486],[-103.66574776173627,21.290471728501483],[-103.71646385974657,21.26810204189224],[-103.72121849393503,21.307749128728133],[-103.66352893244832,21.338120979652878],[-103.51042971157975,21.354852777767107],[-103.51486737015564,21.396318538311068],[-103.46953985755894,21.467246812925737],[-103.48665654063741,21.50925817558212]]]}},{"type":"Feature","properties":{"cvegeo":"32048","cve_ent":"32","state_code":"ZAC","nom_mun":"Tlaltenango de Sánchez Román"},"geometry":{"type":"Polygon","coordinates":[[[-103.1506623913192,21.91700482093107],[-103.15034541570664,21.896271940659087],[-103.08726726880633,21.86444515076789],[-103.07363731746607,21.82861727871894],[-103.083146585843,21.777148812780602],[-103.06951663450273,21.730954500595665],[-103.1008972201466,21.717678182526765],[-103.09519165912045,21.69549036328833],[-103.1240364398638,21.673120676679087],[-103.13005897650253,21.631654916135126],[-103.15890375724588,21.632927987730774],[-103.22420073343413,21.67057453348779],[-103.24512112386338,21.664754777621972],[-103.31517273424011,21.712585896144173],[-103.3934657105435,21.705674936053512],[-103.42738210108789,21.728226490033563],[-103.40170707647017,21.746958829226667],[-103.38966200319273,21.794244345636447],[-103.36525488102527,21.787878987658207],[-103.3614511736745,21.818432705953757],[-103.31263692933959,21.820978849145053],[-103.31453878301497,21.856079251710774],[-103.40107312524503,21.870628641375323],[-103.4191407351612,21.89609007328828],[-103.38934502758016,21.898636216479577],[-103.30059185606214,21.891907123759722],[-103.26921127041827,21.913913075627352],[-103.20264639177977,21.90245543126652],[-103.1506623913192,21.91700482093107]]]}},{"type":"Feature","properties":{"cvegeo":"32058","cve_ent":"32","state_code":"ZAC","nom_mun":"Santa María de la Paz"},"geometry":{"type":"Polygon","coordinates":[[[-103.1978917575913,21.585096869208574],[-103.17760531838718,21.562909049970138],[-103.21976307485824,21.453606760115225],[-103.23244209936081,21.431237073505983],[-103.27935449002032,21.470884160341875],[-103.31929341720344,21.48034126362383],[-103.42579722302506,21.48561541737723],[-103.48665654063741,21.50925817558212],[-103.50123741881538,21.55527062039625],[-103.51169761403,21.59218969667004],[-103.3703264908263,21.57036561217322],[-103.31517273424011,21.535992679090725],[-103.32785175874268,21.521807024167792],[-103.25399644101519,21.515441666189552],[-103.23402697742362,21.553815681429796],[-103.1978917575913,21.585096869208574]]]}},{"type":"Feature","properties":{"cvegeo":"32009","cve_ent":"32","state_code":"ZAC","nom_mun":"Chalchihuites"},"geometry":{"type":"Polygon","coordinates":[[[-103.7934889335997,23.503433896479184],[-103.80268122636407,23.414682619525443],[-103.74245585997684,23.441598990404856],[-103.72692405496119,23.29846936957987],[-103.75418395764173,23.303379788591656],[-103.79856054340074,23.28464744939855],[-103.81536025086665,23.31629237191894],[-103.8850948856308,23.310108881311507],[-103.90189459309671,23.27700901982466],[-103.95546347162009,23.27464474400417],[-103.99476844757807,23.31392809609845],[-104.06038239937888,23.299924308546323],[-104.11426825351482,23.317201708772973],[-104.10983059493893,23.355030121900796],[-104.06513703356735,23.463423074901677],[-103.99635332564088,23.51470967346921],[-103.89048347104439,23.57981819221806],[-103.87938932460465,23.611644982109258],[-103.81472629964152,23.58036379433048],[-103.78176083593482,23.544899657023144],[-103.7934889335997,23.503433896479184]]]}},{"type":"Feature","properties":{"cvegeo":"32021","cve_ent":"32","state_code":"ZAC","nom_mun":"Jiménez del Teul"},"geometry":{"type":"Polygon","coordinates":[[[-103.72692405496119,23.29846936957987],[-103.73548239650043,23.264096436497375],[-103.69110581074142,23.25282065950735],[-103.68730210339065,23.216810920087596],[-103.652117810396,23.232815248718598],[-103.6584573226473,23.190985753433022],[-103.68730210339065,23.196623641928035],[-103.74087098191403,23.15715842246295],[-103.76971576265738,23.159340830912633],[-103.78112688470969,23.11496519243576],[-103.80490005565203,23.094232312163783],[-103.85846893417539,23.089503760522803],[-103.87875537337952,23.061132450676936],[-103.93707888609136,23.05149348002417],[-103.99286659390268,23.073135697150185],[-104.068306789693,23.022030965953462],[-104.12726425362996,23.026941384965248],[-104.1171210340279,22.9911135129163],[-104.16308249784974,22.974745449543683],[-104.17385966867693,22.98238387911757],[-104.1722747906141,23.128423377875468],[-104.12916610730535,23.182256119634296],[-104.11426825351482,23.317201708772973],[-104.06038239937888,23.299924308546323],[-103.99476844757807,23.31392809609845],[-103.95546347162009,23.27464474400417],[-103.90189459309671,23.27700901982466],[-103.8850948856308,23.310108881311507],[-103.81536025086665,23.31629237191894],[-103.79856054340074,23.28464744939855],[-103.75418395764173,23.303379788591656],[-103.72692405496119,23.29846936957987]]]}},{"type":"Feature","properties":{"cvegeo":"32049","cve_ent":"32","state_code":"ZAC","nom_mun":"Valparaíso"},"geometry":{"type":"Polygon","coordinates":[[[-103.51772015066872,23.162432576216347],[-103.51169761403,23.12533163257175],[-103.45052132080508,23.112419049244465],[-103.43245371088891,23.12078494830158],[-103.39473361299376,23.050584143170138],[-103.37413019817707,23.0602231138229],[-103.28062239247059,23.018029883795712],[-103.24163439212518,23.009663984738598],[-103.24860785560159,22.967652622082216],[-103.22071400169592,22.948010946035076],[-103.24353624580056,22.90218036859175],[-103.20359731861745,22.88672164207317],[-103.19757478197873,22.83998172777581],[-103.21881214802055,22.836162512988867],[-103.24955878243928,22.737226663269944],[-103.21659331873259,22.69521530061356],[-103.22229887975875,22.679938441465787],[-103.27776961195751,22.67684669616207],[-103.30185975851239,22.639200150405053],[-103.35828141754885,22.638472680921826],[-103.383639466554,22.661024234901873],[-103.46288336969509,22.606282156289012],[-103.48253585767408,22.556086761946325],[-103.53737263864771,22.570454284240064],[-103.61059400515008,22.559542241991654],[-103.6619440543855,22.547357128147596],[-103.72724103057375,22.574091631656202],[-103.76908181143224,22.55572302720471],[-103.78683244573585,22.477701925128574],[-103.81028864106561,22.427324663415078],[-103.81155654351588,22.376583666959966],[-103.84547293406025,22.342756335989893],[-103.82835625098178,22.287832390006226],[-103.86322356836386,22.166708721048867],[-103.90189459309671,22.23709139355112],[-103.9259847396516,22.331662426370677],[-103.86639332448951,22.41495768220021],[-103.88572883685593,22.473518975600015],[-103.86258961713874,22.501708418075076],[-103.87558561725388,22.521531961493025],[-103.85561615366231,22.574273499027008],[-103.77383644562072,22.611192575300798],[-103.75481790886685,22.71958552830168],[-103.780175957872,22.729951968437668],[-103.8540312755995,22.729770101066862],[-103.90918503218569,22.75013924659723],[-104.02614903322194,22.743228286506568],[-104.07306142388146,22.693032892163878],[-104.01537186239474,22.66866266447576],[-104.02519810638424,22.652112733732338],[-104.01537186239474,22.595915716153023],[-103.972263179086,22.544992852327105],[-104.00554561840525,22.53662695326999],[-103.93327517874059,22.489159569489406],[-103.96053508142111,22.433144419280897],[-104.004277715955,22.40986539581762],[-104.02361322832142,22.364398553115908],[-104.04897127732657,22.37640179958916],[-104.09461576553583,22.35494144983395],[-104.05182405783965,22.46642614813855],[-104.07940093613274,22.533171473224662],[-104.12092474137867,22.515530338256397],[-104.1136343022897,22.496434264321678],[-104.16530132713768,22.513529797177522],[-104.19478005910617,22.50389082652476],[-104.1998516689072,22.456241575373365],[-104.1722747906141,22.440237246742363],[-104.16466737591256,22.39149679136613],[-104.208726986059,22.422414244403292],[-104.25437147426827,22.392769862961778],[-104.25627332794366,22.349121693968133],[-104.29240854777599,22.344393142327156],[-104.29304249900112,22.365126022599135],[-104.3500981092627,22.38640450498354],[-104.34914718242501,22.409683528446813],[-104.29621225512676,22.47279150611679],[-104.32125332851935,22.535535749045152],[-104.26039401090699,22.595915716153023],[-104.28923879165035,22.64920285579943],[-104.26324679142007,22.717584987222804],[-104.22140601056158,22.77941989329713],[-104.18717264440463,22.760505686733218],[-104.08035186297045,22.769962790015175],[-104.11141547300174,22.810882948446714],[-104.10729479003841,22.882174957803],[-104.15167137579742,22.92236764675131],[-104.16752015642564,22.955649375608964],[-104.16308249784974,22.974745449543683],[-104.1171210340279,22.9911135129163],[-104.12726425362996,23.026941384965248],[-104.068306789693,23.022030965953462],[-103.99286659390268,23.073135697150185],[-103.93707888609136,23.05149348002417],[-103.87875537337952,23.061132450676936],[-103.83120903149486,23.06095058330613],[-103.76115742111814,23.099324598546374],[-103.6752570301132,23.110054773423975],[-103.63278229802958,23.11223718187366],[-103.62137117597726,23.141154093831947],[-103.58238317563185,23.16061390250828],[-103.55861000468953,23.14951999288906],[-103.51772015066872,23.162432576216347]]]}},{"type":"Feature","properties":{"cvegeo":"32051","cve_ent":"32","state_code":"ZAC","nom_mun":"Villa de Cos"},"geometry":{"type":"Polygon","coordinates":[[[-102.27961340799237,24.008661452580604],[-102.1949809194377,23.95737485401307],[-102.1629663825687,23.956647384529845],[-102.13951018723893,23.90263277540021],[-102.097986381993,23.916818430323147],[-102.08530735749042,23.8571659326985],[-102.03839496683091,23.8598939432606],[-102.00986716170011,23.812790294221628],[-101.92079701456953,23.8438896146296],[-101.82570433080022,23.832795705010383],[-101.75977340338684,23.8120628247384],[-101.67609184166986,23.837160521909745],[-101.62347388998417,23.8306132965607],[-101.58004823106286,23.808971079434684],[-101.51665310854999,23.82297486698681],[-101.51538520609972,23.7642317062162],[-101.53440374285358,23.752410327113758],[-101.46657096176482,23.693667166343147],[-101.77498823278992,23.447600613641484],[-102.01240296660063,23.37267125686906],[-102.12239350416046,23.35375705030515],[-102.16898891920742,23.361031745137424],[-102.16898891920742,23.398860158265247],[-102.19181116331205,23.401406301456543],[-102.19371301698743,23.447600613641484],[-102.23808960274644,23.446691276787448],[-102.2536214077621,23.365032827295174],[-102.29641311545828,23.32029345407669],[-102.25488931021235,23.280828234611604],[-102.28595292024366,23.273189805037717],[-102.28943965198187,23.231724044493756],[-102.23967448080927,23.209354357884514],[-102.24094238325952,23.1691616689362],[-102.21431643180412,23.13133325580838],[-102.25996092001338,23.04585559152916],[-102.35917428674603,23.041308907258987],[-102.34839711591884,23.069680217104857],[-102.30623935944777,23.09550538375943],[-102.39087184800246,23.109691038682364],[-102.39087184800246,23.094596046905394],[-102.52463555650462,23.094232312163783],[-102.52526950772975,23.067861543396788],[-102.57598560574004,23.07931918775762],[-102.54999360550977,23.092777373197325],[-102.5186130198659,23.1691616689362],[-102.49325497086075,23.182437987005102],[-102.54492199570873,23.21826585905405],[-102.51797906864077,23.246637168899916],[-102.50466609291306,23.306835268636984],[-102.56108775194951,23.33702525219092],[-102.558551947049,23.363396020957914],[-102.48437965370894,23.439962184067596],[-102.48628150738433,23.46051319696877],[-102.54175223958309,23.47651752559977],[-102.53477877610668,23.503252029108378],[-102.56774423981336,23.516710214548084],[-102.55474823969823,23.54235351383185],[-102.60609828893365,23.581091263813708],[-102.64825604540471,23.670024408138254],[-102.70150794831552,23.672934286071165],[-102.67361409440986,23.68602873676926],[-102.69611936290192,23.733859855291456],[-102.73320550957196,23.75150099025972],[-102.73035272905888,23.798059037186274],[-102.61846033782366,23.799695843523537],[-102.55665009337362,23.84170720617992],[-102.52875623946795,23.901541571175372],[-102.54111828835796,23.94591720965224],[-102.58295906921646,23.94646281176466],[-102.60768316699648,23.97228797841923],[-102.5763025813526,23.972106111048426],[-102.55728404459875,24.015390545300455],[-102.48786638544715,23.9741066521273],[-102.4723345804315,24.010116391547058],[-102.32525789620163,23.979198938509892],[-102.27961340799237,24.008661452580604]]]}},{"type":"Feature","properties":{"cvegeo":"32014","cve_ent":"32","state_code":"ZAC","nom_mun":"General Francisco R. Murguía"},"geometry":{"type":"Polygon","coordinates":[[[-102.73035272905888,23.798059037186274],[-102.7363752656976,23.85316485054075],[-102.81149848587535,23.882809231982264],[-102.97252209705805,23.88590097728598],[-102.99027273136164,23.86462249490158],[-103.03528326834578,23.903360244883437],[-103.09836141524609,23.891902600522606],[-103.1560509767328,23.918091501918795],[-103.25843409959108,24.063767265935077],[-103.23909858722466,24.06358539856427],[-103.2387816116121,24.148153725989452],[-103.2289553676226,24.18179918958872],[-103.24543809947595,24.20944302995136],[-103.19884268442898,24.218900133233316],[-103.22927234323517,24.27327847710456],[-103.24068346528747,24.32183706510999],[-103.18521273308872,24.314016768165295],[-103.14590775713074,24.34202434326955],[-103.2200800504708,24.359665478237815],[-103.20264639177977,24.421136649570528],[-103.18774853798924,24.423319058020212],[-103.1658772207223,24.435140437122655],[-103.09867839085865,24.401676840894197],[-103.04352463427246,24.466421624901432],[-102.98361624349779,24.43313989604378],[-102.96745048725701,24.457691991102706],[-102.90120258423106,24.42859321177361],[-102.89137634024156,24.460601869035614],[-102.83210190069204,24.38476317540916],[-102.78899321738328,24.40604165779356],[-102.75190707071326,24.375851674239623],[-102.66251994797011,24.381489562734636],[-102.61180384995981,24.40040376929855],[-102.57313282522696,24.389127992308524],[-102.56774423981336,24.35311825288877],[-102.54460502009617,24.33165790313356],[-102.51734511741563,24.344570486460846],[-102.42510521415942,24.250181321012093],[-102.41971662874582,24.223992419615907],[-102.35188384765705,24.207624356243294],[-102.34903106714397,24.14906306284349],[-102.28246618850545,24.132876866841677],[-102.2910245300447,24.05249148894505],[-102.27961340799237,24.008661452580604],[-102.32525789620163,23.979198938509892],[-102.4723345804315,24.010116391547058],[-102.48786638544715,23.9741066521273],[-102.55728404459875,24.015390545300455],[-102.5763025813526,23.972106111048426],[-102.60768316699648,23.97228797841923],[-102.58295906921646,23.94646281176466],[-102.54111828835796,23.94591720965224],[-102.52875623946795,23.901541571175372],[-102.55665009337362,23.84170720617992],[-102.61846033782366,23.799695843523537],[-102.73035272905888,23.798059037186274]]]}},{"type":"Feature","properties":{"cvegeo":"32017","cve_ent":"32","state_code":"ZAC","nom_mun":"Guadalupe"},"geometry":{"type":"Polygon","coordinates":[[[-102.23396891978311,23.024940843886373],[-102.19719974872564,22.88272055991542],[-102.21748618792977,22.8343438392808],[-102.37026843318577,22.8025170493896],[-102.40323389689247,22.763597432036935],[-102.36171009164654,22.676119226678843],[-102.40006414076683,22.662115439126715],[-102.42859194589762,22.600280533052388],[-102.47296853165663,22.623559556515666],[-102.47423643410688,22.57772897907234],[-102.49959448311203,22.58336686756735],[-102.51100560516434,22.539718698573708],[-102.5629896056249,22.559542241991654],[-102.55031058112233,22.607373360513854],[-102.65079185030523,22.602099206760457],[-102.65713136255651,22.617194198537426],[-102.61624150853571,22.631561720831165],[-102.59690599616928,22.66939013395899],[-102.57218189838927,22.668480797104955],[-102.56425750807516,22.729042631583635],[-102.53921643468257,22.776328147993414],[-102.4545839461279,22.802335182018794],[-102.41559594578248,22.835071308764025],[-102.3940416041281,22.896724347467547],[-102.41559594578248,22.908909461311605],[-102.41020736036889,22.954376304013316],[-102.34269155489268,22.955649375608964],[-102.32082023762574,22.98420255282564],[-102.26186277368878,22.98874923709581],[-102.23396891978311,23.024940843886373]]]}},{"type":"Feature","properties":{"cvegeo":"32022","cve_ent":"32","state_code":"ZAC","nom_mun":"Juan Aldama"},"geometry":{"type":"Polygon","coordinates":[[[-103.20264639177977,24.421136649570528],[-103.2200800504708,24.359665478237815],[-103.14590775713074,24.34202434326955],[-103.18521273308872,24.314016768165295],[-103.24068346528747,24.32183706510999],[-103.22927234323517,24.27327847710456],[-103.19884268442898,24.218900133233316],[-103.24543809947595,24.20944302995136],[-103.2289553676226,24.18179918958872],[-103.2387816116121,24.148153725989452],[-103.23909858722466,24.06358539856427],[-103.25843409959108,24.063767265935077],[-103.2609699044916,24.065404072272337],[-103.38776014951733,24.2423610240674],[-103.43340463772661,24.358392406642167],[-103.41945771077377,24.43023001811087],[-103.38649224706708,24.422955323278597],[-103.28284122175855,24.428775079144415],[-103.25399644101519,24.447325550966713],[-103.22324980659644,24.417135567412778],[-103.20264639177977,24.421136649570528]]]}},{"type":"Feature","properties":{"cvegeo":"32050","cve_ent":"32","state_code":"ZAC","nom_mun":"Vetagrande"},"geometry":{"type":"Polygon","coordinates":[[[-102.41020736036889,22.954376304013316],[-102.41559594578248,22.908909461311605],[-102.3940416041281,22.896724347467547],[-102.41559594578248,22.835071308764025],[-102.4545839461279,22.802335182018794],[-102.53921643468257,22.776328147993414],[-102.55728404459875,22.810155478963487],[-102.58581184972954,22.811428550559135],[-102.57059702032645,22.851984974249063],[-102.54777477622181,22.84743828997889],[-102.50688492220101,22.873263456633463],[-102.46821389746816,22.873263456633463],[-102.42669009222223,22.894360071647057],[-102.44951233632686,22.930915413179235],[-102.41020736036889,22.954376304013316]]]}},{"type":"Feature","properties":{"cvegeo":"32056","cve_ent":"32","state_code":"ZAC","nom_mun":"Zacatecas"},"geometry":{"type":"Polygon","coordinates":[[[-102.58581184972954,22.811428550559135],[-102.55728404459875,22.810155478963487],[-102.53921643468257,22.776328147993414],[-102.56425750807516,22.729042631583635],[-102.57218189838927,22.668480797104955],[-102.59690599616928,22.66939013395899],[-102.61624150853571,22.631561720831165],[-102.65713136255651,22.617194198537426],[-102.69453448483911,22.622286484920018],[-102.70467770444117,22.65138526424911],[-102.78772531493303,22.675028022454],[-102.76205029031532,22.722131671492974],[-102.77948394900635,22.76559797311581],[-102.76205029031532,22.781420434376006],[-102.84985253499563,22.810882948446714],[-102.84319604713178,22.837981186696936],[-102.795015754022,22.835616910876446],[-102.74556755846197,22.83307076768515],[-102.74746941213735,22.80488132521009],[-102.68502521646218,22.817066439054148],[-102.62892053303828,22.81524776534608],[-102.60546433770853,22.789604466062315],[-102.58581184972954,22.811428550559135]]]}},{"type":"Feature","properties":{"cvegeo":"32029","cve_ent":"32","state_code":"ZAC","nom_mun":"Miguel Auza"},"geometry":{"type":"Polygon","coordinates":[[[-103.2609699044916,24.065404072272337],[-103.30059185606214,23.977198397431017],[-103.30978414882651,23.984836827004905],[-103.33926288079499,24.00920705469302],[-103.37761692991528,23.971014906823584],[-103.41311819852248,23.968832498373903],[-103.43815927191507,23.999931818781874],[-103.4752454185851,23.994839532399283],[-103.53705566303515,24.01448120844642],[-103.57065507796696,24.008661452580604],[-103.56716834622875,23.98683736808378],[-103.65972522509755,23.989565378645885],[-103.75006327467838,24.048672274158108],[-103.74562561610249,24.08904683047723],[-103.66067615193525,24.149244930214294],[-103.63626902976779,24.11014344549082],[-103.55924395591465,24.198349120332143],[-103.56304766326542,24.257092281102754],[-103.56875322429158,24.286372927802656],[-103.50662600422896,24.28800973413992],[-103.46256639408253,24.320382126143535],[-103.43340463772661,24.358392406642167],[-103.38776014951733,24.2423610240674],[-103.2609699044916,24.065404072272337]]]}}]}